<?xml version="1.0" encoding="UTF-8"?>
<gpx version="1.1" creator="GPSBabel - https://www.gpsbabel.org" xmlns="http://www.topografix.com/GPX/1/1" xmlns:xsi="http://www.w3.org/2001/XMLSchema-instance">
  <metadata>
    <time>2026-09-21T13:31:31.276Z</time>
    <bounds minlat="50.576198000" minlon="5.567499000" maxlat="50.581872000" maxlon="5.595010000"/>
  </metadata>
  <trk>
    <name>Course à pied le midi</name>
    <type>running</type>
    <trkseg>
      <trkpt lat="50.577988000" lon="5.569804000">
        <ele>232.200</ele>
      </trkpt>
      <trkpt lat="50.577926000" lon="5.569563000">
        <ele>232.700</ele>
      </trkpt>
      <trkpt lat="50.577810000" lon="5.569317000">
        <ele>233.000</ele>
      </trkpt>
      <trkpt lat="50.577733000" lon="5.569146000">
        <ele>233.100</ele>
      </trkpt>
      <trkpt lat="50.577683000" lon="5.569105000">
        <ele>233.100</ele>
      </trkpt>
      <trkpt lat="50.577621000" lon="5.568972000">
        <ele>233.200</ele>
      </trkpt>
      <trkpt lat="50.577590000" lon="5.568693000">
        <ele>233.300</ele>
      </trkpt>
      <trkpt lat="50.577581000" lon="5.568668000">
        <ele>233.300</ele>
      </trkpt>
      <trkpt lat="50.577589000" lon="5.568420000">
        <ele>233.200</ele>
      </trkpt>
      <trkpt lat="50.577649000" lon="5.568113000">
        <ele>232.300</ele>
      </trkpt>
      <trkpt lat="50.577657000" lon="5.568002000">
        <ele>231.900</ele>
      </trkpt>
      <trkpt lat="50.577663000" lon="5.567699000">
        <ele>230.900</ele>
      </trkpt>
      <trkpt lat="50.577679000" lon="5.567685000">
        <ele>230.800</ele>
      </trkpt>
      <trkpt lat="50.577701000" lon="5.567710000">
        <ele>230.000</ele>
      </trkpt>
      <trkpt lat="50.577767000" lon="5.567861000">
        <ele>227.200</ele>
      </trkpt>
      <trkpt lat="50.577806000" lon="5.567847000">
        <ele>227.000</ele>
      </trkpt>
      <trkpt lat="50.577908000" lon="5.567776000">
        <ele>226.500</ele>
      </trkpt>
      <trkpt lat="50.577907000" lon="5.567804000">
        <ele>226.500</ele>
      </trkpt>
      <trkpt lat="50.578008000" lon="5.568050000">
        <ele>226.200</ele>
      </trkpt>
      <trkpt lat="50.578011000" lon="5.568045000">
        <ele>226.200</ele>
      </trkpt>
      <trkpt lat="50.578017000" lon="5.568056000">
        <ele>226.200</ele>
      </trkpt>
      <trkpt lat="50.578045000" lon="5.567963000">
        <ele>226.100</ele>
      </trkpt>
      <trkpt lat="50.578065000" lon="5.567927000">
        <ele>226.100</ele>
      </trkpt>
      <trkpt lat="50.578151000" lon="5.567883000">
        <ele>225.200</ele>
      </trkpt>
      <trkpt lat="50.578160000" lon="5.567870000">
        <ele>225.000</ele>
      </trkpt>
      <trkpt lat="50.578176000" lon="5.567859000">
        <ele>224.700</ele>
      </trkpt>
      <trkpt lat="50.578225000" lon="5.567863000">
        <ele>223.900</ele>
      </trkpt>
      <trkpt lat="50.578269000" lon="5.567874000">
        <ele>223.400</ele>
      </trkpt>
      <trkpt lat="50.578300000" lon="5.567868000">
        <ele>223.200</ele>
      </trkpt>
      <trkpt lat="50.578316000" lon="5.567856000">
        <ele>223.000</ele>
      </trkpt>
      <trkpt lat="50.578392000" lon="5.567772000">
        <ele>222.200</ele>
      </trkpt>
      <trkpt lat="50.578437000" lon="5.567727000">
        <ele>221.700</ele>
      </trkpt>
      <trkpt lat="50.578460000" lon="5.567711000">
        <ele>221.400</ele>
      </trkpt>
      <trkpt lat="50.578495000" lon="5.567648000">
        <ele>220.800</ele>
      </trkpt>
      <trkpt lat="50.578535000" lon="5.567605000">
        <ele>220.300</ele>
      </trkpt>
      <trkpt lat="50.578646000" lon="5.567501000">
        <ele>218.900</ele>
      </trkpt>
      <trkpt lat="50.578672000" lon="5.567499000">
        <ele>218.600</ele>
      </trkpt>
      <trkpt lat="50.578700000" lon="5.567591000">
        <ele>217.900</ele>
      </trkpt>
      <trkpt lat="50.578731000" lon="5.567790000">
        <ele>218.200</ele>
      </trkpt>
      <trkpt lat="50.578793000" lon="5.568095000">
        <ele>218.900</ele>
      </trkpt>
      <trkpt lat="50.578806000" lon="5.568137000">
        <ele>219.000</ele>
      </trkpt>
      <trkpt lat="50.578832000" lon="5.568255000">
        <ele>219.300</ele>
      </trkpt>
      <trkpt lat="50.578893000" lon="5.568415000">
        <ele>219.700</ele>
      </trkpt>
      <trkpt lat="50.578883000" lon="5.568579000">
        <ele>220.000</ele>
      </trkpt>
      <trkpt lat="50.578917000" lon="5.568797000">
        <ele>220.500</ele>
      </trkpt>
      <trkpt lat="50.578929000" lon="5.568977000">
        <ele>220.800</ele>
      </trkpt>
      <trkpt lat="50.578933000" lon="5.569011000">
        <ele>220.900</ele>
      </trkpt>
      <trkpt lat="50.578930000" lon="5.569069000">
        <ele>221.100</ele>
      </trkpt>
      <trkpt lat="50.578951000" lon="5.569117000">
        <ele>220.900</ele>
      </trkpt>
      <trkpt lat="50.578960000" lon="5.569112000">
        <ele>220.800</ele>
      </trkpt>
      <trkpt lat="50.578971000" lon="5.569082000">
        <ele>220.500</ele>
      </trkpt>
      <trkpt lat="50.579183000" lon="5.568818000">
        <ele>216.700</ele>
      </trkpt>
      <trkpt lat="50.579295000" lon="5.568748000">
        <ele>214.000</ele>
      </trkpt>
      <trkpt lat="50.579439000" lon="5.568648000">
        <ele>211.500</ele>
      </trkpt>
      <trkpt lat="50.579548000" lon="5.568548000">
        <ele>209.400</ele>
      </trkpt>
      <trkpt lat="50.579575000" lon="5.568539000">
        <ele>209.000</ele>
      </trkpt>
      <trkpt lat="50.579597000" lon="5.568536000">
        <ele>208.600</ele>
      </trkpt>
      <trkpt lat="50.579649000" lon="5.568507000">
        <ele>207.600</ele>
      </trkpt>
      <trkpt lat="50.579724000" lon="5.568452000">
        <ele>206.000</ele>
      </trkpt>
      <trkpt lat="50.579765000" lon="5.568446000">
        <ele>205.100</ele>
      </trkpt>
      <trkpt lat="50.579814000" lon="5.568413000">
        <ele>204.000</ele>
      </trkpt>
      <trkpt lat="50.579891000" lon="5.568336000">
        <ele>202.000</ele>
      </trkpt>
      <trkpt lat="50.579922000" lon="5.568314000">
        <ele>201.300</ele>
      </trkpt>
      <trkpt lat="50.579982000" lon="5.568307000">
        <ele>199.800</ele>
      </trkpt>
      <trkpt lat="50.580002000" lon="5.568327000">
        <ele>199.300</ele>
      </trkpt>
      <trkpt lat="50.580013000" lon="5.568327000">
        <ele>199.000</ele>
      </trkpt>
      <trkpt lat="50.580017000" lon="5.568318000">
        <ele>198.800</ele>
      </trkpt>
      <trkpt lat="50.580059000" lon="5.568312000">
        <ele>197.700</ele>
      </trkpt>
      <trkpt lat="50.580087000" lon="5.568255000">
        <ele>196.600</ele>
      </trkpt>
      <trkpt lat="50.580138000" lon="5.568208000">
        <ele>195.100</ele>
      </trkpt>
      <trkpt lat="50.580161000" lon="5.568194000">
        <ele>194.400</ele>
      </trkpt>
      <trkpt lat="50.580205000" lon="5.568183000">
        <ele>193.300</ele>
      </trkpt>
      <trkpt lat="50.580236000" lon="5.568167000">
        <ele>192.600</ele>
      </trkpt>
      <trkpt lat="50.580249000" lon="5.568173000">
        <ele>192.300</ele>
      </trkpt>
      <trkpt lat="50.580270000" lon="5.568168000">
        <ele>191.800</ele>
      </trkpt>
      <trkpt lat="50.580280000" lon="5.568173000">
        <ele>191.600</ele>
      </trkpt>
      <trkpt lat="50.580311000" lon="5.568207000">
        <ele>191.300</ele>
      </trkpt>
      <trkpt lat="50.580392000" lon="5.568381000">
        <ele>191.400</ele>
      </trkpt>
      <trkpt lat="50.580500000" lon="5.568583000">
        <ele>192.200</ele>
      </trkpt>
      <trkpt lat="50.580511000" lon="5.568609000">
        <ele>192.300</ele>
      </trkpt>
      <trkpt lat="50.580523000" lon="5.568620000">
        <ele>192.400</ele>
      </trkpt>
      <trkpt lat="50.580563000" lon="5.568686000">
        <ele>192.800</ele>
      </trkpt>
      <trkpt lat="50.580636000" lon="5.568817000">
        <ele>193.500</ele>
      </trkpt>
      <trkpt lat="50.580694000" lon="5.568942000">
        <ele>194.300</ele>
      </trkpt>
      <trkpt lat="50.580688000" lon="5.569021000">
        <ele>194.700</ele>
      </trkpt>
      <trkpt lat="50.580686000" lon="5.569093000">
        <ele>195.000</ele>
      </trkpt>
      <trkpt lat="50.580678000" lon="5.569106000">
        <ele>195.100</ele>
      </trkpt>
      <trkpt lat="50.580682000" lon="5.569210000">
        <ele>195.700</ele>
      </trkpt>
      <trkpt lat="50.580690000" lon="5.569264000">
        <ele>196.000</ele>
      </trkpt>
      <trkpt lat="50.580734000" lon="5.569368000">
        <ele>196.800</ele>
      </trkpt>
      <trkpt lat="50.580754000" lon="5.569526000">
        <ele>197.900</ele>
      </trkpt>
      <trkpt lat="50.580829000" lon="5.569705000">
        <ele>199.400</ele>
      </trkpt>
      <trkpt lat="50.580783000" lon="5.569911000">
        <ele>200.800</ele>
      </trkpt>
      <trkpt lat="50.580788000" lon="5.569969000">
        <ele>201.100</ele>
      </trkpt>
      <trkpt lat="50.580782000" lon="5.570106000">
        <ele>201.700</ele>
      </trkpt>
      <trkpt lat="50.580779000" lon="5.570123000">
        <ele>201.900</ele>
      </trkpt>
      <trkpt lat="50.580747000" lon="5.570132000">
        <ele>202.400</ele>
      </trkpt>
      <trkpt lat="50.580732000" lon="5.570127000">
        <ele>202.600</ele>
      </trkpt>
      <trkpt lat="50.580705000" lon="5.570132000">
        <ele>202.700</ele>
      </trkpt>
      <trkpt lat="50.580675000" lon="5.570105000">
        <ele>202.800</ele>
      </trkpt>
      <trkpt lat="50.580675000" lon="5.570045000">
        <ele>202.900</ele>
      </trkpt>
      <trkpt lat="50.580653000" lon="5.570033000">
        <ele>203.000</ele>
      </trkpt>
      <trkpt lat="50.580633000" lon="5.570027000">
        <ele>203.100</ele>
      </trkpt>
      <trkpt lat="50.580616000" lon="5.570005000">
        <ele>203.100</ele>
      </trkpt>
      <trkpt lat="50.580657000" lon="5.570079000">
        <ele>202.900</ele>
      </trkpt>
      <trkpt lat="50.580683000" lon="5.570156000">
        <ele>202.700</ele>
      </trkpt>
      <trkpt lat="50.580692000" lon="5.570218000">
        <ele>202.600</ele>
      </trkpt>
      <trkpt lat="50.580712000" lon="5.570307000">
        <ele>202.700</ele>
      </trkpt>
      <trkpt lat="50.580745000" lon="5.570417000">
        <ele>203.000</ele>
      </trkpt>
      <trkpt lat="50.580769000" lon="5.570476000">
        <ele>203.100</ele>
      </trkpt>
      <trkpt lat="50.580802000" lon="5.570593000">
        <ele>203.300</ele>
      </trkpt>
      <trkpt lat="50.580848000" lon="5.570826000">
        <ele>203.600</ele>
      </trkpt>
      <trkpt lat="50.580929000" lon="5.571043000">
        <ele>203.800</ele>
      </trkpt>
      <trkpt lat="50.580997000" lon="5.571312000">
        <ele>204.100</ele>
      </trkpt>
      <trkpt lat="50.581036000" lon="5.571551000">
        <ele>204.400</ele>
      </trkpt>
      <trkpt lat="50.581100000" lon="5.571816000">
        <ele>204.900</ele>
      </trkpt>
      <trkpt lat="50.581156000" lon="5.572091000">
        <ele>205.400</ele>
      </trkpt>
      <trkpt lat="50.581179000" lon="5.572417000">
        <ele>205.900</ele>
      </trkpt>
      <trkpt lat="50.581161000" lon="5.572519000">
        <ele>206.100</ele>
      </trkpt>
      <trkpt lat="50.581159000" lon="5.572704000">
        <ele>206.400</ele>
      </trkpt>
      <trkpt lat="50.581155000" lon="5.572770000">
        <ele>206.500</ele>
      </trkpt>
      <trkpt lat="50.581099000" lon="5.573029000">
        <ele>206.800</ele>
      </trkpt>
      <trkpt lat="50.581085000" lon="5.573058000">
        <ele>206.900</ele>
      </trkpt>
      <trkpt lat="50.581046000" lon="5.573174000">
        <ele>207.000</ele>
      </trkpt>
      <trkpt lat="50.580939000" lon="5.573401000">
        <ele>207.100</ele>
      </trkpt>
      <trkpt lat="50.580830000" lon="5.573622000">
        <ele>207.100</ele>
      </trkpt>
      <trkpt lat="50.580797000" lon="5.573673000">
        <ele>207.100</ele>
      </trkpt>
      <trkpt lat="50.580744000" lon="5.573771000">
        <ele>207.200</ele>
      </trkpt>
      <trkpt lat="50.580739000" lon="5.573803000">
        <ele>207.200</ele>
      </trkpt>
      <trkpt lat="50.580698000" lon="5.573935000">
        <ele>207.300</ele>
      </trkpt>
      <trkpt lat="50.580681000" lon="5.573958000">
        <ele>207.300</ele>
      </trkpt>
      <trkpt lat="50.580589000" lon="5.574117000">
        <ele>207.200</ele>
      </trkpt>
      <trkpt lat="50.580491000" lon="5.574304000">
        <ele>207.100</ele>
      </trkpt>
      <trkpt lat="50.580308000" lon="5.574432000">
        <ele>207.600</ele>
      </trkpt>
      <trkpt lat="50.580183000" lon="5.574601000">
        <ele>208.100</ele>
      </trkpt>
      <trkpt lat="50.580085000" lon="5.574647000">
        <ele>208.500</ele>
      </trkpt>
      <trkpt lat="50.579986000" lon="5.574720000">
        <ele>209.000</ele>
      </trkpt>
      <trkpt lat="50.579904000" lon="5.574856000">
        <ele>209.600</ele>
      </trkpt>
      <trkpt lat="50.579817000" lon="5.575026000">
        <ele>210.600</ele>
      </trkpt>
      <trkpt lat="50.579789000" lon="5.575050000">
        <ele>210.900</ele>
      </trkpt>
      <trkpt lat="50.579770000" lon="5.575089000">
        <ele>211.200</ele>
      </trkpt>
      <trkpt lat="50.579707000" lon="5.575247000">
        <ele>212.200</ele>
      </trkpt>
      <trkpt lat="50.579676000" lon="5.575297000">
        <ele>212.600</ele>
      </trkpt>
      <trkpt lat="50.579551000" lon="5.575452000">
        <ele>214.000</ele>
      </trkpt>
      <trkpt lat="50.579542000" lon="5.575474000">
        <ele>214.100</ele>
      </trkpt>
      <trkpt lat="50.579453000" lon="5.575623000">
        <ele>215.300</ele>
      </trkpt>
      <trkpt lat="50.579407000" lon="5.575678000">
        <ele>215.800</ele>
      </trkpt>
      <trkpt lat="50.579392000" lon="5.575725000">
        <ele>216.100</ele>
      </trkpt>
      <trkpt lat="50.579239000" lon="5.575884000">
        <ele>217.800</ele>
      </trkpt>
      <trkpt lat="50.579202000" lon="5.575908000">
        <ele>218.100</ele>
      </trkpt>
      <trkpt lat="50.579103000" lon="5.575957000">
        <ele>218.500</ele>
      </trkpt>
      <trkpt lat="50.579080000" lon="5.575979000">
        <ele>218.600</ele>
      </trkpt>
      <trkpt lat="50.579081000" lon="5.576025000">
        <ele>218.800</ele>
      </trkpt>
      <trkpt lat="50.579068000" lon="5.576041000">
        <ele>218.800</ele>
      </trkpt>
      <trkpt lat="50.579020000" lon="5.576145000">
        <ele>219.000</ele>
      </trkpt>
      <trkpt lat="50.579008000" lon="5.576206000">
        <ele>219.000</ele>
      </trkpt>
      <trkpt lat="50.578976000" lon="5.576288000">
        <ele>219.100</ele>
      </trkpt>
      <trkpt lat="50.578929000" lon="5.576349000">
        <ele>219.200</ele>
      </trkpt>
      <trkpt lat="50.578865000" lon="5.576408000">
        <ele>219.200</ele>
      </trkpt>
      <trkpt lat="50.578858000" lon="5.576421000">
        <ele>219.200</ele>
      </trkpt>
      <trkpt lat="50.578854000" lon="5.576453000">
        <ele>219.200</ele>
      </trkpt>
      <trkpt lat="50.578856000" lon="5.576465000">
        <ele>219.200</ele>
      </trkpt>
      <trkpt lat="50.578848000" lon="5.576507000">
        <ele>219.200</ele>
      </trkpt>
      <trkpt lat="50.578810000" lon="5.576588000">
        <ele>219.100</ele>
      </trkpt>
      <trkpt lat="50.578737000" lon="5.576855000">
        <ele>218.400</ele>
      </trkpt>
      <trkpt lat="50.578727000" lon="5.577017000">
        <ele>217.700</ele>
      </trkpt>
      <trkpt lat="50.578711000" lon="5.577100000">
        <ele>217.300</ele>
      </trkpt>
      <trkpt lat="50.578707000" lon="5.577369000">
        <ele>215.400</ele>
      </trkpt>
      <trkpt lat="50.578735000" lon="5.577536000">
        <ele>214.100</ele>
      </trkpt>
      <trkpt lat="50.578761000" lon="5.577621000">
        <ele>213.400</ele>
      </trkpt>
      <trkpt lat="50.578793000" lon="5.577843000">
        <ele>211.600</ele>
      </trkpt>
      <trkpt lat="50.578873000" lon="5.578031000">
        <ele>209.700</ele>
      </trkpt>
      <trkpt lat="50.578893000" lon="5.578051000">
        <ele>209.400</ele>
      </trkpt>
      <trkpt lat="50.578990000" lon="5.578091000">
        <ele>208.100</ele>
      </trkpt>
      <trkpt lat="50.579056000" lon="5.578141000">
        <ele>207.200</ele>
      </trkpt>
      <trkpt lat="50.579165000" lon="5.578159000">
        <ele>205.800</ele>
      </trkpt>
      <trkpt lat="50.579331000" lon="5.578126000">
        <ele>203.600</ele>
      </trkpt>
      <trkpt lat="50.579487000" lon="5.578040000">
        <ele>201.600</ele>
      </trkpt>
      <trkpt lat="50.579686000" lon="5.577999000">
        <ele>199.500</ele>
      </trkpt>
      <trkpt lat="50.579714000" lon="5.577989000">
        <ele>199.200</ele>
      </trkpt>
      <trkpt lat="50.579934000" lon="5.577877000">
        <ele>196.900</ele>
      </trkpt>
      <trkpt lat="50.580119000" lon="5.577828000">
        <ele>195.100</ele>
      </trkpt>
      <trkpt lat="50.580197000" lon="5.577823000">
        <ele>194.300</ele>
      </trkpt>
      <trkpt lat="50.580386000" lon="5.577854000">
        <ele>192.600</ele>
      </trkpt>
      <trkpt lat="50.580499000" lon="5.577904000">
        <ele>191.500</ele>
      </trkpt>
      <trkpt lat="50.580681000" lon="5.578029000">
        <ele>189.800</ele>
      </trkpt>
      <trkpt lat="50.580732000" lon="5.578079000">
        <ele>189.400</ele>
      </trkpt>
      <trkpt lat="50.580899000" lon="5.578275000">
        <ele>187.800</ele>
      </trkpt>
      <trkpt lat="50.581071000" lon="5.578532000">
        <ele>186.200</ele>
      </trkpt>
      <trkpt lat="50.581252000" lon="5.578812000">
        <ele>184.900</ele>
      </trkpt>
      <trkpt lat="50.581267000" lon="5.578845000">
        <ele>184.700</ele>
      </trkpt>
      <trkpt lat="50.581394000" lon="5.579086000">
        <ele>183.900</ele>
      </trkpt>
      <trkpt lat="50.581437000" lon="5.579198000">
        <ele>183.500</ele>
      </trkpt>
      <trkpt lat="50.581515000" lon="5.579356000">
        <ele>183.000</ele>
      </trkpt>
      <trkpt lat="50.581659000" lon="5.579680000">
        <ele>182.200</ele>
      </trkpt>
      <trkpt lat="50.581736000" lon="5.579877000">
        <ele>181.800</ele>
      </trkpt>
      <trkpt lat="50.581764000" lon="5.579997000">
        <ele>181.500</ele>
      </trkpt>
      <trkpt lat="50.581847000" lon="5.580287000">
        <ele>180.900</ele>
      </trkpt>
      <trkpt lat="50.581872000" lon="5.580558000">
        <ele>180.300</ele>
      </trkpt>
      <trkpt lat="50.581854000" lon="5.580873000">
        <ele>179.700</ele>
      </trkpt>
      <trkpt lat="50.581767000" lon="5.581159000">
        <ele>178.800</ele>
      </trkpt>
      <trkpt lat="50.581629000" lon="5.581404000">
        <ele>177.500</ele>
      </trkpt>
      <trkpt lat="50.581483000" lon="5.581584000">
        <ele>176.400</ele>
      </trkpt>
      <trkpt lat="50.581301000" lon="5.581735000">
        <ele>175.200</ele>
      </trkpt>
      <trkpt lat="50.581175000" lon="5.581850000">
        <ele>174.500</ele>
      </trkpt>
      <trkpt lat="50.581068000" lon="5.582034000">
        <ele>174.000</ele>
      </trkpt>
      <trkpt lat="50.581037000" lon="5.582168000">
        <ele>173.800</ele>
      </trkpt>
      <trkpt lat="50.581023000" lon="5.582391000">
        <ele>173.600</ele>
      </trkpt>
      <trkpt lat="50.581055000" lon="5.582689000">
        <ele>173.200</ele>
      </trkpt>
      <trkpt lat="50.581053000" lon="5.582729000">
        <ele>173.100</ele>
      </trkpt>
      <trkpt lat="50.581062000" lon="5.583028000">
        <ele>172.800</ele>
      </trkpt>
      <trkpt lat="50.581070000" lon="5.583071000">
        <ele>172.700</ele>
      </trkpt>
      <trkpt lat="50.581114000" lon="5.583145000">
        <ele>172.600</ele>
      </trkpt>
      <trkpt lat="50.581122000" lon="5.583172000">
        <ele>172.600</ele>
      </trkpt>
      <trkpt lat="50.581135000" lon="5.583204000">
        <ele>172.500</ele>
      </trkpt>
      <trkpt lat="50.581140000" lon="5.583211000">
        <ele>172.500</ele>
      </trkpt>
      <trkpt lat="50.581149000" lon="5.583293000">
        <ele>172.400</ele>
      </trkpt>
      <trkpt lat="50.581124000" lon="5.583371000">
        <ele>172.300</ele>
      </trkpt>
      <trkpt lat="50.581131000" lon="5.583371000">
        <ele>172.300</ele>
      </trkpt>
      <trkpt lat="50.581130000" lon="5.583416000">
        <ele>172.300</ele>
      </trkpt>
      <trkpt lat="50.581117000" lon="5.583439000">
        <ele>172.200</ele>
      </trkpt>
      <trkpt lat="50.581080000" lon="5.583532000">
        <ele>172.100</ele>
      </trkpt>
      <trkpt lat="50.581069000" lon="5.583575000">
        <ele>172.000</ele>
      </trkpt>
      <trkpt lat="50.581072000" lon="5.583622000">
        <ele>172.000</ele>
      </trkpt>
      <trkpt lat="50.581088000" lon="5.583709000">
        <ele>171.800</ele>
      </trkpt>
      <trkpt lat="50.581097000" lon="5.583722000">
        <ele>171.800</ele>
      </trkpt>
      <trkpt lat="50.581108000" lon="5.583749000">
        <ele>171.700</ele>
      </trkpt>
      <trkpt lat="50.581063000" lon="5.583768000">
        <ele>171.600</ele>
      </trkpt>
      <trkpt lat="50.581044000" lon="5.583697000">
        <ele>171.500</ele>
      </trkpt>
      <trkpt lat="50.581050000" lon="5.583611000">
        <ele>171.300</ele>
      </trkpt>
      <trkpt lat="50.581083000" lon="5.584008000">
        <ele>170.600</ele>
      </trkpt>
      <trkpt lat="50.581084000" lon="5.584100000">
        <ele>170.400</ele>
      </trkpt>
      <trkpt lat="50.581082000" lon="5.584237000">
        <ele>170.100</ele>
      </trkpt>
      <trkpt lat="50.581074000" lon="5.584357000">
        <ele>169.900</ele>
      </trkpt>
      <trkpt lat="50.581080000" lon="5.584424000">
        <ele>169.800</ele>
      </trkpt>
      <trkpt lat="50.581078000" lon="5.584633000">
        <ele>169.400</ele>
      </trkpt>
      <trkpt lat="50.581068000" lon="5.584941000">
        <ele>169.100</ele>
      </trkpt>
      <trkpt lat="50.581036000" lon="5.585291000">
        <ele>168.700</ele>
      </trkpt>
      <trkpt lat="50.581026000" lon="5.585560000">
        <ele>168.400</ele>
      </trkpt>
      <trkpt lat="50.581027000" lon="5.585596000">
        <ele>168.300</ele>
      </trkpt>
      <trkpt lat="50.581001000" lon="5.585733000">
        <ele>168.200</ele>
      </trkpt>
      <trkpt lat="50.581000000" lon="5.585775000">
        <ele>168.100</ele>
      </trkpt>
      <trkpt lat="50.581015000" lon="5.585897000">
        <ele>168.000</ele>
      </trkpt>
      <trkpt lat="50.581041000" lon="5.586192000">
        <ele>167.600</ele>
      </trkpt>
      <trkpt lat="50.581145000" lon="5.586592000">
        <ele>167.000</ele>
      </trkpt>
      <trkpt lat="50.581204000" lon="5.586891000">
        <ele>166.700</ele>
      </trkpt>
      <trkpt lat="50.581290000" lon="5.587215000">
        <ele>166.100</ele>
      </trkpt>
      <trkpt lat="50.581297000" lon="5.587256000">
        <ele>166.100</ele>
      </trkpt>
      <trkpt lat="50.581376000" lon="5.587543000">
        <ele>165.300</ele>
      </trkpt>
      <trkpt lat="50.581437000" lon="5.587882000">
        <ele>164.500</ele>
      </trkpt>
      <trkpt lat="50.581480000" lon="5.588161000">
        <ele>163.800</ele>
      </trkpt>
      <trkpt lat="50.581489000" lon="5.588201000">
        <ele>163.700</ele>
      </trkpt>
      <trkpt lat="50.581543000" lon="5.588505000">
        <ele>162.900</ele>
      </trkpt>
      <trkpt lat="50.581582000" lon="5.588622000">
        <ele>162.600</ele>
      </trkpt>
      <trkpt lat="50.581595000" lon="5.588671000">
        <ele>162.500</ele>
      </trkpt>
      <trkpt lat="50.581652000" lon="5.588957000">
        <ele>162.000</ele>
      </trkpt>
      <trkpt lat="50.581664000" lon="5.589003000">
        <ele>161.900</ele>
      </trkpt>
      <trkpt lat="50.581681000" lon="5.589226000">
        <ele>161.700</ele>
      </trkpt>
      <trkpt lat="50.581672000" lon="5.589334000">
        <ele>161.800</ele>
      </trkpt>
      <trkpt lat="50.581645000" lon="5.589390000">
        <ele>161.900</ele>
      </trkpt>
      <trkpt lat="50.581515000" lon="5.589471000">
        <ele>162.100</ele>
      </trkpt>
      <trkpt lat="50.581394000" lon="5.589538000">
        <ele>162.200</ele>
      </trkpt>
      <trkpt lat="50.581266000" lon="5.589656000">
        <ele>162.100</ele>
      </trkpt>
      <trkpt lat="50.581114000" lon="5.589756000">
        <ele>161.700</ele>
      </trkpt>
      <trkpt lat="50.580981000" lon="5.589882000">
        <ele>161.000</ele>
      </trkpt>
      <trkpt lat="50.580857000" lon="5.589984000">
        <ele>160.300</ele>
      </trkpt>
      <trkpt lat="50.580747000" lon="5.590085000">
        <ele>159.600</ele>
      </trkpt>
      <trkpt lat="50.580714000" lon="5.590121000">
        <ele>159.300</ele>
      </trkpt>
      <trkpt lat="50.580587000" lon="5.590201000">
        <ele>158.200</ele>
      </trkpt>
      <trkpt lat="50.580477000" lon="5.590280000">
        <ele>157.100</ele>
      </trkpt>
      <trkpt lat="50.580405000" lon="5.590348000">
        <ele>156.100</ele>
      </trkpt>
      <trkpt lat="50.580280000" lon="5.590586000">
        <ele>153.300</ele>
      </trkpt>
      <trkpt lat="50.580113000" lon="5.591091000">
        <ele>148.100</ele>
      </trkpt>
      <trkpt lat="50.580107000" lon="5.591129000">
        <ele>147.700</ele>
      </trkpt>
      <trkpt lat="50.580052000" lon="5.591395000">
        <ele>145.100</ele>
      </trkpt>
      <trkpt lat="50.580073000" lon="5.591732000">
        <ele>142.100</ele>
      </trkpt>
      <trkpt lat="50.580009000" lon="5.592000000">
        <ele>140.200</ele>
      </trkpt>
      <trkpt lat="50.580004000" lon="5.592081000">
        <ele>139.700</ele>
      </trkpt>
      <trkpt lat="50.579975000" lon="5.592407000">
        <ele>137.700</ele>
      </trkpt>
      <trkpt lat="50.579949000" lon="5.592611000">
        <ele>137.400</ele>
      </trkpt>
      <trkpt lat="50.579970000" lon="5.592605000">
        <ele>137.300</ele>
      </trkpt>
      <trkpt lat="50.579977000" lon="5.592678000">
        <ele>137.000</ele>
      </trkpt>
      <trkpt lat="50.579890000" lon="5.592856000">
        <ele>136.300</ele>
      </trkpt>
      <trkpt lat="50.579783000" lon="5.593123000">
        <ele>135.600</ele>
      </trkpt>
      <trkpt lat="50.579762000" lon="5.593157000">
        <ele>135.500</ele>
      </trkpt>
      <trkpt lat="50.579663000" lon="5.593438000">
        <ele>134.800</ele>
      </trkpt>
      <trkpt lat="50.579655000" lon="5.593579000">
        <ele>134.600</ele>
      </trkpt>
      <trkpt lat="50.579562000" lon="5.593826000">
        <ele>134.200</ele>
      </trkpt>
      <trkpt lat="50.579518000" lon="5.594078000">
        <ele>133.900</ele>
      </trkpt>
      <trkpt lat="50.579512000" lon="5.594169000">
        <ele>133.700</ele>
      </trkpt>
      <trkpt lat="50.579458000" lon="5.594369000">
        <ele>133.400</ele>
      </trkpt>
      <trkpt lat="50.579340000" lon="5.594604000">
        <ele>132.700</ele>
      </trkpt>
      <trkpt lat="50.579250000" lon="5.594879000">
        <ele>131.900</ele>
      </trkpt>
      <trkpt lat="50.579213000" lon="5.595002000">
        <ele>131.600</ele>
      </trkpt>
      <trkpt lat="50.579184000" lon="5.595010000">
        <ele>131.500</ele>
      </trkpt>
      <trkpt lat="50.579148000" lon="5.594982000">
        <ele>131.500</ele>
      </trkpt>
      <trkpt lat="50.579129000" lon="5.594959000">
        <ele>131.500</ele>
      </trkpt>
      <trkpt lat="50.579118000" lon="5.594950000">
        <ele>131.600</ele>
      </trkpt>
      <trkpt lat="50.579111000" lon="5.594931000">
        <ele>131.600</ele>
      </trkpt>
      <trkpt lat="50.579091000" lon="5.594894000">
        <ele>131.600</ele>
      </trkpt>
      <trkpt lat="50.579055000" lon="5.594842000">
        <ele>131.700</ele>
      </trkpt>
      <trkpt lat="50.578932000" lon="5.594808000">
        <ele>131.900</ele>
      </trkpt>
      <trkpt lat="50.578783000" lon="5.594748000">
        <ele>132.200</ele>
      </trkpt>
      <trkpt lat="50.578730000" lon="5.594709000">
        <ele>132.300</ele>
      </trkpt>
      <trkpt lat="50.578692000" lon="5.594657000">
        <ele>132.400</ele>
      </trkpt>
      <trkpt lat="50.578647000" lon="5.594623000">
        <ele>132.600</ele>
      </trkpt>
      <trkpt lat="50.578629000" lon="5.594566000">
        <ele>132.700</ele>
      </trkpt>
      <trkpt lat="50.578626000" lon="5.594534000">
        <ele>132.700</ele>
      </trkpt>
      <trkpt lat="50.578616000" lon="5.594495000">
        <ele>132.800</ele>
      </trkpt>
      <trkpt lat="50.578626000" lon="5.594366000">
        <ele>133.100</ele>
      </trkpt>
      <trkpt lat="50.578614000" lon="5.594203000">
        <ele>133.400</ele>
      </trkpt>
      <trkpt lat="50.578607000" lon="5.594146000">
        <ele>133.500</ele>
      </trkpt>
      <trkpt lat="50.578595000" lon="5.594086000">
        <ele>133.700</ele>
      </trkpt>
      <trkpt lat="50.578571000" lon="5.594026000">
        <ele>133.800</ele>
      </trkpt>
      <trkpt lat="50.578542000" lon="5.594004000">
        <ele>133.900</ele>
      </trkpt>
      <trkpt lat="50.578525000" lon="5.593996000">
        <ele>134.000</ele>
      </trkpt>
      <trkpt lat="50.578447000" lon="5.593917000">
        <ele>134.200</ele>
      </trkpt>
      <trkpt lat="50.578439000" lon="5.593889000">
        <ele>134.300</ele>
      </trkpt>
      <trkpt lat="50.578435000" lon="5.593897000">
        <ele>134.300</ele>
      </trkpt>
      <trkpt lat="50.578431000" lon="5.593846000">
        <ele>134.400</ele>
      </trkpt>
      <trkpt lat="50.578414000" lon="5.593722000">
        <ele>134.700</ele>
      </trkpt>
      <trkpt lat="50.578405000" lon="5.593691000">
        <ele>134.700</ele>
      </trkpt>
      <trkpt lat="50.578357000" lon="5.593570000">
        <ele>135.100</ele>
      </trkpt>
      <trkpt lat="50.578352000" lon="5.593423000">
        <ele>135.400</ele>
      </trkpt>
      <trkpt lat="50.578302000" lon="5.593157000">
        <ele>136.100</ele>
      </trkpt>
      <trkpt lat="50.578253000" lon="5.593113000">
        <ele>136.100</ele>
      </trkpt>
      <trkpt lat="50.578228000" lon="5.593115000">
        <ele>136.100</ele>
      </trkpt>
      <trkpt lat="50.578155000" lon="5.593156000">
        <ele>136.200</ele>
      </trkpt>
      <trkpt lat="50.578050000" lon="5.593208000">
        <ele>136.200</ele>
      </trkpt>
      <trkpt lat="50.578024000" lon="5.593218000">
        <ele>136.200</ele>
      </trkpt>
      <trkpt lat="50.578021000" lon="5.593216000">
        <ele>136.200</ele>
      </trkpt>
      <trkpt lat="50.577994000" lon="5.593224000">
        <ele>136.200</ele>
      </trkpt>
      <trkpt lat="50.577967000" lon="5.593246000">
        <ele>136.200</ele>
      </trkpt>
      <trkpt lat="50.577932000" lon="5.593291000">
        <ele>136.300</ele>
      </trkpt>
      <trkpt lat="50.577899000" lon="5.593319000">
        <ele>136.300</ele>
      </trkpt>
      <trkpt lat="50.577887000" lon="5.593315000">
        <ele>136.400</ele>
      </trkpt>
      <trkpt lat="50.577748000" lon="5.593096000">
        <ele>137.600</ele>
      </trkpt>
      <trkpt lat="50.577702000" lon="5.592952000">
        <ele>138.300</ele>
      </trkpt>
      <trkpt lat="50.577652000" lon="5.592835000">
        <ele>138.900</ele>
      </trkpt>
      <trkpt lat="50.577613000" lon="5.592621000">
        <ele>140.100</ele>
      </trkpt>
      <trkpt lat="50.577568000" lon="5.592467000">
        <ele>141.000</ele>
      </trkpt>
      <trkpt lat="50.577540000" lon="5.592305000">
        <ele>142.100</ele>
      </trkpt>
      <trkpt lat="50.577510000" lon="5.592014000">
        <ele>144.000</ele>
      </trkpt>
      <trkpt lat="50.577449000" lon="5.591765000">
        <ele>145.800</ele>
      </trkpt>
      <trkpt lat="50.577430000" lon="5.591704000">
        <ele>146.200</ele>
      </trkpt>
      <trkpt lat="50.577361000" lon="5.591615000">
        <ele>147.200</ele>
      </trkpt>
      <trkpt lat="50.577300000" lon="5.591459000">
        <ele>148.500</ele>
      </trkpt>
      <trkpt lat="50.577261000" lon="5.591379000">
        <ele>149.300</ele>
      </trkpt>
      <trkpt lat="50.577211000" lon="5.591253000">
        <ele>150.300</ele>
      </trkpt>
      <trkpt lat="50.577145000" lon="5.591123000">
        <ele>151.400</ele>
      </trkpt>
      <trkpt lat="50.577147000" lon="5.591104000">
        <ele>151.600</ele>
      </trkpt>
      <trkpt lat="50.577127000" lon="5.591077000">
        <ele>151.800</ele>
      </trkpt>
      <trkpt lat="50.577124000" lon="5.591101000">
        <ele>151.900</ele>
      </trkpt>
      <trkpt lat="50.577123000" lon="5.591085000">
        <ele>152.000</ele>
      </trkpt>
      <trkpt lat="50.577099000" lon="5.591099000">
        <ele>152.200</ele>
      </trkpt>
      <trkpt lat="50.576780000" lon="5.590666000">
        <ele>152.400</ele>
      </trkpt>
      <trkpt lat="50.576785000" lon="5.590631000">
        <ele>152.700</ele>
      </trkpt>
      <trkpt lat="50.576791000" lon="5.590636000">
        <ele>152.700</ele>
      </trkpt>
      <trkpt lat="50.576790000" lon="5.590673000">
        <ele>153.000</ele>
      </trkpt>
      <trkpt lat="50.576785000" lon="5.590699000">
        <ele>153.200</ele>
      </trkpt>
      <trkpt lat="50.576717000" lon="5.590760000">
        <ele>154.000</ele>
      </trkpt>
      <trkpt lat="50.576647000" lon="5.590720000">
        <ele>154.900</ele>
      </trkpt>
      <trkpt lat="50.576602000" lon="5.590592000">
        <ele>156.000</ele>
      </trkpt>
      <trkpt lat="50.576598000" lon="5.590511000">
        <ele>156.700</ele>
      </trkpt>
      <trkpt lat="50.576606000" lon="5.590405000">
        <ele>157.600</ele>
      </trkpt>
      <trkpt lat="50.576615000" lon="5.590227000">
        <ele>159.300</ele>
      </trkpt>
      <trkpt lat="50.576586000" lon="5.590043000">
        <ele>160.900</ele>
      </trkpt>
      <trkpt lat="50.576532000" lon="5.589932000">
        <ele>162.200</ele>
      </trkpt>
      <trkpt lat="50.576514000" lon="5.589911000">
        <ele>162.500</ele>
      </trkpt>
      <trkpt lat="50.576472000" lon="5.589823000">
        <ele>163.400</ele>
      </trkpt>
      <trkpt lat="50.576461000" lon="5.589775000">
        <ele>163.900</ele>
      </trkpt>
      <trkpt lat="50.576423000" lon="5.589712000">
        <ele>164.600</ele>
      </trkpt>
      <trkpt lat="50.576372000" lon="5.589654000">
        <ele>165.500</ele>
      </trkpt>
      <trkpt lat="50.576357000" lon="5.589612000">
        <ele>165.900</ele>
      </trkpt>
      <trkpt lat="50.576348000" lon="5.589501000">
        <ele>166.900</ele>
      </trkpt>
      <trkpt lat="50.576319000" lon="5.589245000">
        <ele>169.100</ele>
      </trkpt>
      <trkpt lat="50.576328000" lon="5.589118000">
        <ele>170.000</ele>
      </trkpt>
      <trkpt lat="50.576339000" lon="5.589052000">
        <ele>170.500</ele>
      </trkpt>
      <trkpt lat="50.576329000" lon="5.588872000">
        <ele>172.100</ele>
      </trkpt>
      <trkpt lat="50.576316000" lon="5.588418000">
        <ele>175.700</ele>
      </trkpt>
      <trkpt lat="50.576308000" lon="5.588312000">
        <ele>176.500</ele>
      </trkpt>
      <trkpt lat="50.576307000" lon="5.588223000">
        <ele>177.100</ele>
      </trkpt>
      <trkpt lat="50.576296000" lon="5.588124000">
        <ele>177.700</ele>
      </trkpt>
      <trkpt lat="50.576297000" lon="5.588060000">
        <ele>178.100</ele>
      </trkpt>
      <trkpt lat="50.576279000" lon="5.587902000">
        <ele>179.100</ele>
      </trkpt>
      <trkpt lat="50.576277000" lon="5.587829000">
        <ele>179.500</ele>
      </trkpt>
      <trkpt lat="50.576257000" lon="5.587604000">
        <ele>180.700</ele>
      </trkpt>
      <trkpt lat="50.576246000" lon="5.587430000">
        <ele>181.500</ele>
      </trkpt>
      <trkpt lat="50.576242000" lon="5.587276000">
        <ele>182.100</ele>
      </trkpt>
      <trkpt lat="50.576230000" lon="5.587136000">
        <ele>182.700</ele>
      </trkpt>
      <trkpt lat="50.576201000" lon="5.586966000">
        <ele>183.300</ele>
      </trkpt>
      <trkpt lat="50.576198000" lon="5.586923000">
        <ele>183.500</ele>
      </trkpt>
      <trkpt lat="50.576207000" lon="5.586622000">
        <ele>184.400</ele>
      </trkpt>
      <trkpt lat="50.576217000" lon="5.586419000">
        <ele>185.000</ele>
      </trkpt>
      <trkpt lat="50.576264000" lon="5.586225000">
        <ele>185.800</ele>
      </trkpt>
      <trkpt lat="50.576267000" lon="5.586070000">
        <ele>186.500</ele>
      </trkpt>
      <trkpt lat="50.576278000" lon="5.585897000">
        <ele>187.200</ele>
      </trkpt>
      <trkpt lat="50.576294000" lon="5.585771000">
        <ele>187.800</ele>
      </trkpt>
      <trkpt lat="50.576283000" lon="5.585537000">
        <ele>188.900</ele>
      </trkpt>
      <trkpt lat="50.576288000" lon="5.585462000">
        <ele>189.300</ele>
      </trkpt>
      <trkpt lat="50.576326000" lon="5.585254000">
        <ele>190.500</ele>
      </trkpt>
      <trkpt lat="50.576335000" lon="5.585031000">
        <ele>191.600</ele>
      </trkpt>
      <trkpt lat="50.576341000" lon="5.584741000">
        <ele>192.900</ele>
      </trkpt>
      <trkpt lat="50.576356000" lon="5.584503000">
        <ele>193.900</ele>
      </trkpt>
      <trkpt lat="50.576374000" lon="5.584303000">
        <ele>194.800</ele>
      </trkpt>
      <trkpt lat="50.576392000" lon="5.584169000">
        <ele>195.500</ele>
      </trkpt>
      <trkpt lat="50.576401000" lon="5.584017000">
        <ele>196.300</ele>
      </trkpt>
      <trkpt lat="50.576393000" lon="5.583804000">
        <ele>197.600</ele>
      </trkpt>
      <trkpt lat="50.576419000" lon="5.583517000">
        <ele>199.800</ele>
      </trkpt>
      <trkpt lat="50.576425000" lon="5.583430000">
        <ele>200.400</ele>
      </trkpt>
      <trkpt lat="50.576461000" lon="5.583207000">
        <ele>202.100</ele>
      </trkpt>
      <trkpt lat="50.576499000" lon="5.582811000">
        <ele>205.100</ele>
      </trkpt>
      <trkpt lat="50.576545000" lon="5.582469000">
        <ele>207.700</ele>
      </trkpt>
      <trkpt lat="50.576616000" lon="5.582142000">
        <ele>210.200</ele>
      </trkpt>
      <trkpt lat="50.576659000" lon="5.581832000">
        <ele>211.600</ele>
      </trkpt>
      <trkpt lat="50.576662000" lon="5.581799000">
        <ele>211.600</ele>
      </trkpt>
      <trkpt lat="50.576707000" lon="5.581536000">
        <ele>212.500</ele>
      </trkpt>
      <trkpt lat="50.576722000" lon="5.581374000">
        <ele>213.100</ele>
      </trkpt>
      <trkpt lat="50.576722000" lon="5.581151000">
        <ele>213.700</ele>
      </trkpt>
      <trkpt lat="50.576716000" lon="5.580952000">
        <ele>213.900</ele>
      </trkpt>
      <trkpt lat="50.576719000" lon="5.580905000">
        <ele>213.900</ele>
      </trkpt>
      <trkpt lat="50.576736000" lon="5.580805000">
        <ele>214.100</ele>
      </trkpt>
      <trkpt lat="50.576725000" lon="5.580675000">
        <ele>214.200</ele>
      </trkpt>
      <trkpt lat="50.576728000" lon="5.580599000">
        <ele>214.300</ele>
      </trkpt>
      <trkpt lat="50.576751000" lon="5.580314000">
        <ele>214.700</ele>
      </trkpt>
      <trkpt lat="50.576756000" lon="5.580229000">
        <ele>214.700</ele>
      </trkpt>
      <trkpt lat="50.576786000" lon="5.579949000">
        <ele>215.000</ele>
      </trkpt>
      <trkpt lat="50.576809000" lon="5.579685000">
        <ele>215.100</ele>
      </trkpt>
      <trkpt lat="50.576857000" lon="5.579388000">
        <ele>215.400</ele>
      </trkpt>
      <trkpt lat="50.576860000" lon="5.579319000">
        <ele>215.400</ele>
      </trkpt>
      <trkpt lat="50.576992000" lon="5.578740000">
        <ele>216.400</ele>
      </trkpt>
      <trkpt lat="50.577067000" lon="5.578327000">
        <ele>217.200</ele>
      </trkpt>
      <trkpt lat="50.577096000" lon="5.578211000">
        <ele>217.400</ele>
      </trkpt>
      <trkpt lat="50.577137000" lon="5.577931000">
        <ele>218.000</ele>
      </trkpt>
      <trkpt lat="50.577140000" lon="5.577892000">
        <ele>218.100</ele>
      </trkpt>
      <trkpt lat="50.577110000" lon="5.577653000">
        <ele>218.600</ele>
      </trkpt>
      <trkpt lat="50.577108000" lon="5.577577000">
        <ele>218.800</ele>
      </trkpt>
      <trkpt lat="50.577140000" lon="5.577469000">
        <ele>219.200</ele>
      </trkpt>
      <trkpt lat="50.577211000" lon="5.577143000">
        <ele>220.400</ele>
      </trkpt>
      <trkpt lat="50.577279000" lon="5.576852000">
        <ele>221.900</ele>
      </trkpt>
      <trkpt lat="50.577309000" lon="5.576666000">
        <ele>223.200</ele>
      </trkpt>
      <trkpt lat="50.577334000" lon="5.576633000">
        <ele>223.500</ele>
      </trkpt>
      <trkpt lat="50.577381000" lon="5.576537000">
        <ele>224.200</ele>
      </trkpt>
      <trkpt lat="50.577464000" lon="5.576280000">
        <ele>225.000</ele>
      </trkpt>
      <trkpt lat="50.577464000" lon="5.576232000">
        <ele>225.000</ele>
      </trkpt>
      <trkpt lat="50.577448000" lon="5.576193000">
        <ele>225.000</ele>
      </trkpt>
      <trkpt lat="50.577428000" lon="5.576171000">
        <ele>225.100</ele>
      </trkpt>
      <trkpt lat="50.577413000" lon="5.576143000">
        <ele>225.100</ele>
      </trkpt>
      <trkpt lat="50.577393000" lon="5.576083000">
        <ele>225.100</ele>
      </trkpt>
      <trkpt lat="50.577346000" lon="5.575970000">
        <ele>225.200</ele>
      </trkpt>
      <trkpt lat="50.577300000" lon="5.575767000">
        <ele>225.900</ele>
      </trkpt>
      <trkpt lat="50.577252000" lon="5.575626000">
        <ele>226.500</ele>
      </trkpt>
      <trkpt lat="50.577239000" lon="5.575568000">
        <ele>226.700</ele>
      </trkpt>
      <trkpt lat="50.577241000" lon="5.575553000">
        <ele>226.800</ele>
      </trkpt>
      <trkpt lat="50.577240000" lon="5.575555000">
        <ele>226.800</ele>
      </trkpt>
      <trkpt lat="50.577240000" lon="5.575552000">
        <ele>226.800</ele>
      </trkpt>
      <trkpt lat="50.577319000" lon="5.575481000">
        <ele>226.900</ele>
      </trkpt>
      <trkpt lat="50.577375000" lon="5.575441000">
        <ele>227.000</ele>
      </trkpt>
      <trkpt lat="50.577383000" lon="5.575440000">
        <ele>227.000</ele>
      </trkpt>
      <trkpt lat="50.577438000" lon="5.575372000">
        <ele>227.200</ele>
      </trkpt>
      <trkpt lat="50.577498000" lon="5.575318000">
        <ele>227.300</ele>
      </trkpt>
      <trkpt lat="50.577611000" lon="5.575207000">
        <ele>227.700</ele>
      </trkpt>
      <trkpt lat="50.577624000" lon="5.575208000">
        <ele>227.900</ele>
      </trkpt>
      <trkpt lat="50.577639000" lon="5.575195000">
        <ele>228.200</ele>
      </trkpt>
      <trkpt lat="50.577654000" lon="5.575175000">
        <ele>228.200</ele>
      </trkpt>
      <trkpt lat="50.577691000" lon="5.575101000">
        <ele>228.300</ele>
      </trkpt>
      <trkpt lat="50.577805000" lon="5.574964000">
        <ele>227.900</ele>
      </trkpt>
      <trkpt lat="50.577831000" lon="5.574954000">
        <ele>227.800</ele>
      </trkpt>
      <trkpt lat="50.577874000" lon="5.574916000">
        <ele>227.600</ele>
      </trkpt>
      <trkpt lat="50.577947000" lon="5.574809000">
        <ele>227.400</ele>
      </trkpt>
      <trkpt lat="50.578039000" lon="5.574691000">
        <ele>227.300</ele>
      </trkpt>
      <trkpt lat="50.578156000" lon="5.574554000">
        <ele>227.200</ele>
      </trkpt>
      <trkpt lat="50.578453000" lon="5.574229000">
        <ele>227.500</ele>
      </trkpt>
      <trkpt lat="50.578544000" lon="5.574120000">
        <ele>227.600</ele>
      </trkpt>
      <trkpt lat="50.578606000" lon="5.574061000">
        <ele>227.600</ele>
      </trkpt>
      <trkpt lat="50.578738000" lon="5.573889000">
        <ele>227.400</ele>
      </trkpt>
      <trkpt lat="50.578888000" lon="5.573752000">
        <ele>226.900</ele>
      </trkpt>
      <trkpt lat="50.578991000" lon="5.573664000">
        <ele>226.500</ele>
      </trkpt>
      <trkpt lat="50.579053000" lon="5.573554000">
        <ele>226.100</ele>
      </trkpt>
      <trkpt lat="50.579140000" lon="5.573305000">
        <ele>225.500</ele>
      </trkpt>
      <trkpt lat="50.579186000" lon="5.573009000">
        <ele>224.700</ele>
      </trkpt>
      <trkpt lat="50.579202000" lon="5.572831000">
        <ele>224.300</ele>
      </trkpt>
      <trkpt lat="50.579216000" lon="5.572571000">
        <ele>223.800</ele>
      </trkpt>
      <trkpt lat="50.579220000" lon="5.572349000">
        <ele>223.400</ele>
      </trkpt>
      <trkpt lat="50.579209000" lon="5.572106000">
        <ele>223.200</ele>
      </trkpt>
      <trkpt lat="50.579162000" lon="5.571775000">
        <ele>223.000</ele>
      </trkpt>
      <trkpt lat="50.579102000" lon="5.571475000">
        <ele>222.900</ele>
      </trkpt>
      <trkpt lat="50.579036000" lon="5.571166000">
        <ele>222.800</ele>
      </trkpt>
      <trkpt lat="50.578920000" lon="5.570558000">
        <ele>222.500</ele>
      </trkpt>
      <trkpt lat="50.578894000" lon="5.570386000">
        <ele>222.400</ele>
      </trkpt>
      <trkpt lat="50.578874000" lon="5.570235000">
        <ele>222.300</ele>
      </trkpt>
      <trkpt lat="50.578832000" lon="5.570154000">
        <ele>222.200</ele>
      </trkpt>
      <trkpt lat="50.578810000" lon="5.570142000">
        <ele>222.600</ele>
      </trkpt>
      <trkpt lat="50.578716000" lon="5.570162000">
        <ele>223.700</ele>
      </trkpt>
      <trkpt lat="50.578377000" lon="5.570289000">
        <ele>228.000</ele>
      </trkpt>
      <trkpt lat="50.578360000" lon="5.570299000">
        <ele>228.200</ele>
      </trkpt>
      <trkpt lat="50.578306000" lon="5.570346000">
        <ele>228.800</ele>
      </trkpt>
      <trkpt lat="50.578151000" lon="5.570366000">
        <ele>230.300</ele>
      </trkpt>
      <trkpt lat="50.578137000" lon="5.570350000">
        <ele>230.400</ele>
      </trkpt>
      <trkpt lat="50.578076000" lon="5.570234000">
        <ele>231.100</ele>
      </trkpt>
    </trkseg>
  </trk>
</gpx>
