<?xml version="1.0" encoding="UTF-8"?>
<gpx version="1.1" creator="GPSBabel - https://www.gpsbabel.org" xmlns="http://www.topografix.com/GPX/1/1" xmlns:xsi="http://www.w3.org/2001/XMLSchema-instance">
  <metadata>
    <time>2026-09-21T13:31:31.310Z</time>
    <bounds minlat="50.576145000" minlon="5.561980000" maxlat="50.581106000" maxlon="5.577319000"/>
  </metadata>
  <trk>
    <name>Course à pied le midi</name>
    <type>running</type>
    <trkseg>
      <trkpt lat="50.580536000" lon="5.562007000">
        <ele>227.400</ele>
      </trkpt>
      <trkpt lat="50.580466000" lon="5.561991000">
        <ele>226.800</ele>
      </trkpt>
      <trkpt lat="50.580319000" lon="5.562009000">
        <ele>225.200</ele>
      </trkpt>
      <trkpt lat="50.579978000" lon="5.561980000">
        <ele>222.000</ele>
      </trkpt>
      <trkpt lat="50.579844000" lon="5.562007000">
        <ele>220.600</ele>
      </trkpt>
      <trkpt lat="50.579588000" lon="5.562127000">
        <ele>217.000</ele>
      </trkpt>
      <trkpt lat="50.579523000" lon="5.562187000">
        <ele>216.400</ele>
      </trkpt>
      <trkpt lat="50.579429000" lon="5.562354000">
        <ele>215.000</ele>
      </trkpt>
      <trkpt lat="50.579311000" lon="5.562631000">
        <ele>214.000</ele>
      </trkpt>
      <trkpt lat="50.579278000" lon="5.562745000">
        <ele>213.400</ele>
      </trkpt>
      <trkpt lat="50.579245000" lon="5.562965000">
        <ele>212.200</ele>
      </trkpt>
      <trkpt lat="50.579250000" lon="5.563170000">
        <ele>211.200</ele>
      </trkpt>
      <trkpt lat="50.579240000" lon="5.563216000">
        <ele>211.000</ele>
      </trkpt>
      <trkpt lat="50.579244000" lon="5.563370000">
        <ele>210.600</ele>
      </trkpt>
      <trkpt lat="50.579288000" lon="5.563620000">
        <ele>209.600</ele>
      </trkpt>
      <trkpt lat="50.579350000" lon="5.563768000">
        <ele>208.800</ele>
      </trkpt>
      <trkpt lat="50.579365000" lon="5.563849000">
        <ele>208.400</ele>
      </trkpt>
      <trkpt lat="50.579353000" lon="5.563925000">
        <ele>208.200</ele>
      </trkpt>
      <trkpt lat="50.579225000" lon="5.564030000">
        <ele>207.600</ele>
      </trkpt>
      <trkpt lat="50.579094000" lon="5.564225000">
        <ele>207.200</ele>
      </trkpt>
      <trkpt lat="50.578852000" lon="5.564742000">
        <ele>206.800</ele>
      </trkpt>
      <trkpt lat="50.578815000" lon="5.564847000">
        <ele>207.000</ele>
      </trkpt>
      <trkpt lat="50.578781000" lon="5.564898000">
        <ele>206.800</ele>
      </trkpt>
      <trkpt lat="50.578574000" lon="5.565471000">
        <ele>206.600</ele>
      </trkpt>
      <trkpt lat="50.578565000" lon="5.565610000">
        <ele>206.600</ele>
      </trkpt>
      <trkpt lat="50.578594000" lon="5.565822000">
        <ele>207.000</ele>
      </trkpt>
      <trkpt lat="50.578613000" lon="5.566161000">
        <ele>207.200</ele>
      </trkpt>
      <trkpt lat="50.578586000" lon="5.566280000">
        <ele>207.200</ele>
      </trkpt>
      <trkpt lat="50.578495000" lon="5.566382000">
        <ele>208.600</ele>
      </trkpt>
      <trkpt lat="50.578452000" lon="5.566395000">
        <ele>210.000</ele>
      </trkpt>
      <trkpt lat="50.578293000" lon="5.566582000">
        <ele>213.600</ele>
      </trkpt>
      <trkpt lat="50.578237000" lon="5.566612000">
        <ele>214.400</ele>
      </trkpt>
      <trkpt lat="50.577870000" lon="5.566691000">
        <ele>219.800</ele>
      </trkpt>
      <trkpt lat="50.577785000" lon="5.566676000">
        <ele>221.400</ele>
      </trkpt>
      <trkpt lat="50.577732000" lon="5.566692000">
        <ele>221.800</ele>
      </trkpt>
      <trkpt lat="50.577584000" lon="5.566625000">
        <ele>223.200</ele>
      </trkpt>
      <trkpt lat="50.577536000" lon="5.566699000">
        <ele>223.800</ele>
      </trkpt>
      <trkpt lat="50.577524000" lon="5.566830000">
        <ele>224.200</ele>
      </trkpt>
      <trkpt lat="50.577546000" lon="5.567023000">
        <ele>224.800</ele>
      </trkpt>
      <trkpt lat="50.577546000" lon="5.567142000">
        <ele>225.200</ele>
      </trkpt>
      <trkpt lat="50.577578000" lon="5.567242000">
        <ele>225.400</ele>
      </trkpt>
      <trkpt lat="50.577633000" lon="5.567597000">
        <ele>225.200</ele>
      </trkpt>
      <trkpt lat="50.577637000" lon="5.567727000">
        <ele>225.000</ele>
      </trkpt>
      <trkpt lat="50.577651000" lon="5.567747000">
        <ele>225.200</ele>
      </trkpt>
      <trkpt lat="50.577694000" lon="5.567741000">
        <ele>224.800</ele>
      </trkpt>
      <trkpt lat="50.577737000" lon="5.567826000">
        <ele>223.400</ele>
      </trkpt>
      <trkpt lat="50.577740000" lon="5.567872000">
        <ele>222.400</ele>
      </trkpt>
      <trkpt lat="50.577805000" lon="5.567863000">
        <ele>221.000</ele>
      </trkpt>
      <trkpt lat="50.577958000" lon="5.567756000">
        <ele>219.800</ele>
      </trkpt>
      <trkpt lat="50.577973000" lon="5.567781000">
        <ele>219.600</ele>
      </trkpt>
      <trkpt lat="50.578029000" lon="5.567488000">
        <ele>219.400</ele>
      </trkpt>
      <trkpt lat="50.577877000" lon="5.568126000">
        <ele>220.400</ele>
      </trkpt>
      <trkpt lat="50.577942000" lon="5.568007000">
        <ele>221.400</ele>
      </trkpt>
      <trkpt lat="50.577968000" lon="5.567929000">
        <ele>221.400</ele>
      </trkpt>
      <trkpt lat="50.577995000" lon="5.567908000">
        <ele>221.200</ele>
      </trkpt>
      <trkpt lat="50.578002000" lon="5.567841000">
        <ele>220.200</ele>
      </trkpt>
      <trkpt lat="50.578092000" lon="5.567768000">
        <ele>218.400</ele>
      </trkpt>
      <trkpt lat="50.578321000" lon="5.567739000">
        <ele>218.200</ele>
      </trkpt>
      <trkpt lat="50.578341000" lon="5.567767000">
        <ele>218.200</ele>
      </trkpt>
      <trkpt lat="50.578383000" lon="5.567974000">
        <ele>217.400</ele>
      </trkpt>
      <trkpt lat="50.578427000" lon="5.568110000">
        <ele>217.200</ele>
      </trkpt>
      <trkpt lat="50.578426000" lon="5.568162000">
        <ele>217.200</ele>
      </trkpt>
      <trkpt lat="50.578468000" lon="5.568350000">
        <ele>217.600</ele>
      </trkpt>
      <trkpt lat="50.578464000" lon="5.568416000">
        <ele>218.000</ele>
      </trkpt>
      <trkpt lat="50.578511000" lon="5.568583000">
        <ele>218.000</ele>
      </trkpt>
      <trkpt lat="50.578569000" lon="5.568618000">
        <ele>217.600</ele>
      </trkpt>
      <trkpt lat="50.578569000" lon="5.568738000">
        <ele>217.600</ele>
      </trkpt>
      <trkpt lat="50.578592000" lon="5.568819000">
        <ele>217.800</ele>
      </trkpt>
      <trkpt lat="50.578562000" lon="5.568945000">
        <ele>218.600</ele>
      </trkpt>
      <trkpt lat="50.578577000" lon="5.569054000">
        <ele>219.400</ele>
      </trkpt>
      <trkpt lat="50.578555000" lon="5.569351000">
        <ele>219.400</ele>
      </trkpt>
      <trkpt lat="50.578570000" lon="5.569373000">
        <ele>219.600</ele>
      </trkpt>
      <trkpt lat="50.578578000" lon="5.569451000">
        <ele>219.800</ele>
      </trkpt>
      <trkpt lat="50.578551000" lon="5.569494000">
        <ele>220.200</ele>
      </trkpt>
      <trkpt lat="50.578533000" lon="5.569486000">
        <ele>220.600</ele>
      </trkpt>
      <trkpt lat="50.578522000" lon="5.569502000">
        <ele>220.200</ele>
      </trkpt>
      <trkpt lat="50.578508000" lon="5.569486000">
        <ele>220.200</ele>
      </trkpt>
      <trkpt lat="50.578516000" lon="5.569483000">
        <ele>220.200</ele>
      </trkpt>
      <trkpt lat="50.578484000" lon="5.569576000">
        <ele>221.000</ele>
      </trkpt>
      <trkpt lat="50.578504000" lon="5.569593000">
        <ele>221.200</ele>
      </trkpt>
      <trkpt lat="50.578500000" lon="5.569619000">
        <ele>221.200</ele>
      </trkpt>
      <trkpt lat="50.578513000" lon="5.569633000">
        <ele>221.000</ele>
      </trkpt>
      <trkpt lat="50.578475000" lon="5.569653000">
        <ele>222.400</ele>
      </trkpt>
      <trkpt lat="50.578474000" lon="5.569684000">
        <ele>222.400</ele>
      </trkpt>
      <trkpt lat="50.578492000" lon="5.569687000">
        <ele>222.600</ele>
      </trkpt>
      <trkpt lat="50.578503000" lon="5.569716000">
        <ele>222.400</ele>
      </trkpt>
      <trkpt lat="50.578491000" lon="5.569825000">
        <ele>222.600</ele>
      </trkpt>
      <trkpt lat="50.578452000" lon="5.569839000">
        <ele>222.800</ele>
      </trkpt>
      <trkpt lat="50.578451000" lon="5.569885000">
        <ele>223.400</ele>
      </trkpt>
      <trkpt lat="50.578422000" lon="5.569973000">
        <ele>223.600</ele>
      </trkpt>
      <trkpt lat="50.578352000" lon="5.569989000">
        <ele>224.400</ele>
      </trkpt>
      <trkpt lat="50.578359000" lon="5.569951000">
        <ele>224.800</ele>
      </trkpt>
      <trkpt lat="50.578340000" lon="5.569939000">
        <ele>225.000</ele>
      </trkpt>
      <trkpt lat="50.578332000" lon="5.569854000">
        <ele>224.400</ele>
      </trkpt>
      <trkpt lat="50.578301000" lon="5.569835000">
        <ele>224.600</ele>
      </trkpt>
      <trkpt lat="50.578210000" lon="5.569680000">
        <ele>225.000</ele>
      </trkpt>
      <trkpt lat="50.578166000" lon="5.569738000">
        <ele>225.800</ele>
      </trkpt>
      <trkpt lat="50.578138000" lon="5.569734000">
        <ele>226.600</ele>
      </trkpt>
      <trkpt lat="50.578121000" lon="5.569671000">
        <ele>226.600</ele>
      </trkpt>
      <trkpt lat="50.578138000" lon="5.569662000">
        <ele>226.400</ele>
      </trkpt>
      <trkpt lat="50.578129000" lon="5.569660000">
        <ele>226.400</ele>
      </trkpt>
      <trkpt lat="50.578162000" lon="5.569642000">
        <ele>226.200</ele>
      </trkpt>
      <trkpt lat="50.578145000" lon="5.569574000">
        <ele>225.800</ele>
      </trkpt>
      <trkpt lat="50.578134000" lon="5.569585000">
        <ele>226.200</ele>
      </trkpt>
      <trkpt lat="50.578137000" lon="5.569516000">
        <ele>225.800</ele>
      </trkpt>
      <trkpt lat="50.578119000" lon="5.569500000">
        <ele>225.800</ele>
      </trkpt>
      <trkpt lat="50.578129000" lon="5.569510000">
        <ele>226.400</ele>
      </trkpt>
      <trkpt lat="50.578119000" lon="5.569506000">
        <ele>226.400</ele>
      </trkpt>
      <trkpt lat="50.578125000" lon="5.569461000">
        <ele>226.000</ele>
      </trkpt>
      <trkpt lat="50.578155000" lon="5.569423000">
        <ele>225.600</ele>
      </trkpt>
      <trkpt lat="50.578138000" lon="5.569398000">
        <ele>225.600</ele>
      </trkpt>
      <trkpt lat="50.578143000" lon="5.569370000">
        <ele>225.800</ele>
      </trkpt>
      <trkpt lat="50.578130000" lon="5.569336000">
        <ele>226.000</ele>
      </trkpt>
      <trkpt lat="50.578147000" lon="5.569267000">
        <ele>225.600</ele>
      </trkpt>
      <trkpt lat="50.578074000" lon="5.569084000">
        <ele>225.800</ele>
      </trkpt>
      <trkpt lat="50.578088000" lon="5.569086000">
        <ele>226.000</ele>
      </trkpt>
      <trkpt lat="50.578104000" lon="5.569129000">
        <ele>225.600</ele>
      </trkpt>
      <trkpt lat="50.578155000" lon="5.569159000">
        <ele>225.200</ele>
      </trkpt>
      <trkpt lat="50.578252000" lon="5.569137000">
        <ele>224.200</ele>
      </trkpt>
      <trkpt lat="50.578270000" lon="5.569108000">
        <ele>223.800</ele>
      </trkpt>
      <trkpt lat="50.578346000" lon="5.569080000">
        <ele>223.000</ele>
      </trkpt>
      <trkpt lat="50.578354000" lon="5.569061000">
        <ele>222.600</ele>
      </trkpt>
      <trkpt lat="50.578391000" lon="5.569065000">
        <ele>222.200</ele>
      </trkpt>
      <trkpt lat="50.578442000" lon="5.569145000">
        <ele>222.000</ele>
      </trkpt>
      <trkpt lat="50.578533000" lon="5.569215000">
        <ele>221.000</ele>
      </trkpt>
      <trkpt lat="50.578681000" lon="5.569245000">
        <ele>219.200</ele>
      </trkpt>
      <trkpt lat="50.578793000" lon="5.569227000">
        <ele>217.400</ele>
      </trkpt>
      <trkpt lat="50.578835000" lon="5.569136000">
        <ele>217.000</ele>
      </trkpt>
      <trkpt lat="50.578950000" lon="5.569077000">
        <ele>214.800</ele>
      </trkpt>
      <trkpt lat="50.579001000" lon="5.568997000">
        <ele>213.600</ele>
      </trkpt>
      <trkpt lat="50.579020000" lon="5.568936000">
        <ele>212.400</ele>
      </trkpt>
      <trkpt lat="50.579021000" lon="5.568864000">
        <ele>212.800</ele>
      </trkpt>
      <trkpt lat="50.579007000" lon="5.568834000">
        <ele>212.800</ele>
      </trkpt>
      <trkpt lat="50.579016000" lon="5.568559000">
        <ele>212.600</ele>
      </trkpt>
      <trkpt lat="50.579045000" lon="5.568484000">
        <ele>212.000</ele>
      </trkpt>
      <trkpt lat="50.579025000" lon="5.568446000">
        <ele>212.000</ele>
      </trkpt>
      <trkpt lat="50.578953000" lon="5.568408000">
        <ele>214.000</ele>
      </trkpt>
      <trkpt lat="50.578964000" lon="5.568362000">
        <ele>213.800</ele>
      </trkpt>
      <trkpt lat="50.578958000" lon="5.568256000">
        <ele>213.200</ele>
      </trkpt>
      <trkpt lat="50.578996000" lon="5.568097000">
        <ele>212.000</ele>
      </trkpt>
      <trkpt lat="50.578999000" lon="5.568022000">
        <ele>211.600</ele>
      </trkpt>
      <trkpt lat="50.579031000" lon="5.567991000">
        <ele>211.200</ele>
      </trkpt>
      <trkpt lat="50.579038000" lon="5.567906000">
        <ele>210.600</ele>
      </trkpt>
      <trkpt lat="50.579011000" lon="5.567817000">
        <ele>210.600</ele>
      </trkpt>
      <trkpt lat="50.579044000" lon="5.567758000">
        <ele>210.400</ele>
      </trkpt>
      <trkpt lat="50.579005000" lon="5.567591000">
        <ele>209.600</ele>
      </trkpt>
      <trkpt lat="50.578961000" lon="5.567541000">
        <ele>210.200</ele>
      </trkpt>
      <trkpt lat="50.578918000" lon="5.567366000">
        <ele>210.200</ele>
      </trkpt>
      <trkpt lat="50.578936000" lon="5.567332000">
        <ele>210.200</ele>
      </trkpt>
      <trkpt lat="50.578934000" lon="5.567305000">
        <ele>210.200</ele>
      </trkpt>
      <trkpt lat="50.578961000" lon="5.567377000">
        <ele>209.800</ele>
      </trkpt>
      <trkpt lat="50.579022000" lon="5.567390000">
        <ele>208.800</ele>
      </trkpt>
      <trkpt lat="50.579123000" lon="5.567300000">
        <ele>207.200</ele>
      </trkpt>
      <trkpt lat="50.579176000" lon="5.567284000">
        <ele>206.600</ele>
      </trkpt>
      <trkpt lat="50.579219000" lon="5.567311000">
        <ele>206.000</ele>
      </trkpt>
      <trkpt lat="50.579281000" lon="5.567274000">
        <ele>205.200</ele>
      </trkpt>
      <trkpt lat="50.579272000" lon="5.567242000">
        <ele>204.600</ele>
      </trkpt>
      <trkpt lat="50.579229000" lon="5.567201000">
        <ele>204.400</ele>
      </trkpt>
      <trkpt lat="50.579235000" lon="5.567135000">
        <ele>204.000</ele>
      </trkpt>
      <trkpt lat="50.579206000" lon="5.566897000">
        <ele>205.000</ele>
      </trkpt>
      <trkpt lat="50.579221000" lon="5.566875000">
        <ele>205.200</ele>
      </trkpt>
      <trkpt lat="50.579223000" lon="5.566790000">
        <ele>205.200</ele>
      </trkpt>
      <trkpt lat="50.579130000" lon="5.566407000">
        <ele>203.800</ele>
      </trkpt>
      <trkpt lat="50.579155000" lon="5.566345000">
        <ele>202.200</ele>
      </trkpt>
      <trkpt lat="50.579180000" lon="5.566353000">
        <ele>200.800</ele>
      </trkpt>
      <trkpt lat="50.579232000" lon="5.566314000">
        <ele>197.000</ele>
      </trkpt>
      <trkpt lat="50.579279000" lon="5.566246000">
        <ele>195.400</ele>
      </trkpt>
      <trkpt lat="50.579316000" lon="5.566229000">
        <ele>193.800</ele>
      </trkpt>
      <trkpt lat="50.579301000" lon="5.566218000">
        <ele>193.600</ele>
      </trkpt>
      <trkpt lat="50.579320000" lon="5.566236000">
        <ele>193.600</ele>
      </trkpt>
      <trkpt lat="50.579335000" lon="5.566187000">
        <ele>193.400</ele>
      </trkpt>
      <trkpt lat="50.579320000" lon="5.566202000">
        <ele>193.400</ele>
      </trkpt>
      <trkpt lat="50.579314000" lon="5.566182000">
        <ele>193.400</ele>
      </trkpt>
      <trkpt lat="50.579320000" lon="5.566215000">
        <ele>193.600</ele>
      </trkpt>
      <trkpt lat="50.579351000" lon="5.566217000">
        <ele>193.400</ele>
      </trkpt>
      <trkpt lat="50.579381000" lon="5.566271000">
        <ele>192.600</ele>
      </trkpt>
      <trkpt lat="50.579420000" lon="5.566275000">
        <ele>192.200</ele>
      </trkpt>
      <trkpt lat="50.579406000" lon="5.566290000">
        <ele>192.000</ele>
      </trkpt>
      <trkpt lat="50.579429000" lon="5.566293000">
        <ele>192.000</ele>
      </trkpt>
      <trkpt lat="50.579467000" lon="5.566463000">
        <ele>191.400</ele>
      </trkpt>
      <trkpt lat="50.579454000" lon="5.566569000">
        <ele>191.200</ele>
      </trkpt>
      <trkpt lat="50.579473000" lon="5.566609000">
        <ele>191.400</ele>
      </trkpt>
      <trkpt lat="50.579469000" lon="5.566661000">
        <ele>191.800</ele>
      </trkpt>
      <trkpt lat="50.579519000" lon="5.566703000">
        <ele>191.400</ele>
      </trkpt>
      <trkpt lat="50.579535000" lon="5.566663000">
        <ele>191.400</ele>
      </trkpt>
      <trkpt lat="50.579520000" lon="5.566653000">
        <ele>191.400</ele>
      </trkpt>
      <trkpt lat="50.579496000" lon="5.566693000">
        <ele>191.400</ele>
      </trkpt>
      <trkpt lat="50.579487000" lon="5.566762000">
        <ele>191.400</ele>
      </trkpt>
      <trkpt lat="50.579388000" lon="5.566927000">
        <ele>201.800</ele>
      </trkpt>
      <trkpt lat="50.579358000" lon="5.567067000">
        <ele>202.400</ele>
      </trkpt>
      <trkpt lat="50.579344000" lon="5.567071000">
        <ele>202.000</ele>
      </trkpt>
      <trkpt lat="50.579350000" lon="5.567154000">
        <ele>201.000</ele>
      </trkpt>
      <trkpt lat="50.579375000" lon="5.567162000">
        <ele>201.600</ele>
      </trkpt>
      <trkpt lat="50.579398000" lon="5.567218000">
        <ele>202.400</ele>
      </trkpt>
      <trkpt lat="50.579394000" lon="5.567237000">
        <ele>202.200</ele>
      </trkpt>
      <trkpt lat="50.579420000" lon="5.567256000">
        <ele>201.800</ele>
      </trkpt>
      <trkpt lat="50.579456000" lon="5.567339000">
        <ele>200.600</ele>
      </trkpt>
      <trkpt lat="50.579469000" lon="5.567340000">
        <ele>200.400</ele>
      </trkpt>
      <trkpt lat="50.579478000" lon="5.567395000">
        <ele>200.200</ele>
      </trkpt>
      <trkpt lat="50.579463000" lon="5.567496000">
        <ele>200.400</ele>
      </trkpt>
      <trkpt lat="50.579509000" lon="5.567540000">
        <ele>200.200</ele>
      </trkpt>
      <trkpt lat="50.579547000" lon="5.567699000">
        <ele>200.000</ele>
      </trkpt>
      <trkpt lat="50.579588000" lon="5.567748000">
        <ele>198.800</ele>
      </trkpt>
      <trkpt lat="50.579603000" lon="5.567841000">
        <ele>198.400</ele>
      </trkpt>
      <trkpt lat="50.579659000" lon="5.567980000">
        <ele>197.000</ele>
      </trkpt>
      <trkpt lat="50.579667000" lon="5.568041000">
        <ele>197.400</ele>
      </trkpt>
      <trkpt lat="50.579749000" lon="5.568170000">
        <ele>198.200</ele>
      </trkpt>
      <trkpt lat="50.579849000" lon="5.568261000">
        <ele>197.000</ele>
      </trkpt>
      <trkpt lat="50.579962000" lon="5.568444000">
        <ele>195.800</ele>
      </trkpt>
      <trkpt lat="50.580077000" lon="5.568336000">
        <ele>192.000</ele>
      </trkpt>
      <trkpt lat="50.580127000" lon="5.568331000">
        <ele>190.400</ele>
      </trkpt>
      <trkpt lat="50.580139000" lon="5.568352000">
        <ele>189.600</ele>
      </trkpt>
      <trkpt lat="50.580178000" lon="5.568358000">
        <ele>186.800</ele>
      </trkpt>
      <trkpt lat="50.580183000" lon="5.568339000">
        <ele>186.000</ele>
      </trkpt>
      <trkpt lat="50.580294000" lon="5.568305000">
        <ele>183.400</ele>
      </trkpt>
      <trkpt lat="50.580343000" lon="5.568470000">
        <ele>185.000</ele>
      </trkpt>
      <trkpt lat="50.580444000" lon="5.568614000">
        <ele>185.600</ele>
      </trkpt>
      <trkpt lat="50.580459000" lon="5.568657000">
        <ele>185.600</ele>
      </trkpt>
      <trkpt lat="50.580536000" lon="5.568742000">
        <ele>186.600</ele>
      </trkpt>
      <trkpt lat="50.580577000" lon="5.568817000">
        <ele>186.800</ele>
      </trkpt>
      <trkpt lat="50.580604000" lon="5.568920000">
        <ele>188.000</ele>
      </trkpt>
      <trkpt lat="50.580599000" lon="5.568951000">
        <ele>188.000</ele>
      </trkpt>
      <trkpt lat="50.580611000" lon="5.568966000">
        <ele>188.000</ele>
      </trkpt>
      <trkpt lat="50.580659000" lon="5.569418000">
        <ele>189.600</ele>
      </trkpt>
      <trkpt lat="50.580710000" lon="5.569583000">
        <ele>190.800</ele>
      </trkpt>
      <trkpt lat="50.580715000" lon="5.569645000">
        <ele>191.600</ele>
      </trkpt>
      <trkpt lat="50.580701000" lon="5.569740000">
        <ele>192.200</ele>
      </trkpt>
      <trkpt lat="50.580729000" lon="5.569934000">
        <ele>194.400</ele>
      </trkpt>
      <trkpt lat="50.580706000" lon="5.570041000">
        <ele>195.800</ele>
      </trkpt>
      <trkpt lat="50.580661000" lon="5.569998000">
        <ele>196.600</ele>
      </trkpt>
      <trkpt lat="50.580642000" lon="5.570038000">
        <ele>196.400</ele>
      </trkpt>
      <trkpt lat="50.580632000" lon="5.570116000">
        <ele>196.600</ele>
      </trkpt>
      <trkpt lat="50.580637000" lon="5.570262000">
        <ele>197.200</ele>
      </trkpt>
      <trkpt lat="50.580741000" lon="5.570482000">
        <ele>197.400</ele>
      </trkpt>
      <trkpt lat="50.580784000" lon="5.570734000">
        <ele>197.600</ele>
      </trkpt>
      <trkpt lat="50.580809000" lon="5.570784000">
        <ele>197.600</ele>
      </trkpt>
      <trkpt lat="50.580837000" lon="5.570946000">
        <ele>197.800</ele>
      </trkpt>
      <trkpt lat="50.580864000" lon="5.570993000">
        <ele>197.800</ele>
      </trkpt>
      <trkpt lat="50.580891000" lon="5.571114000">
        <ele>197.800</ele>
      </trkpt>
      <trkpt lat="50.580858000" lon="5.571334000">
        <ele>198.200</ele>
      </trkpt>
      <trkpt lat="50.580923000" lon="5.571591000">
        <ele>197.800</ele>
      </trkpt>
      <trkpt lat="50.580963000" lon="5.571829000">
        <ele>198.800</ele>
      </trkpt>
      <trkpt lat="50.580983000" lon="5.572059000">
        <ele>199.200</ele>
      </trkpt>
      <trkpt lat="50.580976000" lon="5.572144000">
        <ele>199.400</ele>
      </trkpt>
      <trkpt lat="50.580990000" lon="5.572193000">
        <ele>199.400</ele>
      </trkpt>
      <trkpt lat="50.581033000" lon="5.572247000">
        <ele>199.400</ele>
      </trkpt>
      <trkpt lat="50.581070000" lon="5.572343000">
        <ele>199.400</ele>
      </trkpt>
      <trkpt lat="50.581064000" lon="5.572385000">
        <ele>199.400</ele>
      </trkpt>
      <trkpt lat="50.581092000" lon="5.572583000">
        <ele>200.000</ele>
      </trkpt>
      <trkpt lat="50.581076000" lon="5.572635000">
        <ele>200.000</ele>
      </trkpt>
      <trkpt lat="50.581070000" lon="5.572734000">
        <ele>200.000</ele>
      </trkpt>
      <trkpt lat="50.581089000" lon="5.572834000">
        <ele>200.200</ele>
      </trkpt>
      <trkpt lat="50.581106000" lon="5.572855000">
        <ele>200.200</ele>
      </trkpt>
      <trkpt lat="50.581091000" lon="5.572890000">
        <ele>200.200</ele>
      </trkpt>
      <trkpt lat="50.581092000" lon="5.572931000">
        <ele>200.400</ele>
      </trkpt>
      <trkpt lat="50.580884000" lon="5.573293000">
        <ele>198.800</ele>
      </trkpt>
      <trkpt lat="50.580911000" lon="5.573314000">
        <ele>196.600</ele>
      </trkpt>
      <trkpt lat="50.580936000" lon="5.573396000">
        <ele>195.600</ele>
      </trkpt>
      <trkpt lat="50.580885000" lon="5.573477000">
        <ele>194.400</ele>
      </trkpt>
      <trkpt lat="50.580852000" lon="5.573498000">
        <ele>194.600</ele>
      </trkpt>
      <trkpt lat="50.580865000" lon="5.573488000">
        <ele>195.400</ele>
      </trkpt>
      <trkpt lat="50.580853000" lon="5.573479000">
        <ele>195.800</ele>
      </trkpt>
      <trkpt lat="50.580748000" lon="5.573619000">
        <ele>197.800</ele>
      </trkpt>
      <trkpt lat="50.580741000" lon="5.573657000">
        <ele>197.600</ele>
      </trkpt>
      <trkpt lat="50.580776000" lon="5.573665000">
        <ele>195.800</ele>
      </trkpt>
      <trkpt lat="50.580770000" lon="5.573567000">
        <ele>194.600</ele>
      </trkpt>
      <trkpt lat="50.580783000" lon="5.573557000">
        <ele>194.400</ele>
      </trkpt>
      <trkpt lat="50.580768000" lon="5.573568000">
        <ele>194.400</ele>
      </trkpt>
      <trkpt lat="50.580778000" lon="5.573563000">
        <ele>194.200</ele>
      </trkpt>
      <trkpt lat="50.580777000" lon="5.573587000">
        <ele>194.200</ele>
      </trkpt>
      <trkpt lat="50.580814000" lon="5.573579000">
        <ele>193.800</ele>
      </trkpt>
      <trkpt lat="50.580800000" lon="5.573589000">
        <ele>193.400</ele>
      </trkpt>
      <trkpt lat="50.580845000" lon="5.573568000">
        <ele>193.000</ele>
      </trkpt>
      <trkpt lat="50.580824000" lon="5.573666000">
        <ele>192.800</ele>
      </trkpt>
      <trkpt lat="50.580804000" lon="5.573695000">
        <ele>193.400</ele>
      </trkpt>
      <trkpt lat="50.580812000" lon="5.573734000">
        <ele>192.800</ele>
      </trkpt>
      <trkpt lat="50.580817000" lon="5.573717000">
        <ele>192.400</ele>
      </trkpt>
      <trkpt lat="50.580786000" lon="5.573777000">
        <ele>192.400</ele>
      </trkpt>
      <trkpt lat="50.580788000" lon="5.573898000">
        <ele>192.600</ele>
      </trkpt>
      <trkpt lat="50.580704000" lon="5.573961000">
        <ele>194.400</ele>
      </trkpt>
      <trkpt lat="50.580672000" lon="5.574055000">
        <ele>194.800</ele>
      </trkpt>
      <trkpt lat="50.580678000" lon="5.574068000">
        <ele>194.800</ele>
      </trkpt>
      <trkpt lat="50.580611000" lon="5.574114000">
        <ele>196.400</ele>
      </trkpt>
      <trkpt lat="50.580561000" lon="5.574300000">
        <ele>197.000</ele>
      </trkpt>
      <trkpt lat="50.580534000" lon="5.574352000">
        <ele>196.400</ele>
      </trkpt>
      <trkpt lat="50.580534000" lon="5.574388000">
        <ele>196.400</ele>
      </trkpt>
      <trkpt lat="50.580462000" lon="5.574605000">
        <ele>195.000</ele>
      </trkpt>
      <trkpt lat="50.580469000" lon="5.574619000">
        <ele>194.600</ele>
      </trkpt>
      <trkpt lat="50.580404000" lon="5.574785000">
        <ele>191.800</ele>
      </trkpt>
      <trkpt lat="50.580410000" lon="5.574875000">
        <ele>191.000</ele>
      </trkpt>
      <trkpt lat="50.580385000" lon="5.574951000">
        <ele>188.600</ele>
      </trkpt>
      <trkpt lat="50.580395000" lon="5.574997000">
        <ele>188.400</ele>
      </trkpt>
      <trkpt lat="50.580419000" lon="5.575017000">
        <ele>188.200</ele>
      </trkpt>
      <trkpt lat="50.580451000" lon="5.575202000">
        <ele>187.600</ele>
      </trkpt>
      <trkpt lat="50.580447000" lon="5.575367000">
        <ele>187.800</ele>
      </trkpt>
      <trkpt lat="50.580468000" lon="5.575416000">
        <ele>187.400</ele>
      </trkpt>
      <trkpt lat="50.580460000" lon="5.575474000">
        <ele>187.200</ele>
      </trkpt>
      <trkpt lat="50.580545000" lon="5.575825000">
        <ele>185.200</ele>
      </trkpt>
      <trkpt lat="50.580553000" lon="5.575936000">
        <ele>185.200</ele>
      </trkpt>
      <trkpt lat="50.580531000" lon="5.575997000">
        <ele>185.200</ele>
      </trkpt>
      <trkpt lat="50.580502000" lon="5.576384000">
        <ele>184.400</ele>
      </trkpt>
      <trkpt lat="50.580535000" lon="5.576471000">
        <ele>184.200</ele>
      </trkpt>
      <trkpt lat="50.580568000" lon="5.576622000">
        <ele>184.200</ele>
      </trkpt>
      <trkpt lat="50.580577000" lon="5.576768000">
        <ele>183.800</ele>
      </trkpt>
      <trkpt lat="50.580599000" lon="5.576797000">
        <ele>184.000</ele>
      </trkpt>
      <trkpt lat="50.580659000" lon="5.576822000">
        <ele>183.800</ele>
      </trkpt>
      <trkpt lat="50.580708000" lon="5.577007000">
        <ele>182.400</ele>
      </trkpt>
      <trkpt lat="50.580711000" lon="5.577070000">
        <ele>182.400</ele>
      </trkpt>
      <trkpt lat="50.580698000" lon="5.577108000">
        <ele>182.200</ele>
      </trkpt>
      <trkpt lat="50.580705000" lon="5.577156000">
        <ele>182.200</ele>
      </trkpt>
      <trkpt lat="50.580717000" lon="5.577163000">
        <ele>182.200</ele>
      </trkpt>
      <trkpt lat="50.580692000" lon="5.577192000">
        <ele>182.800</ele>
      </trkpt>
      <trkpt lat="50.580693000" lon="5.577175000">
        <ele>183.000</ele>
      </trkpt>
      <trkpt lat="50.580670000" lon="5.577198000">
        <ele>182.000</ele>
      </trkpt>
      <trkpt lat="50.580660000" lon="5.577265000">
        <ele>182.400</ele>
      </trkpt>
      <trkpt lat="50.580602000" lon="5.577296000">
        <ele>184.200</ele>
      </trkpt>
      <trkpt lat="50.580529000" lon="5.577270000">
        <ele>186.400</ele>
      </trkpt>
      <trkpt lat="50.580407000" lon="5.577271000">
        <ele>187.800</ele>
      </trkpt>
      <trkpt lat="50.580358000" lon="5.577251000">
        <ele>188.600</ele>
      </trkpt>
      <trkpt lat="50.580325000" lon="5.577266000">
        <ele>189.200</ele>
      </trkpt>
      <trkpt lat="50.580209000" lon="5.577240000">
        <ele>190.800</ele>
      </trkpt>
      <trkpt lat="50.579928000" lon="5.577255000">
        <ele>195.400</ele>
      </trkpt>
      <trkpt lat="50.579862000" lon="5.577311000">
        <ele>195.200</ele>
      </trkpt>
      <trkpt lat="50.579661000" lon="5.577319000">
        <ele>198.400</ele>
      </trkpt>
      <trkpt lat="50.579501000" lon="5.577260000">
        <ele>200.400</ele>
      </trkpt>
      <trkpt lat="50.579400000" lon="5.577162000">
        <ele>202.200</ele>
      </trkpt>
      <trkpt lat="50.579390000" lon="5.577124000">
        <ele>202.400</ele>
      </trkpt>
      <trkpt lat="50.579334000" lon="5.577053000">
        <ele>203.000</ele>
      </trkpt>
      <trkpt lat="50.579249000" lon="5.577003000">
        <ele>204.000</ele>
      </trkpt>
      <trkpt lat="50.579145000" lon="5.576792000">
        <ele>205.600</ele>
      </trkpt>
      <trkpt lat="50.579093000" lon="5.576843000">
        <ele>204.800</ele>
      </trkpt>
      <trkpt lat="50.579026000" lon="5.576730000">
        <ele>205.600</ele>
      </trkpt>
      <trkpt lat="50.579036000" lon="5.576674000">
        <ele>205.800</ele>
      </trkpt>
      <trkpt lat="50.579007000" lon="5.576643000">
        <ele>206.800</ele>
      </trkpt>
      <trkpt lat="50.579002000" lon="5.576685000">
        <ele>206.800</ele>
      </trkpt>
      <trkpt lat="50.578961000" lon="5.576729000">
        <ele>206.600</ele>
      </trkpt>
      <trkpt lat="50.578962000" lon="5.576787000">
        <ele>206.200</ele>
      </trkpt>
      <trkpt lat="50.578981000" lon="5.576813000">
        <ele>204.800</ele>
      </trkpt>
      <trkpt lat="50.578960000" lon="5.576824000">
        <ele>204.400</ele>
      </trkpt>
      <trkpt lat="50.578983000" lon="5.576793000">
        <ele>204.200</ele>
      </trkpt>
      <trkpt lat="50.579003000" lon="5.576795000">
        <ele>204.000</ele>
      </trkpt>
      <trkpt lat="50.579006000" lon="5.576779000">
        <ele>204.200</ele>
      </trkpt>
      <trkpt lat="50.578982000" lon="5.576942000">
        <ele>205.800</ele>
      </trkpt>
      <trkpt lat="50.578961000" lon="5.576982000">
        <ele>206.600</ele>
      </trkpt>
      <trkpt lat="50.578871000" lon="5.576844000">
        <ele>207.800</ele>
      </trkpt>
      <trkpt lat="50.578842000" lon="5.576627000">
        <ele>209.400</ele>
      </trkpt>
      <trkpt lat="50.578820000" lon="5.576613000">
        <ele>209.800</ele>
      </trkpt>
      <trkpt lat="50.578928000" lon="5.576482000">
        <ele>209.800</ele>
      </trkpt>
      <trkpt lat="50.578955000" lon="5.576354000">
        <ele>209.000</ele>
      </trkpt>
      <trkpt lat="50.578955000" lon="5.576212000">
        <ele>209.600</ele>
      </trkpt>
      <trkpt lat="50.579086000" lon="5.576016000">
        <ele>210.600</ele>
      </trkpt>
      <trkpt lat="50.579133000" lon="5.575899000">
        <ele>209.800</ele>
      </trkpt>
      <trkpt lat="50.579141000" lon="5.575774000">
        <ele>209.400</ele>
      </trkpt>
      <trkpt lat="50.579121000" lon="5.575744000">
        <ele>209.400</ele>
      </trkpt>
      <trkpt lat="50.579085000" lon="5.575568000">
        <ele>210.800</ele>
      </trkpt>
      <trkpt lat="50.579042000" lon="5.575554000">
        <ele>210.400</ele>
      </trkpt>
      <trkpt lat="50.579019000" lon="5.575478000">
        <ele>210.400</ele>
      </trkpt>
      <trkpt lat="50.579026000" lon="5.575436000">
        <ele>210.800</ele>
      </trkpt>
      <trkpt lat="50.579004000" lon="5.575327000">
        <ele>212.200</ele>
      </trkpt>
      <trkpt lat="50.578946000" lon="5.575169000">
        <ele>214.600</ele>
      </trkpt>
      <trkpt lat="50.578937000" lon="5.575090000">
        <ele>215.800</ele>
      </trkpt>
      <trkpt lat="50.578884000" lon="5.574915000">
        <ele>217.200</ele>
      </trkpt>
      <trkpt lat="50.578841000" lon="5.574864000">
        <ele>217.600</ele>
      </trkpt>
      <trkpt lat="50.578761000" lon="5.574704000">
        <ele>219.200</ele>
      </trkpt>
      <trkpt lat="50.578758000" lon="5.574629000">
        <ele>219.800</ele>
      </trkpt>
      <trkpt lat="50.578774000" lon="5.574576000">
        <ele>219.400</ele>
      </trkpt>
      <trkpt lat="50.578755000" lon="5.574551000">
        <ele>218.800</ele>
      </trkpt>
      <trkpt lat="50.578743000" lon="5.574421000">
        <ele>219.600</ele>
      </trkpt>
      <trkpt lat="50.578777000" lon="5.574364000">
        <ele>218.800</ele>
      </trkpt>
      <trkpt lat="50.578725000" lon="5.574314000">
        <ele>219.000</ele>
      </trkpt>
      <trkpt lat="50.578727000" lon="5.574275000">
        <ele>219.200</ele>
      </trkpt>
      <trkpt lat="50.578730000" lon="5.574292000">
        <ele>218.600</ele>
      </trkpt>
      <trkpt lat="50.578710000" lon="5.574311000">
        <ele>218.000</ele>
      </trkpt>
      <trkpt lat="50.578724000" lon="5.574322000">
        <ele>217.800</ele>
      </trkpt>
      <trkpt lat="50.578730000" lon="5.574249000">
        <ele>218.400</ele>
      </trkpt>
      <trkpt lat="50.578670000" lon="5.574047000">
        <ele>219.800</ele>
      </trkpt>
      <trkpt lat="50.578608000" lon="5.574046000">
        <ele>220.000</ele>
      </trkpt>
      <trkpt lat="50.578582000" lon="5.574125000">
        <ele>219.800</ele>
      </trkpt>
      <trkpt lat="50.578471000" lon="5.574271000">
        <ele>219.800</ele>
      </trkpt>
      <trkpt lat="50.578421000" lon="5.574285000">
        <ele>219.800</ele>
      </trkpt>
      <trkpt lat="50.578348000" lon="5.574371000">
        <ele>219.400</ele>
      </trkpt>
      <trkpt lat="50.578324000" lon="5.574372000">
        <ele>219.400</ele>
      </trkpt>
      <trkpt lat="50.578198000" lon="5.574467000">
        <ele>218.200</ele>
      </trkpt>
      <trkpt lat="50.578191000" lon="5.574556000">
        <ele>218.400</ele>
      </trkpt>
      <trkpt lat="50.577967000" lon="5.574866000">
        <ele>220.200</ele>
      </trkpt>
      <trkpt lat="50.577824000" lon="5.575010000">
        <ele>221.200</ele>
      </trkpt>
      <trkpt lat="50.577717000" lon="5.575002000">
        <ele>221.600</ele>
      </trkpt>
      <trkpt lat="50.577693000" lon="5.574964000">
        <ele>221.800</ele>
      </trkpt>
      <trkpt lat="50.577605000" lon="5.574612000">
        <ele>224.200</ele>
      </trkpt>
      <trkpt lat="50.577522000" lon="5.574502000">
        <ele>224.800</ele>
      </trkpt>
      <trkpt lat="50.577525000" lon="5.574521000">
        <ele>224.600</ele>
      </trkpt>
      <trkpt lat="50.577506000" lon="5.574525000">
        <ele>223.800</ele>
      </trkpt>
      <trkpt lat="50.577508000" lon="5.574462000">
        <ele>223.600</ele>
      </trkpt>
      <trkpt lat="50.577438000" lon="5.574335000">
        <ele>224.000</ele>
      </trkpt>
      <trkpt lat="50.577406000" lon="5.574360000">
        <ele>223.400</ele>
      </trkpt>
      <trkpt lat="50.577364000" lon="5.574109000">
        <ele>225.800</ele>
      </trkpt>
      <trkpt lat="50.577327000" lon="5.574006000">
        <ele>226.400</ele>
      </trkpt>
      <trkpt lat="50.577094000" lon="5.573653000">
        <ele>227.800</ele>
      </trkpt>
      <trkpt lat="50.577003000" lon="5.573560000">
        <ele>228.200</ele>
      </trkpt>
      <trkpt lat="50.576967000" lon="5.573492000">
        <ele>228.200</ele>
      </trkpt>
      <trkpt lat="50.576897000" lon="5.573185000">
        <ele>229.600</ele>
      </trkpt>
      <trkpt lat="50.576873000" lon="5.573163000">
        <ele>229.400</ele>
      </trkpt>
      <trkpt lat="50.576886000" lon="5.573145000">
        <ele>229.200</ele>
      </trkpt>
      <trkpt lat="50.576876000" lon="5.573123000">
        <ele>229.200</ele>
      </trkpt>
      <trkpt lat="50.576894000" lon="5.572882000">
        <ele>230.800</ele>
      </trkpt>
      <trkpt lat="50.576830000" lon="5.572664000">
        <ele>232.000</ele>
      </trkpt>
      <trkpt lat="50.576773000" lon="5.572547000">
        <ele>232.600</ele>
      </trkpt>
      <trkpt lat="50.576670000" lon="5.572399000">
        <ele>232.800</ele>
      </trkpt>
      <trkpt lat="50.576544000" lon="5.572261000">
        <ele>233.200</ele>
      </trkpt>
      <trkpt lat="50.576414000" lon="5.571853000">
        <ele>234.400</ele>
      </trkpt>
      <trkpt lat="50.576312000" lon="5.571627000">
        <ele>235.600</ele>
      </trkpt>
      <trkpt lat="50.576404000" lon="5.571652000">
        <ele>232.800</ele>
      </trkpt>
      <trkpt lat="50.576388000" lon="5.571624000">
        <ele>231.600</ele>
      </trkpt>
      <trkpt lat="50.576381000" lon="5.571643000">
        <ele>231.400</ele>
      </trkpt>
      <trkpt lat="50.576391000" lon="5.571640000">
        <ele>230.800</ele>
      </trkpt>
      <trkpt lat="50.576379000" lon="5.571637000">
        <ele>230.800</ele>
      </trkpt>
      <trkpt lat="50.576365000" lon="5.571674000">
        <ele>230.400</ele>
      </trkpt>
      <trkpt lat="50.576391000" lon="5.571646000">
        <ele>231.000</ele>
      </trkpt>
      <trkpt lat="50.576370000" lon="5.571638000">
        <ele>231.000</ele>
      </trkpt>
      <trkpt lat="50.576305000" lon="5.571452000">
        <ele>233.000</ele>
      </trkpt>
      <trkpt lat="50.576200000" lon="5.570968000">
        <ele>235.800</ele>
      </trkpt>
      <trkpt lat="50.576145000" lon="5.570624000">
        <ele>236.600</ele>
      </trkpt>
      <trkpt lat="50.576172000" lon="5.570577000">
        <ele>236.600</ele>
      </trkpt>
      <trkpt lat="50.576267000" lon="5.570538000">
        <ele>236.200</ele>
      </trkpt>
      <trkpt lat="50.576470000" lon="5.570498000">
        <ele>234.400</ele>
      </trkpt>
      <trkpt lat="50.576821000" lon="5.570261000">
        <ele>233.400</ele>
      </trkpt>
      <trkpt lat="50.576845000" lon="5.570214000">
        <ele>233.000</ele>
      </trkpt>
      <trkpt lat="50.576851000" lon="5.570153000">
        <ele>232.800</ele>
      </trkpt>
      <trkpt lat="50.576733000" lon="5.569340000">
        <ele>232.200</ele>
      </trkpt>
      <trkpt lat="50.576784000" lon="5.569246000">
        <ele>232.200</ele>
      </trkpt>
      <trkpt lat="50.576872000" lon="5.569252000">
        <ele>232.000</ele>
      </trkpt>
      <trkpt lat="50.576879000" lon="5.569218000">
        <ele>232.000</ele>
      </trkpt>
      <trkpt lat="50.576894000" lon="5.569214000">
        <ele>232.000</ele>
      </trkpt>
      <trkpt lat="50.576962000" lon="5.569096000">
        <ele>232.000</ele>
      </trkpt>
      <trkpt lat="50.577138000" lon="5.568929000">
        <ele>230.000</ele>
      </trkpt>
      <trkpt lat="50.577243000" lon="5.568758000">
        <ele>229.400</ele>
      </trkpt>
      <trkpt lat="50.577349000" lon="5.568643000">
        <ele>228.800</ele>
      </trkpt>
      <trkpt lat="50.577436000" lon="5.568515000">
        <ele>227.800</ele>
      </trkpt>
      <trkpt lat="50.577560000" lon="5.568378000">
        <ele>226.600</ele>
      </trkpt>
      <trkpt lat="50.577652000" lon="5.568237000">
        <ele>225.800</ele>
      </trkpt>
      <trkpt lat="50.577722000" lon="5.568305000">
        <ele>224.400</ele>
      </trkpt>
      <trkpt lat="50.577766000" lon="5.568261000">
        <ele>221.800</ele>
      </trkpt>
      <trkpt lat="50.577783000" lon="5.568203000">
        <ele>220.400</ele>
      </trkpt>
      <trkpt lat="50.577773000" lon="5.568025000">
        <ele>219.000</ele>
      </trkpt>
      <trkpt lat="50.577798000" lon="5.567953000">
        <ele>219.200</ele>
      </trkpt>
      <trkpt lat="50.577934000" lon="5.567815000">
        <ele>217.800</ele>
      </trkpt>
      <trkpt lat="50.577903000" lon="5.567757000">
        <ele>218.000</ele>
      </trkpt>
      <trkpt lat="50.577846000" lon="5.567742000">
        <ele>217.200</ele>
      </trkpt>
      <trkpt lat="50.577858000" lon="5.567769000">
        <ele>217.000</ele>
      </trkpt>
      <trkpt lat="50.577891000" lon="5.567779000">
        <ele>217.000</ele>
      </trkpt>
      <trkpt lat="50.577919000" lon="5.567761000">
        <ele>216.600</ele>
      </trkpt>
      <trkpt lat="50.577898000" lon="5.567730000">
        <ele>216.400</ele>
      </trkpt>
      <trkpt lat="50.577853000" lon="5.567775000">
        <ele>215.400</ele>
      </trkpt>
      <trkpt lat="50.577868000" lon="5.567805000">
        <ele>215.200</ele>
      </trkpt>
      <trkpt lat="50.577819000" lon="5.567818000">
        <ele>215.200</ele>
      </trkpt>
      <trkpt lat="50.577834000" lon="5.567816000">
        <ele>215.200</ele>
      </trkpt>
      <trkpt lat="50.577849000" lon="5.567854000">
        <ele>215.000</ele>
      </trkpt>
      <trkpt lat="50.577832000" lon="5.567895000">
        <ele>215.000</ele>
      </trkpt>
      <trkpt lat="50.578273000" lon="5.567497000">
        <ele>212.800</ele>
      </trkpt>
      <trkpt lat="50.578313000" lon="5.567559000">
        <ele>213.000</ele>
      </trkpt>
      <trkpt lat="50.578354000" lon="5.567488000">
        <ele>213.400</ele>
      </trkpt>
      <trkpt lat="50.578302000" lon="5.567374000">
        <ele>214.400</ele>
      </trkpt>
      <trkpt lat="50.578307000" lon="5.567353000">
        <ele>214.400</ele>
      </trkpt>
      <trkpt lat="50.578274000" lon="5.567235000">
        <ele>215.600</ele>
      </trkpt>
      <trkpt lat="50.578276000" lon="5.567169000">
        <ele>216.200</ele>
      </trkpt>
      <trkpt lat="50.578234000" lon="5.566927000">
        <ele>217.000</ele>
      </trkpt>
      <trkpt lat="50.578222000" lon="5.566932000">
        <ele>216.800</ele>
      </trkpt>
      <trkpt lat="50.578140000" lon="5.566791000">
        <ele>216.600</ele>
      </trkpt>
      <trkpt lat="50.578145000" lon="5.566704000">
        <ele>216.400</ele>
      </trkpt>
      <trkpt lat="50.578194000" lon="5.566623000">
        <ele>215.600</ele>
      </trkpt>
      <trkpt lat="50.578267000" lon="5.566560000">
        <ele>214.200</ele>
      </trkpt>
      <trkpt lat="50.578359000" lon="5.566518000">
        <ele>212.200</ele>
      </trkpt>
      <trkpt lat="50.578431000" lon="5.566454000">
        <ele>211.600</ele>
      </trkpt>
      <trkpt lat="50.578585000" lon="5.566411000">
        <ele>208.200</ele>
      </trkpt>
      <trkpt lat="50.578637000" lon="5.566278000">
        <ele>207.400</ele>
      </trkpt>
      <trkpt lat="50.578645000" lon="5.566057000">
        <ele>207.200</ele>
      </trkpt>
      <trkpt lat="50.578570000" lon="5.565572000">
        <ele>207.600</ele>
      </trkpt>
      <trkpt lat="50.578619000" lon="5.565396000">
        <ele>207.800</ele>
      </trkpt>
      <trkpt lat="50.578811000" lon="5.565067000">
        <ele>207.400</ele>
      </trkpt>
      <trkpt lat="50.579002000" lon="5.564817000">
        <ele>207.200</ele>
      </trkpt>
      <trkpt lat="50.579163000" lon="5.564666000">
        <ele>207.000</ele>
      </trkpt>
      <trkpt lat="50.579215000" lon="5.564524000">
        <ele>206.800</ele>
      </trkpt>
      <trkpt lat="50.579239000" lon="5.564407000">
        <ele>206.600</ele>
      </trkpt>
      <trkpt lat="50.579275000" lon="5.564333000">
        <ele>206.800</ele>
      </trkpt>
      <trkpt lat="50.579408000" lon="5.564179000">
        <ele>207.000</ele>
      </trkpt>
      <trkpt lat="50.579507000" lon="5.564118000">
        <ele>207.400</ele>
      </trkpt>
      <trkpt lat="50.579607000" lon="5.564136000">
        <ele>207.800</ele>
      </trkpt>
      <trkpt lat="50.579660000" lon="5.564181000">
        <ele>208.000</ele>
      </trkpt>
      <trkpt lat="50.579897000" lon="5.564485000">
        <ele>209.400</ele>
      </trkpt>
      <trkpt lat="50.580017000" lon="5.564605000">
        <ele>210.000</ele>
      </trkpt>
      <trkpt lat="50.580079000" lon="5.564711000">
        <ele>210.400</ele>
      </trkpt>
      <trkpt lat="50.580149000" lon="5.564766000">
        <ele>210.600</ele>
      </trkpt>
      <trkpt lat="50.580200000" lon="5.564836000">
        <ele>211.200</ele>
      </trkpt>
      <trkpt lat="50.580205000" lon="5.564864000">
        <ele>211.400</ele>
      </trkpt>
      <trkpt lat="50.580389000" lon="5.565064000">
        <ele>212.200</ele>
      </trkpt>
      <trkpt lat="50.580414000" lon="5.565114000">
        <ele>212.200</ele>
      </trkpt>
      <trkpt lat="50.580534000" lon="5.565256000">
        <ele>212.600</ele>
      </trkpt>
      <trkpt lat="50.580637000" lon="5.565348000">
        <ele>212.800</ele>
      </trkpt>
      <trkpt lat="50.580661000" lon="5.565403000">
        <ele>213.000</ele>
      </trkpt>
      <trkpt lat="50.580768000" lon="5.565504000">
        <ele>213.400</ele>
      </trkpt>
    </trkseg>
  </trk>
</gpx>
