<?xml version="1.0" encoding="UTF-8"?>
<gpx version="1.1" creator="GPSBabel - https://www.gpsbabel.org" xmlns="http://www.topografix.com/GPX/1/1" xmlns:xsi="http://www.w3.org/2001/XMLSchema-instance">
  <metadata>
    <time>2026-09-21T13:31:31.323Z</time>
    <bounds minlat="50.576216000" minlon="5.564185000" maxlat="50.582042000" maxlon="5.594999000"/>
  </metadata>
  <trk>
    <name>Plogging le midi</name>
    <type>trail_running</type>
    <trkseg>
      <trkpt lat="50.582042000" lon="5.566092000">
        <ele>194.000</ele>
      </trkpt>
      <trkpt lat="50.582011000" lon="5.566186000">
        <ele>193.000</ele>
      </trkpt>
      <trkpt lat="50.581993000" lon="5.566213000">
        <ele>192.400</ele>
      </trkpt>
      <trkpt lat="50.581950000" lon="5.566226000">
        <ele>191.800</ele>
      </trkpt>
      <trkpt lat="50.581819000" lon="5.566193000">
        <ele>190.200</ele>
      </trkpt>
      <trkpt lat="50.581729000" lon="5.566183000">
        <ele>189.400</ele>
      </trkpt>
      <trkpt lat="50.581681000" lon="5.566321000">
        <ele>188.000</ele>
      </trkpt>
      <trkpt lat="50.581656000" lon="5.566430000">
        <ele>187.200</ele>
      </trkpt>
      <trkpt lat="50.581623000" lon="5.566422000">
        <ele>186.800</ele>
      </trkpt>
      <trkpt lat="50.581517000" lon="5.566278000">
        <ele>185.800</ele>
      </trkpt>
      <trkpt lat="50.581165000" lon="5.565947000">
        <ele>184.400</ele>
      </trkpt>
      <trkpt lat="50.581057000" lon="5.565882000">
        <ele>183.800</ele>
      </trkpt>
      <trkpt lat="50.580980000" lon="5.565814000">
        <ele>183.200</ele>
      </trkpt>
      <trkpt lat="50.580868000" lon="5.565748000">
        <ele>182.600</ele>
      </trkpt>
      <trkpt lat="50.580745000" lon="5.565704000">
        <ele>182.200</ele>
      </trkpt>
      <trkpt lat="50.580646000" lon="5.565639000">
        <ele>181.600</ele>
      </trkpt>
      <trkpt lat="50.580481000" lon="5.565463000">
        <ele>180.200</ele>
      </trkpt>
      <trkpt lat="50.580270000" lon="5.565295000">
        <ele>179.400</ele>
      </trkpt>
      <trkpt lat="50.580103000" lon="5.565140000">
        <ele>179.000</ele>
      </trkpt>
      <trkpt lat="50.580007000" lon="5.565018000">
        <ele>178.200</ele>
      </trkpt>
      <trkpt lat="50.579829000" lon="5.564754000">
        <ele>177.200</ele>
      </trkpt>
      <trkpt lat="50.579734000" lon="5.564639000">
        <ele>176.600</ele>
      </trkpt>
      <trkpt lat="50.579647000" lon="5.564495000">
        <ele>176.000</ele>
      </trkpt>
      <trkpt lat="50.579593000" lon="5.564365000">
        <ele>175.600</ele>
      </trkpt>
      <trkpt lat="50.579467000" lon="5.564195000">
        <ele>174.600</ele>
      </trkpt>
      <trkpt lat="50.579359000" lon="5.564185000">
        <ele>174.000</ele>
      </trkpt>
      <trkpt lat="50.579280000" lon="5.564231000">
        <ele>173.600</ele>
      </trkpt>
      <trkpt lat="50.579167000" lon="5.564322000">
        <ele>172.800</ele>
      </trkpt>
      <trkpt lat="50.578868000" lon="5.564915000">
        <ele>172.400</ele>
      </trkpt>
      <trkpt lat="50.578759000" lon="5.565157000">
        <ele>172.400</ele>
      </trkpt>
      <trkpt lat="50.578757000" lon="5.565206000">
        <ele>172.400</ele>
      </trkpt>
      <trkpt lat="50.578679000" lon="5.565401000">
        <ele>172.400</ele>
      </trkpt>
      <trkpt lat="50.578643000" lon="5.565573000">
        <ele>172.200</ele>
      </trkpt>
      <trkpt lat="50.578651000" lon="5.565913000">
        <ele>172.200</ele>
      </trkpt>
      <trkpt lat="50.578638000" lon="5.566090000">
        <ele>172.400</ele>
      </trkpt>
      <trkpt lat="50.578573000" lon="5.566273000">
        <ele>172.400</ele>
      </trkpt>
      <trkpt lat="50.578474000" lon="5.566394000">
        <ele>173.800</ele>
      </trkpt>
      <trkpt lat="50.578268000" lon="5.566433000">
        <ele>178.400</ele>
      </trkpt>
      <trkpt lat="50.578131000" lon="5.566509000">
        <ele>180.800</ele>
      </trkpt>
      <trkpt lat="50.578028000" lon="5.566521000">
        <ele>182.200</ele>
      </trkpt>
      <trkpt lat="50.577956000" lon="5.566551000">
        <ele>183.000</ele>
      </trkpt>
      <trkpt lat="50.577727000" lon="5.566589000">
        <ele>185.400</ele>
      </trkpt>
      <trkpt lat="50.577661000" lon="5.566617000">
        <ele>186.000</ele>
      </trkpt>
      <trkpt lat="50.577598000" lon="5.566623000">
        <ele>186.600</ele>
      </trkpt>
      <trkpt lat="50.577546000" lon="5.566608000">
        <ele>187.200</ele>
      </trkpt>
      <trkpt lat="50.577492000" lon="5.566657000">
        <ele>187.800</ele>
      </trkpt>
      <trkpt lat="50.577476000" lon="5.566708000">
        <ele>188.200</ele>
      </trkpt>
      <trkpt lat="50.577496000" lon="5.566899000">
        <ele>188.800</ele>
      </trkpt>
      <trkpt lat="50.577574000" lon="5.567448000">
        <ele>189.800</ele>
      </trkpt>
      <trkpt lat="50.577630000" lon="5.567709000">
        <ele>189.600</ele>
      </trkpt>
      <trkpt lat="50.577658000" lon="5.567789000">
        <ele>189.400</ele>
      </trkpt>
      <trkpt lat="50.577683000" lon="5.567796000">
        <ele>189.000</ele>
      </trkpt>
      <trkpt lat="50.577697000" lon="5.567842000">
        <ele>187.800</ele>
      </trkpt>
      <trkpt lat="50.577703000" lon="5.567907000">
        <ele>186.400</ele>
      </trkpt>
      <trkpt lat="50.577880000" lon="5.567894000">
        <ele>184.400</ele>
      </trkpt>
      <trkpt lat="50.577896000" lon="5.567876000">
        <ele>184.000</ele>
      </trkpt>
      <trkpt lat="50.577875000" lon="5.568012000">
        <ele>184.200</ele>
      </trkpt>
      <trkpt lat="50.577881000" lon="5.568067000">
        <ele>184.000</ele>
      </trkpt>
      <trkpt lat="50.577899000" lon="5.568088000">
        <ele>184.200</ele>
      </trkpt>
      <trkpt lat="50.577901000" lon="5.568174000">
        <ele>184.200</ele>
      </trkpt>
      <trkpt lat="50.577904000" lon="5.568042000">
        <ele>184.200</ele>
      </trkpt>
      <trkpt lat="50.577921000" lon="5.568017000">
        <ele>184.200</ele>
      </trkpt>
      <trkpt lat="50.577916000" lon="5.568023000">
        <ele>184.200</ele>
      </trkpt>
      <trkpt lat="50.577926000" lon="5.567994000">
        <ele>184.000</ele>
      </trkpt>
      <trkpt lat="50.577942000" lon="5.567988000">
        <ele>184.200</ele>
      </trkpt>
      <trkpt lat="50.577950000" lon="5.567963000">
        <ele>184.000</ele>
      </trkpt>
      <trkpt lat="50.577960000" lon="5.567965000">
        <ele>184.000</ele>
      </trkpt>
      <trkpt lat="50.577970000" lon="5.567949000">
        <ele>184.000</ele>
      </trkpt>
      <trkpt lat="50.577958000" lon="5.567966000">
        <ele>183.800</ele>
      </trkpt>
      <trkpt lat="50.577916000" lon="5.567976000">
        <ele>184.400</ele>
      </trkpt>
      <trkpt lat="50.577902000" lon="5.567943000">
        <ele>184.400</ele>
      </trkpt>
      <trkpt lat="50.577895000" lon="5.567946000">
        <ele>184.600</ele>
      </trkpt>
      <trkpt lat="50.577902000" lon="5.567943000">
        <ele>184.400</ele>
      </trkpt>
      <trkpt lat="50.577890000" lon="5.567954000">
        <ele>183.800</ele>
      </trkpt>
      <trkpt lat="50.577900000" lon="5.567937000">
        <ele>183.800</ele>
      </trkpt>
      <trkpt lat="50.577876000" lon="5.567988000">
        <ele>183.800</ele>
      </trkpt>
      <trkpt lat="50.577899000" lon="5.567940000">
        <ele>183.800</ele>
      </trkpt>
      <trkpt lat="50.577883000" lon="5.567914000">
        <ele>183.800</ele>
      </trkpt>
      <trkpt lat="50.577889000" lon="5.567901000">
        <ele>183.800</ele>
      </trkpt>
      <trkpt lat="50.577921000" lon="5.567883000">
        <ele>183.800</ele>
      </trkpt>
      <trkpt lat="50.577913000" lon="5.567873000">
        <ele>183.800</ele>
      </trkpt>
      <trkpt lat="50.577937000" lon="5.567862000">
        <ele>183.800</ele>
      </trkpt>
      <trkpt lat="50.577929000" lon="5.567871000">
        <ele>183.800</ele>
      </trkpt>
      <trkpt lat="50.577936000" lon="5.567862000">
        <ele>183.800</ele>
      </trkpt>
      <trkpt lat="50.577934000" lon="5.567871000">
        <ele>183.800</ele>
      </trkpt>
      <trkpt lat="50.577963000" lon="5.567922000">
        <ele>183.800</ele>
      </trkpt>
      <trkpt lat="50.577990000" lon="5.568019000">
        <ele>183.800</ele>
      </trkpt>
      <trkpt lat="50.577989000" lon="5.568038000">
        <ele>183.800</ele>
      </trkpt>
      <trkpt lat="50.577999000" lon="5.568049000">
        <ele>183.800</ele>
      </trkpt>
      <trkpt lat="50.577975000" lon="5.568072000">
        <ele>183.800</ele>
      </trkpt>
      <trkpt lat="50.577953000" lon="5.568070000">
        <ele>183.800</ele>
      </trkpt>
      <trkpt lat="50.577919000" lon="5.567937000">
        <ele>186.600</ele>
      </trkpt>
      <trkpt lat="50.577928000" lon="5.567925000">
        <ele>186.600</ele>
      </trkpt>
      <trkpt lat="50.577926000" lon="5.567894000">
        <ele>186.600</ele>
      </trkpt>
      <trkpt lat="50.577935000" lon="5.567846000">
        <ele>186.800</ele>
      </trkpt>
      <trkpt lat="50.577978000" lon="5.567782000">
        <ele>184.800</ele>
      </trkpt>
      <trkpt lat="50.578015000" lon="5.567768000">
        <ele>184.200</ele>
      </trkpt>
      <trkpt lat="50.578182000" lon="5.567781000">
        <ele>183.600</ele>
      </trkpt>
      <trkpt lat="50.578329000" lon="5.567760000">
        <ele>182.600</ele>
      </trkpt>
      <trkpt lat="50.578470000" lon="5.567647000">
        <ele>180.400</ele>
      </trkpt>
      <trkpt lat="50.578536000" lon="5.567570000">
        <ele>179.200</ele>
      </trkpt>
      <trkpt lat="50.578571000" lon="5.567549000">
        <ele>178.000</ele>
      </trkpt>
      <trkpt lat="50.578623000" lon="5.567559000">
        <ele>177.200</ele>
      </trkpt>
      <trkpt lat="50.578649000" lon="5.567792000">
        <ele>177.400</ele>
      </trkpt>
      <trkpt lat="50.578669000" lon="5.567898000">
        <ele>177.800</ele>
      </trkpt>
      <trkpt lat="50.578681000" lon="5.568083000">
        <ele>178.000</ele>
      </trkpt>
      <trkpt lat="50.578696000" lon="5.568152000">
        <ele>178.200</ele>
      </trkpt>
      <trkpt lat="50.578723000" lon="5.568673000">
        <ele>179.000</ele>
      </trkpt>
      <trkpt lat="50.578748000" lon="5.568940000">
        <ele>179.800</ele>
      </trkpt>
      <trkpt lat="50.578768000" lon="5.569038000">
        <ele>180.200</ele>
      </trkpt>
      <trkpt lat="50.578824000" lon="5.569131000">
        <ele>180.400</ele>
      </trkpt>
      <trkpt lat="50.578887000" lon="5.569145000">
        <ele>180.200</ele>
      </trkpt>
      <trkpt lat="50.578996000" lon="5.569013000">
        <ele>177.000</ele>
      </trkpt>
      <trkpt lat="50.579087000" lon="5.568930000">
        <ele>175.600</ele>
      </trkpt>
      <trkpt lat="50.579205000" lon="5.568846000">
        <ele>173.400</ele>
      </trkpt>
      <trkpt lat="50.579332000" lon="5.568787000">
        <ele>170.800</ele>
      </trkpt>
      <trkpt lat="50.579435000" lon="5.568684000">
        <ele>169.000</ele>
      </trkpt>
      <trkpt lat="50.579581000" lon="5.568602000">
        <ele>166.000</ele>
      </trkpt>
      <trkpt lat="50.579673000" lon="5.568531000">
        <ele>163.600</ele>
      </trkpt>
      <trkpt lat="50.579682000" lon="5.568514000">
        <ele>163.200</ele>
      </trkpt>
      <trkpt lat="50.579757000" lon="5.568483000">
        <ele>161.400</ele>
      </trkpt>
      <trkpt lat="50.579841000" lon="5.568431000">
        <ele>159.600</ele>
      </trkpt>
      <trkpt lat="50.579967000" lon="5.568405000">
        <ele>157.200</ele>
      </trkpt>
      <trkpt lat="50.580000000" lon="5.568407000">
        <ele>155.600</ele>
      </trkpt>
      <trkpt lat="50.580004000" lon="5.568416000">
        <ele>155.200</ele>
      </trkpt>
      <trkpt lat="50.580083000" lon="5.568414000">
        <ele>153.600</ele>
      </trkpt>
      <trkpt lat="50.580167000" lon="5.568362000">
        <ele>151.200</ele>
      </trkpt>
      <trkpt lat="50.580199000" lon="5.568320000">
        <ele>149.000</ele>
      </trkpt>
      <trkpt lat="50.580233000" lon="5.568315000">
        <ele>148.800</ele>
      </trkpt>
      <trkpt lat="50.580301000" lon="5.568439000">
        <ele>148.200</ele>
      </trkpt>
      <trkpt lat="50.580385000" lon="5.568678000">
        <ele>148.400</ele>
      </trkpt>
      <trkpt lat="50.580448000" lon="5.568822000">
        <ele>149.400</ele>
      </trkpt>
      <trkpt lat="50.580489000" lon="5.569001000">
        <ele>150.600</ele>
      </trkpt>
      <trkpt lat="50.580493000" lon="5.569091000">
        <ele>151.200</ele>
      </trkpt>
      <trkpt lat="50.580539000" lon="5.569277000">
        <ele>152.200</ele>
      </trkpt>
      <trkpt lat="50.580603000" lon="5.569681000">
        <ele>155.200</ele>
      </trkpt>
      <trkpt lat="50.580624000" lon="5.569952000">
        <ele>157.600</ele>
      </trkpt>
      <trkpt lat="50.580621000" lon="5.570045000">
        <ele>158.200</ele>
      </trkpt>
      <trkpt lat="50.580634000" lon="5.570129000">
        <ele>158.600</ele>
      </trkpt>
      <trkpt lat="50.580615000" lon="5.570168000">
        <ele>159.600</ele>
      </trkpt>
      <trkpt lat="50.580621000" lon="5.570166000">
        <ele>159.600</ele>
      </trkpt>
      <trkpt lat="50.580586000" lon="5.570124000">
        <ele>160.200</ele>
      </trkpt>
      <trkpt lat="50.580561000" lon="5.570035000">
        <ele>159.600</ele>
      </trkpt>
      <trkpt lat="50.580542000" lon="5.570007000">
        <ele>159.800</ele>
      </trkpt>
      <trkpt lat="50.580519000" lon="5.570082000">
        <ele>160.200</ele>
      </trkpt>
      <trkpt lat="50.580545000" lon="5.570301000">
        <ele>160.600</ele>
      </trkpt>
      <trkpt lat="50.580604000" lon="5.570521000">
        <ele>160.600</ele>
      </trkpt>
      <trkpt lat="50.580658000" lon="5.570776000">
        <ele>161.000</ele>
      </trkpt>
      <trkpt lat="50.580689000" lon="5.570994000">
        <ele>161.000</ele>
      </trkpt>
      <trkpt lat="50.580702000" lon="5.571025000">
        <ele>161.000</ele>
      </trkpt>
      <trkpt lat="50.580783000" lon="5.571419000">
        <ele>161.400</ele>
      </trkpt>
      <trkpt lat="50.580808000" lon="5.571643000">
        <ele>161.800</ele>
      </trkpt>
      <trkpt lat="50.580807000" lon="5.571857000">
        <ele>161.800</ele>
      </trkpt>
      <trkpt lat="50.580844000" lon="5.572153000">
        <ele>162.200</ele>
      </trkpt>
      <trkpt lat="50.580859000" lon="5.572373000">
        <ele>162.600</ele>
      </trkpt>
      <trkpt lat="50.580871000" lon="5.572406000">
        <ele>162.800</ele>
      </trkpt>
      <trkpt lat="50.580886000" lon="5.572622000">
        <ele>163.200</ele>
      </trkpt>
      <trkpt lat="50.580868000" lon="5.573000000">
        <ele>163.400</ele>
      </trkpt>
      <trkpt lat="50.580811000" lon="5.573157000">
        <ele>163.400</ele>
      </trkpt>
      <trkpt lat="50.580555000" lon="5.573723000">
        <ele>163.200</ele>
      </trkpt>
      <trkpt lat="50.580455000" lon="5.574003000">
        <ele>163.800</ele>
      </trkpt>
      <trkpt lat="50.580358000" lon="5.574242000">
        <ele>164.200</ele>
      </trkpt>
      <trkpt lat="50.580163000" lon="5.574454000">
        <ele>164.800</ele>
      </trkpt>
      <trkpt lat="50.580107000" lon="5.574496000">
        <ele>165.000</ele>
      </trkpt>
      <trkpt lat="50.579900000" lon="5.574714000">
        <ele>167.000</ele>
      </trkpt>
      <trkpt lat="50.579600000" lon="5.575143000">
        <ele>170.400</ele>
      </trkpt>
      <trkpt lat="50.579528000" lon="5.575268000">
        <ele>171.600</ele>
      </trkpt>
      <trkpt lat="50.579390000" lon="5.575440000">
        <ele>172.800</ele>
      </trkpt>
      <trkpt lat="50.579227000" lon="5.575680000">
        <ele>174.600</ele>
      </trkpt>
      <trkpt lat="50.579130000" lon="5.575761000">
        <ele>175.600</ele>
      </trkpt>
      <trkpt lat="50.579055000" lon="5.575796000">
        <ele>176.000</ele>
      </trkpt>
      <trkpt lat="50.578971000" lon="5.575913000">
        <ele>176.200</ele>
      </trkpt>
      <trkpt lat="50.578956000" lon="5.576058000">
        <ele>175.800</ele>
      </trkpt>
      <trkpt lat="50.578883000" lon="5.576242000">
        <ele>176.200</ele>
      </trkpt>
      <trkpt lat="50.578686000" lon="5.576874000">
        <ele>176.200</ele>
      </trkpt>
      <trkpt lat="50.578672000" lon="5.576948000">
        <ele>175.800</ele>
      </trkpt>
      <trkpt lat="50.578659000" lon="5.577092000">
        <ele>174.800</ele>
      </trkpt>
      <trkpt lat="50.578637000" lon="5.577214000">
        <ele>174.000</ele>
      </trkpt>
      <trkpt lat="50.578625000" lon="5.577411000">
        <ele>172.600</ele>
      </trkpt>
      <trkpt lat="50.578656000" lon="5.577570000">
        <ele>171.200</ele>
      </trkpt>
      <trkpt lat="50.578702000" lon="5.577721000">
        <ele>170.000</ele>
      </trkpt>
      <trkpt lat="50.578798000" lon="5.577969000">
        <ele>167.800</ele>
      </trkpt>
      <trkpt lat="50.578842000" lon="5.578050000">
        <ele>166.800</ele>
      </trkpt>
      <trkpt lat="50.578912000" lon="5.578121000">
        <ele>165.800</ele>
      </trkpt>
      <trkpt lat="50.579192000" lon="5.578211000">
        <ele>163.200</ele>
      </trkpt>
      <trkpt lat="50.579289000" lon="5.578223000">
        <ele>162.400</ele>
      </trkpt>
      <trkpt lat="50.579411000" lon="5.578220000">
        <ele>161.000</ele>
      </trkpt>
      <trkpt lat="50.579467000" lon="5.578199000">
        <ele>160.600</ele>
      </trkpt>
      <trkpt lat="50.579840000" lon="5.577966000">
        <ele>156.400</ele>
      </trkpt>
      <trkpt lat="50.579923000" lon="5.577929000">
        <ele>155.600</ele>
      </trkpt>
      <trkpt lat="50.580076000" lon="5.577889000">
        <ele>154.200</ele>
      </trkpt>
      <trkpt lat="50.580178000" lon="5.577884000">
        <ele>153.000</ele>
      </trkpt>
      <trkpt lat="50.580431000" lon="5.577927000">
        <ele>150.800</ele>
      </trkpt>
      <trkpt lat="50.580546000" lon="5.577986000">
        <ele>149.600</ele>
      </trkpt>
      <trkpt lat="50.580674000" lon="5.578089000">
        <ele>148.400</ele>
      </trkpt>
      <trkpt lat="50.580808000" lon="5.578231000">
        <ele>147.000</ele>
      </trkpt>
      <trkpt lat="50.580896000" lon="5.578345000">
        <ele>146.000</ele>
      </trkpt>
      <trkpt lat="50.581078000" lon="5.578629000">
        <ele>144.400</ele>
      </trkpt>
      <trkpt lat="50.581249000" lon="5.578915000">
        <ele>142.600</ele>
      </trkpt>
      <trkpt lat="50.581315000" lon="5.579051000">
        <ele>142.400</ele>
      </trkpt>
      <trkpt lat="50.581422000" lon="5.579239000">
        <ele>141.800</ele>
      </trkpt>
      <trkpt lat="50.581574000" lon="5.579468000">
        <ele>140.800</ele>
      </trkpt>
      <trkpt lat="50.581666000" lon="5.579738000">
        <ele>140.200</ele>
      </trkpt>
      <trkpt lat="50.581742000" lon="5.580092000">
        <ele>139.800</ele>
      </trkpt>
      <trkpt lat="50.581766000" lon="5.580280000">
        <ele>139.600</ele>
      </trkpt>
      <trkpt lat="50.581773000" lon="5.580421000">
        <ele>139.200</ele>
      </trkpt>
      <trkpt lat="50.581758000" lon="5.580727000">
        <ele>138.600</ele>
      </trkpt>
      <trkpt lat="50.581714000" lon="5.581013000">
        <ele>138.600</ele>
      </trkpt>
      <trkpt lat="50.581639000" lon="5.581251000">
        <ele>137.400</ele>
      </trkpt>
      <trkpt lat="50.581598000" lon="5.581353000">
        <ele>137.000</ele>
      </trkpt>
      <trkpt lat="50.581540000" lon="5.581455000">
        <ele>136.400</ele>
      </trkpt>
      <trkpt lat="50.581442000" lon="5.581563000">
        <ele>135.200</ele>
      </trkpt>
      <trkpt lat="50.581311000" lon="5.581681000">
        <ele>134.000</ele>
      </trkpt>
      <trkpt lat="50.581250000" lon="5.581757000">
        <ele>133.400</ele>
      </trkpt>
      <trkpt lat="50.581152000" lon="5.581939000">
        <ele>132.800</ele>
      </trkpt>
      <trkpt lat="50.581076000" lon="5.582155000">
        <ele>132.400</ele>
      </trkpt>
      <trkpt lat="50.581055000" lon="5.582244000">
        <ele>132.200</ele>
      </trkpt>
      <trkpt lat="50.581036000" lon="5.582579000">
        <ele>131.800</ele>
      </trkpt>
      <trkpt lat="50.581031000" lon="5.582890000">
        <ele>131.400</ele>
      </trkpt>
      <trkpt lat="50.581062000" lon="5.583098000">
        <ele>131.200</ele>
      </trkpt>
      <trkpt lat="50.581075000" lon="5.583118000">
        <ele>131.200</ele>
      </trkpt>
      <trkpt lat="50.581105000" lon="5.583137000">
        <ele>131.000</ele>
      </trkpt>
      <trkpt lat="50.581098000" lon="5.583152000">
        <ele>131.000</ele>
      </trkpt>
      <trkpt lat="50.581109000" lon="5.583167000">
        <ele>131.000</ele>
      </trkpt>
      <trkpt lat="50.581098000" lon="5.583239000">
        <ele>131.200</ele>
      </trkpt>
      <trkpt lat="50.581104000" lon="5.583341000">
        <ele>131.200</ele>
      </trkpt>
      <trkpt lat="50.581128000" lon="5.583360000">
        <ele>131.200</ele>
      </trkpt>
      <trkpt lat="50.581182000" lon="5.583431000">
        <ele>130.800</ele>
      </trkpt>
      <trkpt lat="50.581105000" lon="5.583498000">
        <ele>130.800</ele>
      </trkpt>
      <trkpt lat="50.581080000" lon="5.583562000">
        <ele>130.800</ele>
      </trkpt>
      <trkpt lat="50.581055000" lon="5.583912000">
        <ele>131.200</ele>
      </trkpt>
      <trkpt lat="50.581055000" lon="5.584392000">
        <ele>130.000</ele>
      </trkpt>
      <trkpt lat="50.581060000" lon="5.584426000">
        <ele>129.800</ele>
      </trkpt>
      <trkpt lat="50.581008000" lon="5.585248000">
        <ele>128.600</ele>
      </trkpt>
      <trkpt lat="50.580974000" lon="5.585544000">
        <ele>128.200</ele>
      </trkpt>
      <trkpt lat="50.580981000" lon="5.585809000">
        <ele>127.800</ele>
      </trkpt>
      <trkpt lat="50.581038000" lon="5.586268000">
        <ele>127.600</ele>
      </trkpt>
      <trkpt lat="50.581122000" lon="5.586628000">
        <ele>127.000</ele>
      </trkpt>
      <trkpt lat="50.581245000" lon="5.587034000">
        <ele>126.600</ele>
      </trkpt>
      <trkpt lat="50.581312000" lon="5.587313000">
        <ele>126.000</ele>
      </trkpt>
      <trkpt lat="50.581431000" lon="5.587921000">
        <ele>124.600</ele>
      </trkpt>
      <trkpt lat="50.581483000" lon="5.588154000">
        <ele>124.000</ele>
      </trkpt>
      <trkpt lat="50.581525000" lon="5.588482000">
        <ele>123.600</ele>
      </trkpt>
      <trkpt lat="50.581529000" lon="5.588666000">
        <ele>123.000</ele>
      </trkpt>
      <trkpt lat="50.581567000" lon="5.588776000">
        <ele>122.600</ele>
      </trkpt>
      <trkpt lat="50.581584000" lon="5.588896000">
        <ele>122.000</ele>
      </trkpt>
      <trkpt lat="50.581581000" lon="5.589101000">
        <ele>121.600</ele>
      </trkpt>
      <trkpt lat="50.581530000" lon="5.589307000">
        <ele>121.600</ele>
      </trkpt>
      <trkpt lat="50.581487000" lon="5.589385000">
        <ele>121.800</ele>
      </trkpt>
      <trkpt lat="50.581044000" lon="5.589734000">
        <ele>121.600</ele>
      </trkpt>
      <trkpt lat="50.581004000" lon="5.589785000">
        <ele>121.000</ele>
      </trkpt>
      <trkpt lat="50.580919000" lon="5.589852000">
        <ele>120.400</ele>
      </trkpt>
      <trkpt lat="50.580664000" lon="5.590108000">
        <ele>118.400</ele>
      </trkpt>
      <trkpt lat="50.580507000" lon="5.590240000">
        <ele>117.200</ele>
      </trkpt>
      <trkpt lat="50.580418000" lon="5.590352000">
        <ele>116.000</ele>
      </trkpt>
      <trkpt lat="50.580368000" lon="5.590432000">
        <ele>115.000</ele>
      </trkpt>
      <trkpt lat="50.580320000" lon="5.590531000">
        <ele>113.800</ele>
      </trkpt>
      <trkpt lat="50.580159000" lon="5.590972000">
        <ele>109.200</ele>
      </trkpt>
      <trkpt lat="50.580109000" lon="5.591320000">
        <ele>105.400</ele>
      </trkpt>
      <trkpt lat="50.580110000" lon="5.591437000">
        <ele>104.200</ele>
      </trkpt>
      <trkpt lat="50.580057000" lon="5.591659000">
        <ele>102.600</ele>
      </trkpt>
      <trkpt lat="50.579981000" lon="5.591933000">
        <ele>100.800</ele>
      </trkpt>
      <trkpt lat="50.579950000" lon="5.592095000">
        <ele>99.800</ele>
      </trkpt>
      <trkpt lat="50.579931000" lon="5.592252000">
        <ele>98.800</ele>
      </trkpt>
      <trkpt lat="50.579923000" lon="5.592579000">
        <ele>96.600</ele>
      </trkpt>
      <trkpt lat="50.579911000" lon="5.592651000">
        <ele>96.200</ele>
      </trkpt>
      <trkpt lat="50.579754000" lon="5.593053000">
        <ele>94.600</ele>
      </trkpt>
      <trkpt lat="50.579574000" lon="5.593742000">
        <ele>93.600</ele>
      </trkpt>
      <trkpt lat="50.579521000" lon="5.594043000">
        <ele>93.400</ele>
      </trkpt>
      <trkpt lat="50.579463000" lon="5.594243000">
        <ele>93.000</ele>
      </trkpt>
      <trkpt lat="50.579287000" lon="5.594700000">
        <ele>91.800</ele>
      </trkpt>
      <trkpt lat="50.579245000" lon="5.594852000">
        <ele>91.200</ele>
      </trkpt>
      <trkpt lat="50.579219000" lon="5.594999000">
        <ele>90.600</ele>
      </trkpt>
      <trkpt lat="50.579185000" lon="5.594989000">
        <ele>90.200</ele>
      </trkpt>
      <trkpt lat="50.579152000" lon="5.594948000">
        <ele>90.200</ele>
      </trkpt>
      <trkpt lat="50.579131000" lon="5.594895000">
        <ele>90.800</ele>
      </trkpt>
      <trkpt lat="50.579057000" lon="5.594826000">
        <ele>91.000</ele>
      </trkpt>
      <trkpt lat="50.578818000" lon="5.594717000">
        <ele>91.800</ele>
      </trkpt>
      <trkpt lat="50.578737000" lon="5.594665000">
        <ele>92.000</ele>
      </trkpt>
      <trkpt lat="50.578681000" lon="5.594585000">
        <ele>92.200</ele>
      </trkpt>
      <trkpt lat="50.578626000" lon="5.594378000">
        <ele>92.200</ele>
      </trkpt>
      <trkpt lat="50.578599000" lon="5.594161000">
        <ele>92.800</ele>
      </trkpt>
      <trkpt lat="50.578552000" lon="5.593956000">
        <ele>93.600</ele>
      </trkpt>
      <trkpt lat="50.578493000" lon="5.593909000">
        <ele>93.800</ele>
      </trkpt>
      <trkpt lat="50.578443000" lon="5.593806000">
        <ele>93.800</ele>
      </trkpt>
      <trkpt lat="50.578429000" lon="5.593726000">
        <ele>94.200</ele>
      </trkpt>
      <trkpt lat="50.578393000" lon="5.593692000">
        <ele>94.400</ele>
      </trkpt>
      <trkpt lat="50.578343000" lon="5.593554000">
        <ele>94.600</ele>
      </trkpt>
      <trkpt lat="50.578317000" lon="5.593428000">
        <ele>94.800</ele>
      </trkpt>
      <trkpt lat="50.578281000" lon="5.593340000">
        <ele>95.200</ele>
      </trkpt>
      <trkpt lat="50.578277000" lon="5.593279000">
        <ele>95.400</ele>
      </trkpt>
      <trkpt lat="50.578283000" lon="5.593272000">
        <ele>95.600</ele>
      </trkpt>
      <trkpt lat="50.578274000" lon="5.593226000">
        <ele>96.000</ele>
      </trkpt>
      <trkpt lat="50.578264000" lon="5.593231000">
        <ele>96.000</ele>
      </trkpt>
      <trkpt lat="50.578251000" lon="5.593218000">
        <ele>96.000</ele>
      </trkpt>
      <trkpt lat="50.578094000" lon="5.593166000">
        <ele>97.200</ele>
      </trkpt>
      <trkpt lat="50.578014000" lon="5.593156000">
        <ele>97.600</ele>
      </trkpt>
      <trkpt lat="50.577974000" lon="5.593168000">
        <ele>97.600</ele>
      </trkpt>
      <trkpt lat="50.577899000" lon="5.593237000">
        <ele>97.800</ele>
      </trkpt>
      <trkpt lat="50.577792000" lon="5.593168000">
        <ele>97.800</ele>
      </trkpt>
      <trkpt lat="50.577704000" lon="5.592976000">
        <ele>98.200</ele>
      </trkpt>
      <trkpt lat="50.577677000" lon="5.592877000">
        <ele>98.800</ele>
      </trkpt>
      <trkpt lat="50.577598000" lon="5.592670000">
        <ele>100.000</ele>
      </trkpt>
      <trkpt lat="50.577545000" lon="5.592414000">
        <ele>101.000</ele>
      </trkpt>
      <trkpt lat="50.577524000" lon="5.592161000">
        <ele>102.600</ele>
      </trkpt>
      <trkpt lat="50.577478000" lon="5.591938000">
        <ele>104.600</ele>
      </trkpt>
      <trkpt lat="50.577422000" lon="5.591767000">
        <ele>105.600</ele>
      </trkpt>
      <trkpt lat="50.577357000" lon="5.591633000">
        <ele>107.000</ele>
      </trkpt>
      <trkpt lat="50.577295000" lon="5.591532000">
        <ele>108.000</ele>
      </trkpt>
      <trkpt lat="50.577230000" lon="5.591398000">
        <ele>109.000</ele>
      </trkpt>
      <trkpt lat="50.577133000" lon="5.591140000">
        <ele>110.600</ele>
      </trkpt>
      <trkpt lat="50.576891000" lon="5.590900000">
        <ele>113.200</ele>
      </trkpt>
      <trkpt lat="50.576861000" lon="5.590784000">
        <ele>113.400</ele>
      </trkpt>
      <trkpt lat="50.576815000" lon="5.590754000">
        <ele>114.200</ele>
      </trkpt>
      <trkpt lat="50.576663000" lon="5.590734000">
        <ele>115.600</ele>
      </trkpt>
      <trkpt lat="50.576626000" lon="5.590670000">
        <ele>116.200</ele>
      </trkpt>
      <trkpt lat="50.576611000" lon="5.590545000">
        <ele>116.800</ele>
      </trkpt>
      <trkpt lat="50.576601000" lon="5.590515000">
        <ele>117.200</ele>
      </trkpt>
      <trkpt lat="50.576599000" lon="5.590449000">
        <ele>117.800</ele>
      </trkpt>
      <trkpt lat="50.576628000" lon="5.590341000">
        <ele>119.000</ele>
      </trkpt>
      <trkpt lat="50.576621000" lon="5.590206000">
        <ele>120.000</ele>
      </trkpt>
      <trkpt lat="50.576516000" lon="5.589881000">
        <ele>123.600</ele>
      </trkpt>
      <trkpt lat="50.576468000" lon="5.589797000">
        <ele>124.800</ele>
      </trkpt>
      <trkpt lat="50.576379000" lon="5.589561000">
        <ele>126.400</ele>
      </trkpt>
      <trkpt lat="50.576335000" lon="5.589354000">
        <ele>128.600</ele>
      </trkpt>
      <trkpt lat="50.576331000" lon="5.589155000">
        <ele>130.000</ele>
      </trkpt>
      <trkpt lat="50.576303000" lon="5.588942000">
        <ele>131.600</ele>
      </trkpt>
      <trkpt lat="50.576296000" lon="5.588737000">
        <ele>133.200</ele>
      </trkpt>
      <trkpt lat="50.576251000" lon="5.588240000">
        <ele>137.200</ele>
      </trkpt>
      <trkpt lat="50.576256000" lon="5.588125000">
        <ele>138.000</ele>
      </trkpt>
      <trkpt lat="50.576246000" lon="5.587414000">
        <ele>142.200</ele>
      </trkpt>
      <trkpt lat="50.576232000" lon="5.587294000">
        <ele>142.400</ele>
      </trkpt>
      <trkpt lat="50.576227000" lon="5.586911000">
        <ele>143.400</ele>
      </trkpt>
      <trkpt lat="50.576216000" lon="5.586731000">
        <ele>144.000</ele>
      </trkpt>
      <trkpt lat="50.576279000" lon="5.585851000">
        <ele>147.400</ele>
      </trkpt>
      <trkpt lat="50.576304000" lon="5.585608000">
        <ele>148.800</ele>
      </trkpt>
      <trkpt lat="50.576297000" lon="5.585551000">
        <ele>149.000</ele>
      </trkpt>
      <trkpt lat="50.576332000" lon="5.585354000">
        <ele>149.400</ele>
      </trkpt>
      <trkpt lat="50.576354000" lon="5.585077000">
        <ele>150.600</ele>
      </trkpt>
      <trkpt lat="50.576368000" lon="5.584774000">
        <ele>151.800</ele>
      </trkpt>
      <trkpt lat="50.576396000" lon="5.584538000">
        <ele>152.600</ele>
      </trkpt>
      <trkpt lat="50.576389000" lon="5.584469000">
        <ele>152.800</ele>
      </trkpt>
      <trkpt lat="50.576421000" lon="5.584264000">
        <ele>153.800</ele>
      </trkpt>
      <trkpt lat="50.576439000" lon="5.584021000">
        <ele>154.800</ele>
      </trkpt>
      <trkpt lat="50.576427000" lon="5.583809000">
        <ele>156.000</ele>
      </trkpt>
      <trkpt lat="50.576431000" lon="5.583584000">
        <ele>157.200</ele>
      </trkpt>
      <trkpt lat="50.576425000" lon="5.583457000">
        <ele>158.200</ele>
      </trkpt>
      <trkpt lat="50.576441000" lon="5.583304000">
        <ele>159.400</ele>
      </trkpt>
      <trkpt lat="50.576489000" lon="5.583061000">
        <ele>161.400</ele>
      </trkpt>
      <trkpt lat="50.576539000" lon="5.582881000">
        <ele>162.400</ele>
      </trkpt>
      <trkpt lat="50.576555000" lon="5.582756000">
        <ele>163.600</ele>
      </trkpt>
      <trkpt lat="50.576549000" lon="5.582603000">
        <ele>164.800</ele>
      </trkpt>
      <trkpt lat="50.576565000" lon="5.582449000">
        <ele>165.800</ele>
      </trkpt>
      <trkpt lat="50.576603000" lon="5.582284000">
        <ele>167.000</ele>
      </trkpt>
      <trkpt lat="50.576658000" lon="5.581943000">
        <ele>169.200</ele>
      </trkpt>
      <trkpt lat="50.576682000" lon="5.581832000">
        <ele>169.600</ele>
      </trkpt>
      <trkpt lat="50.576729000" lon="5.581421000">
        <ele>171.200</ele>
      </trkpt>
      <trkpt lat="50.576713000" lon="5.580867000">
        <ele>173.200</ele>
      </trkpt>
      <trkpt lat="50.576727000" lon="5.580794000">
        <ele>173.000</ele>
      </trkpt>
      <trkpt lat="50.576761000" lon="5.580163000">
        <ele>173.600</ele>
      </trkpt>
      <trkpt lat="50.576794000" lon="5.579991000">
        <ele>173.800</ele>
      </trkpt>
      <trkpt lat="50.576859000" lon="5.579738000">
        <ele>174.000</ele>
      </trkpt>
      <trkpt lat="50.576881000" lon="5.579497000">
        <ele>173.800</ele>
      </trkpt>
      <trkpt lat="50.576892000" lon="5.579269000">
        <ele>174.200</ele>
      </trkpt>
      <trkpt lat="50.576941000" lon="5.579102000">
        <ele>174.200</ele>
      </trkpt>
      <trkpt lat="50.576993000" lon="5.578886000">
        <ele>174.600</ele>
      </trkpt>
      <trkpt lat="50.577056000" lon="5.578403000">
        <ele>175.800</ele>
      </trkpt>
      <trkpt lat="50.577098000" lon="5.578153000">
        <ele>176.000</ele>
      </trkpt>
      <trkpt lat="50.577141000" lon="5.577963000">
        <ele>176.600</ele>
      </trkpt>
      <trkpt lat="50.577138000" lon="5.577765000">
        <ele>177.200</ele>
      </trkpt>
      <trkpt lat="50.577111000" lon="5.577613000">
        <ele>177.600</ele>
      </trkpt>
      <trkpt lat="50.577088000" lon="5.577538000">
        <ele>178.000</ele>
      </trkpt>
      <trkpt lat="50.577095000" lon="5.577547000">
        <ele>178.000</ele>
      </trkpt>
      <trkpt lat="50.577141000" lon="5.577467000">
        <ele>178.000</ele>
      </trkpt>
      <trkpt lat="50.577192000" lon="5.577257000">
        <ele>178.600</ele>
      </trkpt>
      <trkpt lat="50.577202000" lon="5.577169000">
        <ele>179.000</ele>
      </trkpt>
      <trkpt lat="50.577303000" lon="5.576736000">
        <ele>180.600</ele>
      </trkpt>
      <trkpt lat="50.577329000" lon="5.576538000">
        <ele>182.400</ele>
      </trkpt>
      <trkpt lat="50.577354000" lon="5.576415000">
        <ele>183.400</ele>
      </trkpt>
      <trkpt lat="50.577428000" lon="5.576344000">
        <ele>183.800</ele>
      </trkpt>
      <trkpt lat="50.577439000" lon="5.576346000">
        <ele>183.600</ele>
      </trkpt>
      <trkpt lat="50.577416000" lon="5.576248000">
        <ele>184.000</ele>
      </trkpt>
      <trkpt lat="50.577434000" lon="5.576150000">
        <ele>184.400</ele>
      </trkpt>
      <trkpt lat="50.577355000" lon="5.576002000">
        <ele>184.400</ele>
      </trkpt>
      <trkpt lat="50.577260000" lon="5.575653000">
        <ele>185.600</ele>
      </trkpt>
      <trkpt lat="50.577256000" lon="5.575576000">
        <ele>185.800</ele>
      </trkpt>
      <trkpt lat="50.577376000" lon="5.575483000">
        <ele>185.800</ele>
      </trkpt>
      <trkpt lat="50.577387000" lon="5.575489000">
        <ele>185.600</ele>
      </trkpt>
      <trkpt lat="50.577567000" lon="5.575341000">
        <ele>186.000</ele>
      </trkpt>
      <trkpt lat="50.577646000" lon="5.575247000">
        <ele>186.400</ele>
      </trkpt>
      <trkpt lat="50.577685000" lon="5.575181000">
        <ele>186.400</ele>
      </trkpt>
      <trkpt lat="50.577798000" lon="5.575079000">
        <ele>186.600</ele>
      </trkpt>
      <trkpt lat="50.577858000" lon="5.575050000">
        <ele>186.400</ele>
      </trkpt>
      <trkpt lat="50.577907000" lon="5.574906000">
        <ele>186.000</ele>
      </trkpt>
      <trkpt lat="50.577906000" lon="5.574919000">
        <ele>185.800</ele>
      </trkpt>
      <trkpt lat="50.577971000" lon="5.574785000">
        <ele>185.800</ele>
      </trkpt>
      <trkpt lat="50.578145000" lon="5.574577000">
        <ele>185.400</ele>
      </trkpt>
      <trkpt lat="50.578344000" lon="5.574371000">
        <ele>185.200</ele>
      </trkpt>
      <trkpt lat="50.578389000" lon="5.574311000">
        <ele>185.000</ele>
      </trkpt>
      <trkpt lat="50.578663000" lon="5.574035000">
        <ele>185.600</ele>
      </trkpt>
      <trkpt lat="50.578751000" lon="5.573932000">
        <ele>185.800</ele>
      </trkpt>
      <trkpt lat="50.578905000" lon="5.573802000">
        <ele>185.600</ele>
      </trkpt>
      <trkpt lat="50.579030000" lon="5.573682000">
        <ele>185.000</ele>
      </trkpt>
      <trkpt lat="50.579122000" lon="5.573535000">
        <ele>184.800</ele>
      </trkpt>
      <trkpt lat="50.579168000" lon="5.573417000">
        <ele>184.400</ele>
      </trkpt>
      <trkpt lat="50.579190000" lon="5.572947000">
        <ele>183.400</ele>
      </trkpt>
      <trkpt lat="50.579225000" lon="5.572583000">
        <ele>182.400</ele>
      </trkpt>
      <trkpt lat="50.579229000" lon="5.572433000">
        <ele>182.200</ele>
      </trkpt>
      <trkpt lat="50.579216000" lon="5.572069000">
        <ele>181.600</ele>
      </trkpt>
      <trkpt lat="50.579198000" lon="5.571994000">
        <ele>181.400</ele>
      </trkpt>
      <trkpt lat="50.579181000" lon="5.571871000">
        <ele>181.200</ele>
      </trkpt>
      <trkpt lat="50.579137000" lon="5.571754000">
        <ele>181.000</ele>
      </trkpt>
      <trkpt lat="50.579000000" lon="5.571252000">
        <ele>181.000</ele>
      </trkpt>
      <trkpt lat="50.578954000" lon="5.570996000">
        <ele>180.800</ele>
      </trkpt>
      <trkpt lat="50.578881000" lon="5.570427000">
        <ele>180.600</ele>
      </trkpt>
      <trkpt lat="50.578844000" lon="5.570238000">
        <ele>180.400</ele>
      </trkpt>
      <trkpt lat="50.578827000" lon="5.570085000">
        <ele>180.600</ele>
      </trkpt>
      <trkpt lat="50.578795000" lon="5.569989000">
        <ele>180.400</ele>
      </trkpt>
      <trkpt lat="50.578778000" lon="5.569800000">
        <ele>180.200</ele>
      </trkpt>
      <trkpt lat="50.578721000" lon="5.569455000">
        <ele>179.600</ele>
      </trkpt>
      <trkpt lat="50.578682000" lon="5.569377000">
        <ele>179.600</ele>
      </trkpt>
      <trkpt lat="50.578592000" lon="5.569308000">
        <ele>181.400</ele>
      </trkpt>
      <trkpt lat="50.578511000" lon="5.569262000">
        <ele>182.600</ele>
      </trkpt>
      <trkpt lat="50.578433000" lon="5.569197000">
        <ele>183.000</ele>
      </trkpt>
      <trkpt lat="50.578398000" lon="5.569151000">
        <ele>183.400</ele>
      </trkpt>
      <trkpt lat="50.578372000" lon="5.569029000">
        <ele>184.000</ele>
      </trkpt>
      <trkpt lat="50.578357000" lon="5.568916000">
        <ele>184.200</ele>
      </trkpt>
      <trkpt lat="50.578388000" lon="5.568908000">
        <ele>184.200</ele>
      </trkpt>
      <trkpt lat="50.578383000" lon="5.568780000">
        <ele>182.600</ele>
      </trkpt>
      <trkpt lat="50.578362000" lon="5.568647000">
        <ele>182.200</ele>
      </trkpt>
      <trkpt lat="50.578213000" lon="5.567952000">
        <ele>181.600</ele>
      </trkpt>
      <trkpt lat="50.578211000" lon="5.567896000">
        <ele>181.600</ele>
      </trkpt>
      <trkpt lat="50.578184000" lon="5.567848000">
        <ele>181.800</ele>
      </trkpt>
      <trkpt lat="50.578141000" lon="5.567828000">
        <ele>182.000</ele>
      </trkpt>
      <trkpt lat="50.578189000" lon="5.567879000">
        <ele>182.200</ele>
      </trkpt>
      <trkpt lat="50.578243000" lon="5.567825000">
        <ele>183.800</ele>
      </trkpt>
      <trkpt lat="50.578223000" lon="5.567795000">
        <ele>184.600</ele>
      </trkpt>
      <trkpt lat="50.578183000" lon="5.567766000">
        <ele>185.200</ele>
      </trkpt>
      <trkpt lat="50.578144000" lon="5.567814000">
        <ele>185.200</ele>
      </trkpt>
      <trkpt lat="50.578054000" lon="5.567882000">
        <ele>185.400</ele>
      </trkpt>
      <trkpt lat="50.577994000" lon="5.567895000">
        <ele>185.800</ele>
      </trkpt>
      <trkpt lat="50.577975000" lon="5.567884000">
        <ele>185.200</ele>
      </trkpt>
      <trkpt lat="50.577977000" lon="5.567848000">
        <ele>185.200</ele>
      </trkpt>
      <trkpt lat="50.577853000" lon="5.567772000">
        <ele>186.000</ele>
      </trkpt>
      <trkpt lat="50.577786000" lon="5.567771000">
        <ele>185.600</ele>
      </trkpt>
      <trkpt lat="50.577783000" lon="5.567758000">
        <ele>185.400</ele>
      </trkpt>
      <trkpt lat="50.577696000" lon="5.567811000">
        <ele>185.800</ele>
      </trkpt>
      <trkpt lat="50.577667000" lon="5.567857000">
        <ele>185.800</ele>
      </trkpt>
      <trkpt lat="50.577695000" lon="5.567873000">
        <ele>185.800</ele>
      </trkpt>
      <trkpt lat="50.577766000" lon="5.567847000">
        <ele>186.000</ele>
      </trkpt>
      <trkpt lat="50.577725000" lon="5.567907000">
        <ele>186.200</ele>
      </trkpt>
      <trkpt lat="50.577843000" lon="5.567853000">
        <ele>186.200</ele>
      </trkpt>
      <trkpt lat="50.577878000" lon="5.567823000">
        <ele>185.600</ele>
      </trkpt>
      <trkpt lat="50.577830000" lon="5.567815000">
        <ele>186.000</ele>
      </trkpt>
      <trkpt lat="50.577798000" lon="5.567862000">
        <ele>186.400</ele>
      </trkpt>
      <trkpt lat="50.577761000" lon="5.567889000">
        <ele>186.400</ele>
      </trkpt>
      <trkpt lat="50.577742000" lon="5.567886000">
        <ele>186.800</ele>
      </trkpt>
      <trkpt lat="50.577718000" lon="5.567862000">
        <ele>187.600</ele>
      </trkpt>
      <trkpt lat="50.577696000" lon="5.567795000">
        <ele>189.000</ele>
      </trkpt>
      <trkpt lat="50.577692000" lon="5.567754000">
        <ele>189.400</ele>
      </trkpt>
      <trkpt lat="50.577717000" lon="5.567739000">
        <ele>189.200</ele>
      </trkpt>
      <trkpt lat="50.577722000" lon="5.567747000">
        <ele>190.200</ele>
      </trkpt>
      <trkpt lat="50.577712000" lon="5.567738000">
        <ele>190.000</ele>
      </trkpt>
      <trkpt lat="50.577727000" lon="5.567762000">
        <ele>190.800</ele>
      </trkpt>
      <trkpt lat="50.577700000" lon="5.567770000">
        <ele>190.200</ele>
      </trkpt>
      <trkpt lat="50.577688000" lon="5.567785000">
        <ele>191.200</ele>
      </trkpt>
      <trkpt lat="50.577683000" lon="5.567760000">
        <ele>192.000</ele>
      </trkpt>
      <trkpt lat="50.577696000" lon="5.567730000">
        <ele>191.400</ele>
      </trkpt>
      <trkpt lat="50.577674000" lon="5.567645000">
        <ele>192.000</ele>
      </trkpt>
      <trkpt lat="50.577717000" lon="5.567638000">
        <ele>192.000</ele>
      </trkpt>
      <trkpt lat="50.577740000" lon="5.567672000">
        <ele>191.600</ele>
      </trkpt>
      <trkpt lat="50.577740000" lon="5.567653000">
        <ele>191.400</ele>
      </trkpt>
      <trkpt lat="50.577707000" lon="5.567646000">
        <ele>191.400</ele>
      </trkpt>
      <trkpt lat="50.577664000" lon="5.567813000">
        <ele>192.400</ele>
      </trkpt>
      <trkpt lat="50.577683000" lon="5.568033000">
        <ele>192.600</ele>
      </trkpt>
      <trkpt lat="50.577695000" lon="5.568065000">
        <ele>192.600</ele>
      </trkpt>
      <trkpt lat="50.577696000" lon="5.568220000">
        <ele>193.200</ele>
      </trkpt>
      <trkpt lat="50.577761000" lon="5.568547000">
        <ele>192.800</ele>
      </trkpt>
      <trkpt lat="50.577759000" lon="5.568578000">
        <ele>192.800</ele>
      </trkpt>
      <trkpt lat="50.577804000" lon="5.568677000">
        <ele>193.400</ele>
      </trkpt>
      <trkpt lat="50.577859000" lon="5.568732000">
        <ele>192.000</ele>
      </trkpt>
      <trkpt lat="50.577859000" lon="5.568742000">
        <ele>191.800</ele>
      </trkpt>
      <trkpt lat="50.577854000" lon="5.568739000">
        <ele>192.000</ele>
      </trkpt>
      <trkpt lat="50.577915000" lon="5.568712000">
        <ele>190.600</ele>
      </trkpt>
      <trkpt lat="50.577918000" lon="5.568688000">
        <ele>190.400</ele>
      </trkpt>
      <trkpt lat="50.577872000" lon="5.568538000">
        <ele>189.800</ele>
      </trkpt>
      <trkpt lat="50.577848000" lon="5.568416000">
        <ele>189.000</ele>
      </trkpt>
      <trkpt lat="50.577811000" lon="5.568420000">
        <ele>188.800</ele>
      </trkpt>
      <trkpt lat="50.577820000" lon="5.568336000">
        <ele>189.000</ele>
      </trkpt>
      <trkpt lat="50.577805000" lon="5.568288000">
        <ele>188.800</ele>
      </trkpt>
      <trkpt lat="50.577771000" lon="5.567992000">
        <ele>187.600</ele>
      </trkpt>
      <trkpt lat="50.577798000" lon="5.567890000">
        <ele>187.400</ele>
      </trkpt>
      <trkpt lat="50.577860000" lon="5.567820000">
        <ele>187.000</ele>
      </trkpt>
      <trkpt lat="50.577922000" lon="5.567725000">
        <ele>186.400</ele>
      </trkpt>
      <trkpt lat="50.577901000" lon="5.567703000">
        <ele>186.800</ele>
      </trkpt>
      <trkpt lat="50.577875000" lon="5.567700000">
        <ele>186.800</ele>
      </trkpt>
      <trkpt lat="50.577881000" lon="5.567698000">
        <ele>186.800</ele>
      </trkpt>
      <trkpt lat="50.577857000" lon="5.567721000">
        <ele>186.800</ele>
      </trkpt>
      <trkpt lat="50.577811000" lon="5.567692000">
        <ele>187.400</ele>
      </trkpt>
      <trkpt lat="50.577832000" lon="5.567702000">
        <ele>187.800</ele>
      </trkpt>
    </trkseg>
  </trk>
</gpx>
