<?xml version="1.0" encoding="UTF-8" standalone="no" ?>
<gpx version="1.1" xmlns:xsi="http://www.w3.org/2001/XMLSchema-instance" creator="QMapShack 1.17.1 http://www.qlandkarte.org/" xsi:schemaLocation="http://www.topografix.com/GPX/1/1 http://www.topografix.com/GPX/1/1/gpx.xsd " xmlns="http://www.topografix.com/GPX/1/1">
 <metadata>
  <name>ttt</name>
  <time>2026-09-22T07:50:37.820Z</time>
 </metadata>
 <trk>
  <name>ttt</name>
  <type>trail_running</type>
  <trkseg>
   <trkpt lat="50.57891300" lon="5.57073900">
    <ele>223</ele>
   </trkpt>
   <trkpt lat="50.57892200" lon="5.57076800">
    <ele>223</ele>
   </trkpt>
   <trkpt lat="50.57892300" lon="5.57080600">
    <ele>223</ele>
   </trkpt>
   <trkpt lat="50.57893300" lon="5.57083800">
    <ele>223</ele>
   </trkpt>
   <trkpt lat="50.57894800" lon="5.57088600">
    <ele>223</ele>
   </trkpt>
   <trkpt lat="50.57897500" lon="5.57096000">
    <ele>223</ele>
   </trkpt>
   <trkpt lat="50.57898200" lon="5.57096700">
    <ele>223</ele>
   </trkpt>
   <trkpt lat="50.57899400" lon="5.57095000">
    <ele>223</ele>
   </trkpt>
   <trkpt lat="50.57901700" lon="5.57090900">
    <ele>223</ele>
   </trkpt>
   <trkpt lat="50.57902600" lon="5.57088900">
    <ele>223</ele>
   </trkpt>
   <trkpt lat="50.57904500" lon="5.57091800">
    <ele>223</ele>
   </trkpt>
   <trkpt lat="50.57905500" lon="5.57095500">
    <ele>223</ele>
   </trkpt>
   <trkpt lat="50.57905800" lon="5.57100300">
    <ele>223</ele>
   </trkpt>
   <trkpt lat="50.57905000" lon="5.57103900">
    <ele>223</ele>
   </trkpt>
   <trkpt lat="50.57902600" lon="5.57106700">
    <ele>223</ele>
   </trkpt>
   <trkpt lat="50.57898500" lon="5.57108200">
    <ele>223</ele>
   </trkpt>
   <trkpt lat="50.57896100" lon="5.57109100">
    <ele>223</ele>
   </trkpt>
   <trkpt lat="50.57893600" lon="5.57111100">
    <ele>223</ele>
   </trkpt>
   <trkpt lat="50.57893400" lon="5.57111600">
    <ele>223</ele>
   </trkpt>
   <trkpt lat="50.57893100" lon="5.57114300">
    <ele>223</ele>
   </trkpt>
   <trkpt lat="50.57892700" lon="5.57116200">
    <ele>223</ele>
   </trkpt>
   <trkpt lat="50.57890600" lon="5.57117900">
    <ele>223</ele>
   </trkpt>
   <trkpt lat="50.57890400" lon="5.57117900">
    <ele>223</ele>
   </trkpt>
   <trkpt lat="50.57889700" lon="5.57120600">
    <ele>223</ele>
   </trkpt>
   <trkpt lat="50.57889100" lon="5.57120600">
    <ele>223</ele>
   </trkpt>
   <trkpt lat="50.57888900" lon="5.57120900">
    <ele>223</ele>
   </trkpt>
   <trkpt lat="50.57886600" lon="5.57117200">
    <ele>223</ele>
   </trkpt>
   <trkpt lat="50.57886900" lon="5.57117100">
    <ele>223</ele>
   </trkpt>
   <trkpt lat="50.57887600" lon="5.57119700">
    <ele>223</ele>
   </trkpt>
   <trkpt lat="50.57887500" lon="5.57122300">
    <ele>223</ele>
   </trkpt>
   <trkpt lat="50.57888600" lon="5.57121700">
    <ele>223</ele>
   </trkpt>
   <trkpt lat="50.57888900" lon="5.57122700">
    <ele>223</ele>
   </trkpt>
   <trkpt lat="50.57893300" lon="5.57131700">
    <ele>223</ele>
   </trkpt>
   <trkpt lat="50.57894800" lon="5.57132900">
    <ele>223</ele>
   </trkpt>
   <trkpt lat="50.57894800" lon="5.57133600">
    <ele>223</ele>
   </trkpt>
   <trkpt lat="50.57893800" lon="5.57134100">
    <ele>223</ele>
   </trkpt>
   <trkpt lat="50.57895100" lon="5.57136100">
    <ele>223</ele>
   </trkpt>
   <trkpt lat="50.57898300" lon="5.57140700">
    <ele>223</ele>
   </trkpt>
   <trkpt lat="50.57898200" lon="5.57140700">
    <ele>223</ele>
   </trkpt>
   <trkpt lat="50.57894000" lon="5.57142700">
    <ele>223</ele>
   </trkpt>
   <trkpt lat="50.57888600" lon="5.57140400">
    <ele>223</ele>
   </trkpt>
   <trkpt lat="50.57886000" lon="5.57137900">
    <ele>223</ele>
   </trkpt>
   <trkpt lat="50.57883900" lon="5.57137100">
    <ele>224</ele>
   </trkpt>
   <trkpt lat="50.57879700" lon="5.57136300">
    <ele>224</ele>
   </trkpt>
   <trkpt lat="50.57879800" lon="5.57137400">
    <ele>224</ele>
   </trkpt>
   <trkpt lat="50.57873400" lon="5.57138200">
    <ele>224</ele>
   </trkpt>
   <trkpt lat="50.57872200" lon="5.57139000">
    <ele>224</ele>
   </trkpt>
   <trkpt lat="50.57872200" lon="5.57141300">
    <ele>224</ele>
   </trkpt>
   <trkpt lat="50.57872400" lon="5.57140400">
    <ele>224</ele>
   </trkpt>
   <trkpt lat="50.57871800" lon="5.57148100">
    <ele>224</ele>
   </trkpt>
   <trkpt lat="50.57870800" lon="5.57153000">
    <ele>224</ele>
   </trkpt>
   <trkpt lat="50.57870100" lon="5.57155900">
    <ele>225</ele>
   </trkpt>
   <trkpt lat="50.57869700" lon="5.57157500">
    <ele>225</ele>
   </trkpt>
   <trkpt lat="50.57869200" lon="5.57161000">
    <ele>225</ele>
   </trkpt>
   <trkpt lat="50.57869300" lon="5.57161000">
    <ele>225</ele>
   </trkpt>
   <trkpt lat="50.57869200" lon="5.57158700">
    <ele>225</ele>
   </trkpt>
   <trkpt lat="50.57867900" lon="5.57155700">
    <ele>225</ele>
   </trkpt>
   <trkpt lat="50.57867100" lon="5.57154500">
    <ele>225</ele>
   </trkpt>
   <trkpt lat="50.57864700" lon="5.57155000">
    <ele>225</ele>
   </trkpt>
   <trkpt lat="50.57863800" lon="5.57154900">
    <ele>225</ele>
   </trkpt>
   <trkpt lat="50.57862800" lon="5.57155200">
    <ele>225</ele>
   </trkpt>
   <trkpt lat="50.57859800" lon="5.57158000">
    <ele>225</ele>
   </trkpt>
   <trkpt lat="50.57859500" lon="5.57159700">
    <ele>226</ele>
   </trkpt>
   <trkpt lat="50.57860500" lon="5.57165500">
    <ele>226</ele>
   </trkpt>
   <trkpt lat="50.57859900" lon="5.57167900">
    <ele>226</ele>
   </trkpt>
   <trkpt lat="50.57857600" lon="5.57172400">
    <ele>226</ele>
   </trkpt>
   <trkpt lat="50.57857200" lon="5.57184200">
    <ele>226</ele>
   </trkpt>
   <trkpt lat="50.57857400" lon="5.57185300">
    <ele>227</ele>
   </trkpt>
   <trkpt lat="50.57857600" lon="5.57186600">
    <ele>227</ele>
   </trkpt>
   <trkpt lat="50.57857100" lon="5.57187300">
    <ele>227</ele>
   </trkpt>
   <trkpt lat="50.57857700" lon="5.57188200">
    <ele>227</ele>
   </trkpt>
   <trkpt lat="50.57855100" lon="5.57189500">
    <ele>227</ele>
   </trkpt>
   <trkpt lat="50.57848600" lon="5.57187300">
    <ele>227</ele>
   </trkpt>
   <trkpt lat="50.57846300" lon="5.57187600">
    <ele>227</ele>
   </trkpt>
   <trkpt lat="50.57845800" lon="5.57188400">
    <ele>227</ele>
   </trkpt>
   <trkpt lat="50.57839400" lon="5.57190800">
    <ele>228</ele>
   </trkpt>
   <trkpt lat="50.57834200" lon="5.57185000">
    <ele>228</ele>
   </trkpt>
   <trkpt lat="50.57833700" lon="5.57184300">
    <ele>228</ele>
   </trkpt>
   <trkpt lat="50.57832500" lon="5.57189300">
    <ele>228</ele>
   </trkpt>
   <trkpt lat="50.57834300" lon="5.57196300">
    <ele>228</ele>
   </trkpt>
   <trkpt lat="50.57835800" lon="5.57200800">
    <ele>228</ele>
   </trkpt>
   <trkpt lat="50.57835800" lon="5.57204100">
    <ele>228</ele>
   </trkpt>
   <trkpt lat="50.57834800" lon="5.57206000">
    <ele>228</ele>
   </trkpt>
   <trkpt lat="50.57834800" lon="5.57205400">
    <ele>228</ele>
   </trkpt>
   <trkpt lat="50.57833500" lon="5.57202300">
    <ele>229</ele>
   </trkpt>
   <trkpt lat="50.57833400" lon="5.57202400">
    <ele>229</ele>
   </trkpt>
   <trkpt lat="50.57833300" lon="5.57197600">
    <ele>229</ele>
   </trkpt>
   <trkpt lat="50.57835900" lon="5.57190400">
    <ele>229</ele>
   </trkpt>
   <trkpt lat="50.57842100" lon="5.57184300">
    <ele>229</ele>
   </trkpt>
   <trkpt lat="50.57851400" lon="5.57173800">
    <ele>230</ele>
   </trkpt>
   <trkpt lat="50.57852400" lon="5.57173400">
    <ele>230</ele>
   </trkpt>
   <trkpt lat="50.57852600" lon="5.57174700">
    <ele>230</ele>
   </trkpt>
   <trkpt lat="50.57852800" lon="5.57174300">
    <ele>230</ele>
   </trkpt>
   <trkpt lat="50.57849800" lon="5.57177700">
    <ele>230</ele>
   </trkpt>
   <trkpt lat="50.57841200" lon="5.57187100">
    <ele>230</ele>
   </trkpt>
   <trkpt lat="50.57836000" lon="5.57191500">
    <ele>230</ele>
   </trkpt>
   <trkpt lat="50.57830800" lon="5.57199800">
    <ele>231</ele>
   </trkpt>
   <trkpt lat="50.57829100" lon="5.57203700">
    <ele>231</ele>
   </trkpt>
   <trkpt lat="50.57824400" lon="5.57211400">
    <ele>231</ele>
   </trkpt>
   <trkpt lat="50.57824500" lon="5.57215300">
    <ele>231</ele>
   </trkpt>
   <trkpt lat="50.57825200" lon="5.57217700">
    <ele>231</ele>
   </trkpt>
   <trkpt lat="50.57825700" lon="5.57224500">
    <ele>231</ele>
   </trkpt>
   <trkpt lat="50.57824900" lon="5.57228600">
    <ele>232</ele>
   </trkpt>
   <trkpt lat="50.57823000" lon="5.57238700">
    <ele>232</ele>
   </trkpt>
   <trkpt lat="50.57822200" lon="5.57240700">
    <ele>232</ele>
   </trkpt>
   <trkpt lat="50.57821200" lon="5.57245000">
    <ele>233</ele>
   </trkpt>
   <trkpt lat="50.57821500" lon="5.57246800">
    <ele>233</ele>
   </trkpt>
   <trkpt lat="50.57817200" lon="5.57250500">
    <ele>234</ele>
   </trkpt>
   <trkpt lat="50.57813500" lon="5.57248300">
    <ele>234</ele>
   </trkpt>
   <trkpt lat="50.57814500" lon="5.57248100">
    <ele>234</ele>
   </trkpt>
   <trkpt lat="50.57818600" lon="5.57250500">
    <ele>234</ele>
   </trkpt>
   <trkpt lat="50.57823300" lon="5.57256900">
    <ele>234</ele>
   </trkpt>
   <trkpt lat="50.57824300" lon="5.57259400">
    <ele>234</ele>
   </trkpt>
   <trkpt lat="50.57826800" lon="5.57264200">
    <ele>234</ele>
   </trkpt>
   <trkpt lat="50.57831000" lon="5.57261200">
    <ele>234</ele>
   </trkpt>
   <trkpt lat="50.57835900" lon="5.57252300">
    <ele>234</ele>
   </trkpt>
   <trkpt lat="50.57834800" lon="5.57249100">
    <ele>234</ele>
   </trkpt>
   <trkpt lat="50.57826300" lon="5.57254300">
    <ele>234</ele>
   </trkpt>
   <trkpt lat="50.57822600" lon="5.57255100">
    <ele>234</ele>
   </trkpt>
   <trkpt lat="50.57817200" lon="5.57253200">
    <ele>234</ele>
   </trkpt>
   <trkpt lat="50.57815700" lon="5.57253400">
    <ele>234</ele>
   </trkpt>
   <trkpt lat="50.57813800" lon="5.57255100">
    <ele>234</ele>
   </trkpt>
   <trkpt lat="50.57812600" lon="5.57255800">
    <ele>234</ele>
   </trkpt>
   <trkpt lat="50.57810400" lon="5.57259000">
    <ele>234</ele>
   </trkpt>
   <trkpt lat="50.57809600" lon="5.57262400">
    <ele>234</ele>
   </trkpt>
   <trkpt lat="50.57812500" lon="5.57267500">
    <ele>234</ele>
   </trkpt>
   <trkpt lat="50.57813900" lon="5.57269200">
    <ele>234</ele>
   </trkpt>
   <trkpt lat="50.57821000" lon="5.57279200">
    <ele>234</ele>
   </trkpt>
   <trkpt lat="50.57825200" lon="5.57282900">
    <ele>234</ele>
   </trkpt>
   <trkpt lat="50.57824000" lon="5.57281000">
    <ele>234</ele>
   </trkpt>
   <trkpt lat="50.57823100" lon="5.57279500">
    <ele>234</ele>
   </trkpt>
   <trkpt lat="50.57813400" lon="5.57274200">
    <ele>233</ele>
   </trkpt>
   <trkpt lat="50.57806100" lon="5.57267000">
    <ele>234</ele>
   </trkpt>
   <trkpt lat="50.57805800" lon="5.57264700">
    <ele>234</ele>
   </trkpt>
   <trkpt lat="50.57807300" lon="5.57261100">
    <ele>234</ele>
   </trkpt>
   <trkpt lat="50.57809500" lon="5.57259600">
    <ele>234</ele>
   </trkpt>
   <trkpt lat="50.57810200" lon="5.57258800">
    <ele>234</ele>
   </trkpt>
   <trkpt lat="50.57812800" lon="5.57252700">
    <ele>234</ele>
   </trkpt>
   <trkpt lat="50.57813400" lon="5.57248400">
    <ele>233</ele>
   </trkpt>
   <trkpt lat="50.57814900" lon="5.57244800">
    <ele>233</ele>
   </trkpt>
   <trkpt lat="50.57815400" lon="5.57243600">
    <ele>233</ele>
   </trkpt>
   <trkpt lat="50.57816600" lon="5.57240300">
    <ele>232</ele>
   </trkpt>
   <trkpt lat="50.57817900" lon="5.57235300">
    <ele>232</ele>
   </trkpt>
   <trkpt lat="50.57818500" lon="5.57231700">
    <ele>232</ele>
   </trkpt>
   <trkpt lat="50.57819000" lon="5.57228700">
    <ele>232</ele>
   </trkpt>
   <trkpt lat="50.57819400" lon="5.57222600">
    <ele>231</ele>
   </trkpt>
   <trkpt lat="50.57819400" lon="5.57217400">
    <ele>231</ele>
   </trkpt>
   <trkpt lat="50.57812400" lon="5.57205500">
    <ele>232</ele>
   </trkpt>
   <trkpt lat="50.57806400" lon="5.57205400">
    <ele>232</ele>
   </trkpt>
   <trkpt lat="50.57805100" lon="5.57205100">
    <ele>232</ele>
   </trkpt>
   <trkpt lat="50.57804100" lon="5.57203900">
    <ele>232</ele>
   </trkpt>
   <trkpt lat="50.57800900" lon="5.57201400">
    <ele>233</ele>
   </trkpt>
   <trkpt lat="50.57798300" lon="5.57201300">
    <ele>233</ele>
   </trkpt>
   <trkpt lat="50.57786100" lon="5.57201700">
    <ele>234</ele>
   </trkpt>
   <trkpt lat="50.57783900" lon="5.57200900">
    <ele>234</ele>
   </trkpt>
   <trkpt lat="50.57773700" lon="5.57202800">
    <ele>235</ele>
   </trkpt>
   <trkpt lat="50.57770900" lon="5.57204000">
    <ele>235</ele>
   </trkpt>
   <trkpt lat="50.57770300" lon="5.57203500">
    <ele>235</ele>
   </trkpt>
   <trkpt lat="50.57770000" lon="5.57203500">
    <ele>235</ele>
   </trkpt>
   <trkpt lat="50.57770200" lon="5.57205300">
    <ele>235</ele>
   </trkpt>
   <trkpt lat="50.57770400" lon="5.57209400">
    <ele>236</ele>
   </trkpt>
   <trkpt lat="50.57770500" lon="5.57210800">
    <ele>236</ele>
   </trkpt>
   <trkpt lat="50.57770500" lon="5.57210600">
    <ele>236</ele>
   </trkpt>
   <trkpt lat="50.57770500" lon="5.57210600">
    <ele>236</ele>
   </trkpt>
   <trkpt lat="50.57770400" lon="5.57210200">
    <ele>236</ele>
   </trkpt>
   <trkpt lat="50.57770500" lon="5.57200500">
    <ele>236</ele>
   </trkpt>
   <trkpt lat="50.57771900" lon="5.57197800">
    <ele>236</ele>
   </trkpt>
   <trkpt lat="50.57771400" lon="5.57195900">
    <ele>236</ele>
   </trkpt>
   <trkpt lat="50.57771600" lon="5.57195900">
    <ele>236</ele>
   </trkpt>
   <trkpt lat="50.57771800" lon="5.57195900">
    <ele>236</ele>
   </trkpt>
   <trkpt lat="50.57771800" lon="5.57195800">
    <ele>236</ele>
   </trkpt>
   <trkpt lat="50.57771900" lon="5.57195800">
    <ele>236</ele>
   </trkpt>
   <trkpt lat="50.57771900" lon="5.57195800">
    <ele>236</ele>
   </trkpt>
   <trkpt lat="50.57772700" lon="5.57196900">
    <ele>236</ele>
   </trkpt>
   <trkpt lat="50.57772700" lon="5.57197300">
    <ele>236</ele>
   </trkpt>
   <trkpt lat="50.57772700" lon="5.57198400">
    <ele>236</ele>
   </trkpt>
   <trkpt lat="50.57772700" lon="5.57207400">
    <ele>236</ele>
   </trkpt>
   <trkpt lat="50.57775200" lon="5.57214000">
    <ele>236</ele>
   </trkpt>
   <trkpt lat="50.57778600" lon="5.57218500">
    <ele>236</ele>
   </trkpt>
   <trkpt lat="50.57780100" lon="5.57221400">
    <ele>235</ele>
   </trkpt>
   <trkpt lat="50.57781100" lon="5.57224600">
    <ele>235</ele>
   </trkpt>
   <trkpt lat="50.57779600" lon="5.57228200">
    <ele>235</ele>
   </trkpt>
   <trkpt lat="50.57774500" lon="5.57222500">
    <ele>236</ele>
   </trkpt>
   <trkpt lat="50.57772600" lon="5.57221300">
    <ele>236</ele>
   </trkpt>
   <trkpt lat="50.57771500" lon="5.57224200">
    <ele>236</ele>
   </trkpt>
   <trkpt lat="50.57770200" lon="5.57229500">
    <ele>236</ele>
   </trkpt>
   <trkpt lat="50.57769800" lon="5.57232700">
    <ele>236</ele>
   </trkpt>
   <trkpt lat="50.57770400" lon="5.57237700">
    <ele>236</ele>
   </trkpt>
   <trkpt lat="50.57775300" lon="5.57241700">
    <ele>236</ele>
   </trkpt>
   <trkpt lat="50.57781100" lon="5.57245700">
    <ele>235</ele>
   </trkpt>
   <trkpt lat="50.57786400" lon="5.57249900">
    <ele>235</ele>
   </trkpt>
   <trkpt lat="50.57797800" lon="5.57260400">
    <ele>235</ele>
   </trkpt>
   <trkpt lat="50.57799000" lon="5.57261600">
    <ele>235</ele>
   </trkpt>
   <trkpt lat="50.57801600" lon="5.57263200">
    <ele>235</ele>
   </trkpt>
   <trkpt lat="50.57804300" lon="5.57264400">
    <ele>235</ele>
   </trkpt>
   <trkpt lat="50.57806400" lon="5.57260900">
    <ele>235</ele>
   </trkpt>
   <trkpt lat="50.57808300" lon="5.57258700">
    <ele>235</ele>
   </trkpt>
   <trkpt lat="50.57809100" lon="5.57270800">
    <ele>235</ele>
   </trkpt>
   <trkpt lat="50.57810100" lon="5.57272400">
    <ele>235</ele>
   </trkpt>
   <trkpt lat="50.57809700" lon="5.57271600">
    <ele>235</ele>
   </trkpt>
   <trkpt lat="50.57809400" lon="5.57270800">
    <ele>235</ele>
   </trkpt>
   <trkpt lat="50.57809500" lon="5.57270000">
    <ele>235</ele>
   </trkpt>
   <trkpt lat="50.57809500" lon="5.57269400">
    <ele>235</ele>
   </trkpt>
   <trkpt lat="50.57810400" lon="5.57270600">
    <ele>235</ele>
   </trkpt>
   <trkpt lat="50.57811000" lon="5.57271500">
    <ele>235</ele>
   </trkpt>
   <trkpt lat="50.57820500" lon="5.57281600">
    <ele>235</ele>
   </trkpt>
   <trkpt lat="50.57829800" lon="5.57293700">
    <ele>234</ele>
   </trkpt>
   <trkpt lat="50.57833600" lon="5.57298300">
    <ele>234</ele>
   </trkpt>
   <trkpt lat="50.57847400" lon="5.57312600">
    <ele>234</ele>
   </trkpt>
   <trkpt lat="50.57854600" lon="5.57321800">
    <ele>234</ele>
   </trkpt>
   <trkpt lat="50.57855900" lon="5.57336200">
    <ele>234</ele>
   </trkpt>
   <trkpt lat="50.57854500" lon="5.57339500">
    <ele>234</ele>
   </trkpt>
   <trkpt lat="50.57851200" lon="5.57346700">
    <ele>234</ele>
   </trkpt>
   <trkpt lat="50.57851000" lon="5.57361600">
    <ele>234</ele>
   </trkpt>
   <trkpt lat="50.57843900" lon="5.57369500">
    <ele>234</ele>
   </trkpt>
   <trkpt lat="50.57837600" lon="5.57383800">
    <ele>234</ele>
   </trkpt>
   <trkpt lat="50.57830900" lon="5.57397000">
    <ele>233</ele>
   </trkpt>
   <trkpt lat="50.57829500" lon="5.57399300">
    <ele>233</ele>
   </trkpt>
   <trkpt lat="50.57828100" lon="5.57399400">
    <ele>233</ele>
   </trkpt>
   <trkpt lat="50.57827800" lon="5.57398500">
    <ele>233</ele>
   </trkpt>
   <trkpt lat="50.57828400" lon="5.57397800">
    <ele>233</ele>
   </trkpt>
   <trkpt lat="50.57825400" lon="5.57399300">
    <ele>233</ele>
   </trkpt>
   <trkpt lat="50.57818800" lon="5.57406200">
    <ele>233</ele>
   </trkpt>
   <trkpt lat="50.57811500" lon="5.57413100">
    <ele>233</ele>
   </trkpt>
   <trkpt lat="50.57811200" lon="5.57413700">
    <ele>233</ele>
   </trkpt>
   <trkpt lat="50.57809600" lon="5.57414500">
    <ele>233</ele>
   </trkpt>
   <trkpt lat="50.57802800" lon="5.57414900">
    <ele>233</ele>
   </trkpt>
   <trkpt lat="50.57788200" lon="5.57411600">
    <ele>233</ele>
   </trkpt>
   <trkpt lat="50.57783800" lon="5.57405300">
    <ele>234</ele>
   </trkpt>
   <trkpt lat="50.57795400" lon="5.57400100">
    <ele>234</ele>
   </trkpt>
   <trkpt lat="50.57804000" lon="5.57398300">
    <ele>234</ele>
   </trkpt>
   <trkpt lat="50.57813700" lon="5.57390300">
    <ele>234</ele>
   </trkpt>
   <trkpt lat="50.57821200" lon="5.57372300">
    <ele>234</ele>
   </trkpt>
   <trkpt lat="50.57823100" lon="5.57354300">
    <ele>235</ele>
   </trkpt>
   <trkpt lat="50.57824600" lon="5.57345400">
    <ele>235</ele>
   </trkpt>
   <trkpt lat="50.57826100" lon="5.57314600">
    <ele>235</ele>
   </trkpt>
   <trkpt lat="50.57823600" lon="5.57308100">
    <ele>235</ele>
   </trkpt>
   <trkpt lat="50.57820500" lon="5.57305400">
    <ele>235</ele>
   </trkpt>
   <trkpt lat="50.57812200" lon="5.57299800">
    <ele>235</ele>
   </trkpt>
   <trkpt lat="50.57794900" lon="5.57287000">
    <ele>235</ele>
   </trkpt>
   <trkpt lat="50.57792200" lon="5.57284400">
    <ele>235</ele>
   </trkpt>
   <trkpt lat="50.57784900" lon="5.57279000">
    <ele>235</ele>
   </trkpt>
   <trkpt lat="50.57775400" lon="5.57265200">
    <ele>236</ele>
   </trkpt>
   <trkpt lat="50.57762100" lon="5.57259500">
    <ele>236</ele>
   </trkpt>
   <trkpt lat="50.57746300" lon="5.57249000">
    <ele>236</ele>
   </trkpt>
   <trkpt lat="50.57744200" lon="5.57245800">
    <ele>236</ele>
   </trkpt>
   <trkpt lat="50.57734900" lon="5.57229000">
    <ele>237</ele>
   </trkpt>
   <trkpt lat="50.57728100" lon="5.57212000">
    <ele>237</ele>
   </trkpt>
   <trkpt lat="50.57728100" lon="5.57212000">
    <ele>237</ele>
   </trkpt>
   <trkpt lat="50.57729800" lon="5.57211000">
    <ele>237</ele>
   </trkpt>
   <trkpt lat="50.57734700" lon="5.57206900">
    <ele>237</ele>
   </trkpt>
   <trkpt lat="50.57741300" lon="5.57207200">
    <ele>237</ele>
   </trkpt>
   <trkpt lat="50.57741900" lon="5.57208900">
    <ele>237</ele>
   </trkpt>
   <trkpt lat="50.57741500" lon="5.57209600">
    <ele>237</ele>
   </trkpt>
   <trkpt lat="50.57739900" lon="5.57209300">
    <ele>237</ele>
   </trkpt>
   <trkpt lat="50.57740000" lon="5.57208800">
    <ele>237</ele>
   </trkpt>
   <trkpt lat="50.57743900" lon="5.57208100">
    <ele>237</ele>
   </trkpt>
   <trkpt lat="50.57746400" lon="5.57209500">
    <ele>237</ele>
   </trkpt>
   <trkpt lat="50.57756000" lon="5.57217800">
    <ele>236</ele>
   </trkpt>
   <trkpt lat="50.57757600" lon="5.57221400">
    <ele>236</ele>
   </trkpt>
   <trkpt lat="50.57764300" lon="5.57229100">
    <ele>236</ele>
   </trkpt>
   <trkpt lat="50.57767900" lon="5.57231500">
    <ele>236</ele>
   </trkpt>
   <trkpt lat="50.57769200" lon="5.57230900">
    <ele>236</ele>
   </trkpt>
   <trkpt lat="50.57772200" lon="5.57225700">
    <ele>236</ele>
   </trkpt>
   <trkpt lat="50.57772300" lon="5.57225200">
    <ele>236</ele>
   </trkpt>
   <trkpt lat="50.57771700" lon="5.57226800">
    <ele>236</ele>
   </trkpt>
   <trkpt lat="50.57766600" lon="5.57235600">
    <ele>236</ele>
   </trkpt>
   <trkpt lat="50.57765500" lon="5.57236500">
    <ele>236</ele>
   </trkpt>
   <trkpt lat="50.57765000" lon="5.57236800">
    <ele>236</ele>
   </trkpt>
   <trkpt lat="50.57764900" lon="5.57236700">
    <ele>236</ele>
   </trkpt>
   <trkpt lat="50.57764600" lon="5.57236300">
    <ele>236</ele>
   </trkpt>
   <trkpt lat="50.57767100" lon="5.57229200">
    <ele>236</ele>
   </trkpt>
   <trkpt lat="50.57770900" lon="5.57212600">
    <ele>236</ele>
   </trkpt>
   <trkpt lat="50.57768000" lon="5.57206400">
    <ele>236</ele>
   </trkpt>
   <trkpt lat="50.57766200" lon="5.57203500">
    <ele>236</ele>
   </trkpt>
   <trkpt lat="50.57764900" lon="5.57201600">
    <ele>236</ele>
   </trkpt>
   <trkpt lat="50.57764500" lon="5.57201200">
    <ele>236</ele>
   </trkpt>
   <trkpt lat="50.57764000" lon="5.57199700">
    <ele>236</ele>
   </trkpt>
   <trkpt lat="50.57764300" lon="5.57199300">
    <ele>236</ele>
   </trkpt>
   <trkpt lat="50.57767900" lon="5.57201000">
    <ele>236</ele>
   </trkpt>
   <trkpt lat="50.57765600" lon="5.57200200">
    <ele>236</ele>
   </trkpt>
   <trkpt lat="50.57763900" lon="5.57199300">
    <ele>237</ele>
   </trkpt>
   <trkpt lat="50.57752400" lon="5.57196700">
    <ele>238</ele>
   </trkpt>
   <trkpt lat="50.57751200" lon="5.57197500">
    <ele>238</ele>
   </trkpt>
   <trkpt lat="50.57750100" lon="5.57198800">
    <ele>238</ele>
   </trkpt>
   <trkpt lat="50.57750500" lon="5.57198200">
    <ele>238</ele>
   </trkpt>
   <trkpt lat="50.57749300" lon="5.57194300">
    <ele>238</ele>
   </trkpt>
   <trkpt lat="50.57746000" lon="5.57191000">
    <ele>238</ele>
   </trkpt>
   <trkpt lat="50.57737500" lon="5.57186000">
    <ele>238</ele>
   </trkpt>
   <trkpt lat="50.57736200" lon="5.57184800">
    <ele>238</ele>
   </trkpt>
   <trkpt lat="50.57738100" lon="5.57180800">
    <ele>238</ele>
   </trkpt>
   <trkpt lat="50.57738700" lon="5.57181000">
    <ele>238</ele>
   </trkpt>
   <trkpt lat="50.57739000" lon="5.57180700">
    <ele>238</ele>
   </trkpt>
   <trkpt lat="50.57739500" lon="5.57175900">
    <ele>238</ele>
   </trkpt>
   <trkpt lat="50.57738600" lon="5.57173200">
    <ele>238</ele>
   </trkpt>
   <trkpt lat="50.57731300" lon="5.57159500">
    <ele>238</ele>
   </trkpt>
   <trkpt lat="50.57726700" lon="5.57151800">
    <ele>238</ele>
   </trkpt>
   <trkpt lat="50.57721200" lon="5.57139000">
    <ele>239</ele>
   </trkpt>
   <trkpt lat="50.57719000" lon="5.57131900">
    <ele>239</ele>
   </trkpt>
   <trkpt lat="50.57711500" lon="5.57107300">
    <ele>239</ele>
   </trkpt>
   <trkpt lat="50.57703600" lon="5.57084500">
    <ele>239</ele>
   </trkpt>
   <trkpt lat="50.57700500" lon="5.57075300">
    <ele>239</ele>
   </trkpt>
   <trkpt lat="50.57695900" lon="5.57063800">
    <ele>239</ele>
   </trkpt>
   <trkpt lat="50.57693600" lon="5.57057900">
    <ele>240</ele>
   </trkpt>
   <trkpt lat="50.57684000" lon="5.57035000">
    <ele>240</ele>
   </trkpt>
   <trkpt lat="50.57675800" lon="5.57027300">
    <ele>240</ele>
   </trkpt>
   <trkpt lat="50.57674300" lon="5.57027800">
    <ele>240</ele>
   </trkpt>
   <trkpt lat="50.57665600" lon="5.57033300">
    <ele>241</ele>
   </trkpt>
   <trkpt lat="50.57661200" lon="5.57036100">
    <ele>241</ele>
   </trkpt>
   <trkpt lat="50.57656300" lon="5.57039000">
    <ele>241</ele>
   </trkpt>
   <trkpt lat="50.57651800" lon="5.57041800">
    <ele>242</ele>
   </trkpt>
   <trkpt lat="50.57649600" lon="5.57044000">
    <ele>242</ele>
   </trkpt>
   <trkpt lat="50.57647500" lon="5.57046600">
    <ele>242</ele>
   </trkpt>
   <trkpt lat="50.57646800" lon="5.57047700">
    <ele>242</ele>
   </trkpt>
   <trkpt lat="50.57644500" lon="5.57050200">
    <ele>242</ele>
   </trkpt>
   <trkpt lat="50.57640100" lon="5.57052700">
    <ele>242</ele>
   </trkpt>
   <trkpt lat="50.57637300" lon="5.57052900">
    <ele>242</ele>
   </trkpt>
   <trkpt lat="50.57636100" lon="5.57053100">
    <ele>242</ele>
   </trkpt>
   <trkpt lat="50.57627100" lon="5.57054600">
    <ele>243</ele>
   </trkpt>
   <trkpt lat="50.57624600" lon="5.57055700">
    <ele>243</ele>
   </trkpt>
   <trkpt lat="50.57618500" lon="5.57058100">
    <ele>244</ele>
   </trkpt>
   <trkpt lat="50.57617900" lon="5.57058400">
    <ele>244</ele>
   </trkpt>
   <trkpt lat="50.57616700" lon="5.57059000">
    <ele>244</ele>
   </trkpt>
   <trkpt lat="50.57613400" lon="5.57062400">
    <ele>244</ele>
   </trkpt>
   <trkpt lat="50.57614400" lon="5.57064800">
    <ele>244</ele>
   </trkpt>
   <trkpt lat="50.57613700" lon="5.57067000">
    <ele>244</ele>
   </trkpt>
   <trkpt lat="50.57614100" lon="5.57068200">
    <ele>244</ele>
   </trkpt>
   <trkpt lat="50.57616400" lon="5.57075200">
    <ele>244</ele>
   </trkpt>
   <trkpt lat="50.57616500" lon="5.57075500">
    <ele>244</ele>
   </trkpt>
   <trkpt lat="50.57616500" lon="5.57080100">
    <ele>244</ele>
   </trkpt>
   <trkpt lat="50.57616000" lon="5.57080700">
    <ele>244</ele>
   </trkpt>
   <trkpt lat="50.57618400" lon="5.57093700">
    <ele>243</ele>
   </trkpt>
   <trkpt lat="50.57619000" lon="5.57096800">
    <ele>243</ele>
   </trkpt>
   <trkpt lat="50.57623900" lon="5.57116600">
    <ele>243</ele>
   </trkpt>
   <trkpt lat="50.57625400" lon="5.57124800">
    <ele>243</ele>
   </trkpt>
   <trkpt lat="50.57628200" lon="5.57137800">
    <ele>242</ele>
   </trkpt>
   <trkpt lat="50.57630800" lon="5.57149700">
    <ele>242</ele>
   </trkpt>
   <trkpt lat="50.57632200" lon="5.57157800">
    <ele>242</ele>
   </trkpt>
   <trkpt lat="50.57634900" lon="5.57170200">
    <ele>241</ele>
   </trkpt>
   <trkpt lat="50.57639000" lon="5.57186000">
    <ele>240</ele>
   </trkpt>
   <trkpt lat="50.57646900" lon="5.57214300">
    <ele>239</ele>
   </trkpt>
   <trkpt lat="50.57650400" lon="5.57224400">
    <ele>239</ele>
   </trkpt>
   <trkpt lat="50.57654300" lon="5.57226000">
    <ele>239</ele>
   </trkpt>
   <trkpt lat="50.57665400" lon="5.57239100">
    <ele>238</ele>
   </trkpt>
   <trkpt lat="50.57676300" lon="5.57257700">
    <ele>238</ele>
   </trkpt>
   <trkpt lat="50.57685300" lon="5.57279500">
    <ele>237</ele>
   </trkpt>
   <trkpt lat="50.57687200" lon="5.57304100">
    <ele>236</ele>
   </trkpt>
   <trkpt lat="50.57690500" lon="5.57333800">
    <ele>235</ele>
   </trkpt>
   <trkpt lat="50.57694300" lon="5.57345300">
    <ele>234</ele>
   </trkpt>
   <trkpt lat="50.57697200" lon="5.57349400">
    <ele>234</ele>
   </trkpt>
   <trkpt lat="50.57709700" lon="5.57362900">
    <ele>234</ele>
   </trkpt>
   <trkpt lat="50.57711400" lon="5.57366000">
    <ele>233</ele>
   </trkpt>
   <trkpt lat="50.57717700" lon="5.57378400">
    <ele>233</ele>
   </trkpt>
   <trkpt lat="50.57720600" lon="5.57383800">
    <ele>233</ele>
   </trkpt>
   <trkpt lat="50.57721600" lon="5.57388200">
    <ele>233</ele>
   </trkpt>
   <trkpt lat="50.57724500" lon="5.57409000">
    <ele>232</ele>
   </trkpt>
   <trkpt lat="50.57724000" lon="5.57419300">
    <ele>232</ele>
   </trkpt>
   <trkpt lat="50.57725700" lon="5.57427400">
    <ele>232</ele>
   </trkpt>
   <trkpt lat="50.57726300" lon="5.57427400">
    <ele>232</ele>
   </trkpt>
   <trkpt lat="50.57727100" lon="5.57428500">
    <ele>232</ele>
   </trkpt>
   <trkpt lat="50.57728700" lon="5.57431600">
    <ele>232</ele>
   </trkpt>
   <trkpt lat="50.57732400" lon="5.57442900">
    <ele>231</ele>
   </trkpt>
   <trkpt lat="50.57733800" lon="5.57444600">
    <ele>231</ele>
   </trkpt>
   <trkpt lat="50.57738400" lon="5.57452000">
    <ele>231</ele>
   </trkpt>
   <trkpt lat="50.57740000" lon="5.57454200">
    <ele>231</ele>
   </trkpt>
   <trkpt lat="50.57745800" lon="5.57464600">
    <ele>231</ele>
   </trkpt>
   <trkpt lat="50.57754600" lon="5.57488500">
    <ele>229</ele>
   </trkpt>
   <trkpt lat="50.57754600" lon="5.57504000">
    <ele>229</ele>
   </trkpt>
   <trkpt lat="50.57757300" lon="5.57507500">
    <ele>229</ele>
   </trkpt>
   <trkpt lat="50.57760500" lon="5.57506200">
    <ele>228</ele>
   </trkpt>
   <trkpt lat="50.57761100" lon="5.57505700">
    <ele>228</ele>
   </trkpt>
   <trkpt lat="50.57791300" lon="5.57486600">
    <ele>228</ele>
   </trkpt>
   <trkpt lat="50.57797300" lon="5.57480100">
    <ele>227</ele>
   </trkpt>
   <trkpt lat="50.57799900" lon="5.57475700">
    <ele>227</ele>
   </trkpt>
   <trkpt lat="50.57804600" lon="5.57468100">
    <ele>227</ele>
   </trkpt>
   <trkpt lat="50.57811700" lon="5.57458100">
    <ele>227</ele>
   </trkpt>
   <trkpt lat="50.57817400" lon="5.57451300">
    <ele>227</ele>
   </trkpt>
   <trkpt lat="50.57824800" lon="5.57441800">
    <ele>227</ele>
   </trkpt>
   <trkpt lat="50.57829700" lon="5.57439300">
    <ele>227</ele>
   </trkpt>
   <trkpt lat="50.57832700" lon="5.57437400">
    <ele>227</ele>
   </trkpt>
   <trkpt lat="50.57838000" lon="5.57432400">
    <ele>227</ele>
   </trkpt>
   <trkpt lat="50.57848600" lon="5.57423300">
    <ele>228</ele>
   </trkpt>
   <trkpt lat="50.57856200" lon="5.57418700">
    <ele>228</ele>
   </trkpt>
   <trkpt lat="50.57860600" lon="5.57420000">
    <ele>228</ele>
   </trkpt>
   <trkpt lat="50.57863000" lon="5.57421000">
    <ele>228</ele>
   </trkpt>
   <trkpt lat="50.57862600" lon="5.57418900">
    <ele>228</ele>
   </trkpt>
   <trkpt lat="50.57861700" lon="5.57416700">
    <ele>228</ele>
   </trkpt>
   <trkpt lat="50.57861800" lon="5.57414500">
    <ele>228</ele>
   </trkpt>
   <trkpt lat="50.57861000" lon="5.57410700">
    <ele>228</ele>
   </trkpt>
   <trkpt lat="50.57862500" lon="5.57407100">
    <ele>228</ele>
   </trkpt>
   <trkpt lat="50.57873300" lon="5.57393800">
    <ele>228</ele>
   </trkpt>
   <trkpt lat="50.57882000" lon="5.57375100">
    <ele>227</ele>
   </trkpt>
   <trkpt lat="50.57881100" lon="5.57370700">
    <ele>227</ele>
   </trkpt>
   <trkpt lat="50.57877100" lon="5.57375700">
    <ele>227</ele>
   </trkpt>
   <trkpt lat="50.57878200" lon="5.57377400">
    <ele>227</ele>
   </trkpt>
   <trkpt lat="50.57882900" lon="5.57375800">
    <ele>227</ele>
   </trkpt>
   <trkpt lat="50.57893000" lon="5.57364500">
    <ele>227</ele>
   </trkpt>
   <trkpt lat="50.57896400" lon="5.57359600">
    <ele>227</ele>
   </trkpt>
   <trkpt lat="50.57897500" lon="5.57364000">
    <ele>227</ele>
   </trkpt>
   <trkpt lat="50.57897400" lon="5.57366500">
    <ele>227</ele>
   </trkpt>
   <trkpt lat="50.57897400" lon="5.57366500">
    <ele>227</ele>
   </trkpt>
   <trkpt lat="50.57897400" lon="5.57366500">
    <ele>227</ele>
   </trkpt>
   <trkpt lat="50.57889300" lon="5.57374100">
    <ele>226</ele>
   </trkpt>
   <trkpt lat="50.57880600" lon="5.57388400">
    <ele>226</ele>
   </trkpt>
   <trkpt lat="50.57874800" lon="5.57393600">
    <ele>226</ele>
   </trkpt>
   <trkpt lat="50.57875700" lon="5.57392400">
    <ele>226</ele>
   </trkpt>
   <trkpt lat="50.57876300" lon="5.57392200">
    <ele>226</ele>
   </trkpt>
   <trkpt lat="50.57881400" lon="5.57388200">
    <ele>226</ele>
   </trkpt>
   <trkpt lat="50.57881800" lon="5.57387000">
    <ele>226</ele>
   </trkpt>
   <trkpt lat="50.57891900" lon="5.57373900">
    <ele>226</ele>
   </trkpt>
   <trkpt lat="50.57903500" lon="5.57358900">
    <ele>225</ele>
   </trkpt>
   <trkpt lat="50.57908300" lon="5.57351500">
    <ele>225</ele>
   </trkpt>
   <trkpt lat="50.57913500" lon="5.57331400">
    <ele>225</ele>
   </trkpt>
   <trkpt lat="50.57916300" lon="5.57302500">
    <ele>224</ele>
   </trkpt>
   <trkpt lat="50.57916200" lon="5.57298400">
    <ele>224</ele>
   </trkpt>
   <trkpt lat="50.57918200" lon="5.57282800">
    <ele>224</ele>
   </trkpt>
   <trkpt lat="50.57919100" lon="5.57275700">
    <ele>224</ele>
   </trkpt>
   <trkpt lat="50.57917000" lon="5.57265900">
    <ele>224</ele>
   </trkpt>
   <trkpt lat="50.57919200" lon="5.57249100">
    <ele>224</ele>
   </trkpt>
   <trkpt lat="50.57920500" lon="5.57237800">
    <ele>224</ele>
   </trkpt>
   <trkpt lat="50.57919800" lon="5.57216100">
    <ele>223</ele>
   </trkpt>
   <trkpt lat="50.57917700" lon="5.57208700">
    <ele>223</ele>
   </trkpt>
   <trkpt lat="50.57916400" lon="5.57203000">
    <ele>223</ele>
   </trkpt>
   <trkpt lat="50.57914500" lon="5.57186200">
    <ele>223</ele>
   </trkpt>
   <trkpt lat="50.57913700" lon="5.57177800">
    <ele>223</ele>
   </trkpt>
   <trkpt lat="50.57910700" lon="5.57160700">
    <ele>223</ele>
   </trkpt>
   <trkpt lat="50.57909400" lon="5.57160200">
    <ele>223</ele>
   </trkpt>
   <trkpt lat="50.57908300" lon="5.57161000">
    <ele>223</ele>
   </trkpt>
   <trkpt lat="50.57904100" lon="5.57163500">
    <ele>223</ele>
   </trkpt>
   <trkpt lat="50.57897700" lon="5.57170000">
    <ele>224</ele>
   </trkpt>
   <trkpt lat="50.57897000" lon="5.57172100">
    <ele>224</ele>
   </trkpt>
   <trkpt lat="50.57896400" lon="5.57174900">
    <ele>224</ele>
   </trkpt>
   <trkpt lat="50.57895400" lon="5.57177200">
    <ele>224</ele>
   </trkpt>
   <trkpt lat="50.57887900" lon="5.57183900">
    <ele>225</ele>
   </trkpt>
   <trkpt lat="50.57886700" lon="5.57185500">
    <ele>225</ele>
   </trkpt>
   <trkpt lat="50.57888000" lon="5.57187200">
    <ele>225</ele>
   </trkpt>
   <trkpt lat="50.57888200" lon="5.57189000">
    <ele>225</ele>
   </trkpt>
   <trkpt lat="50.57888200" lon="5.57189600">
    <ele>225</ele>
   </trkpt>
   <trkpt lat="50.57887500" lon="5.57190700">
    <ele>225</ele>
   </trkpt>
   <trkpt lat="50.57887000" lon="5.57193900">
    <ele>225</ele>
   </trkpt>
   <trkpt lat="50.57887000" lon="5.57194300">
    <ele>225</ele>
   </trkpt>
   <trkpt lat="50.57886800" lon="5.57194100">
    <ele>225</ele>
   </trkpt>
   <trkpt lat="50.57887000" lon="5.57195000">
    <ele>225</ele>
   </trkpt>
   <trkpt lat="50.57886900" lon="5.57195800">
    <ele>225</ele>
   </trkpt>
   <trkpt lat="50.57885000" lon="5.57201800">
    <ele>225</ele>
   </trkpt>
   <trkpt lat="50.57882800" lon="5.57203500">
    <ele>225</ele>
   </trkpt>
   <trkpt lat="50.57883500" lon="5.57212200">
    <ele>226</ele>
   </trkpt>
   <trkpt lat="50.57883400" lon="5.57215600">
    <ele>226</ele>
   </trkpt>
   <trkpt lat="50.57883400" lon="5.57218100">
    <ele>226</ele>
   </trkpt>
   <trkpt lat="50.57884000" lon="5.57221900">
    <ele>226</ele>
   </trkpt>
   <trkpt lat="50.57883200" lon="5.57221100">
    <ele>226</ele>
   </trkpt>
   <trkpt lat="50.57880800" lon="5.57223500">
    <ele>226</ele>
   </trkpt>
   <trkpt lat="50.57878800" lon="5.57221300">
    <ele>226</ele>
   </trkpt>
   <trkpt lat="50.57876200" lon="5.57219400">
    <ele>226</ele>
   </trkpt>
   <trkpt lat="50.57874600" lon="5.57219900">
    <ele>226</ele>
   </trkpt>
   <trkpt lat="50.57875400" lon="5.57218700">
    <ele>226</ele>
   </trkpt>
   <trkpt lat="50.57873500" lon="5.57214700">
    <ele>226</ele>
   </trkpt>
   <trkpt lat="50.57867900" lon="5.57207300">
    <ele>227</ele>
   </trkpt>
   <trkpt lat="50.57867600" lon="5.57205700">
    <ele>227</ele>
   </trkpt>
   <trkpt lat="50.57869100" lon="5.57200500">
    <ele>226</ele>
   </trkpt>
   <trkpt lat="50.57864800" lon="5.57199100">
    <ele>227</ele>
   </trkpt>
   <trkpt lat="50.57864700" lon="5.57199100">
    <ele>227</ele>
   </trkpt>
   <trkpt lat="50.57866900" lon="5.57201500">
    <ele>226</ele>
   </trkpt>
   <trkpt lat="50.57866900" lon="5.57201900">
    <ele>226</ele>
   </trkpt>
   <trkpt lat="50.57868100" lon="5.57201300">
    <ele>226</ele>
   </trkpt>
   <trkpt lat="50.57868200" lon="5.57201200">
    <ele>226</ele>
   </trkpt>
   <trkpt lat="50.57868200" lon="5.57202000">
    <ele>226</ele>
   </trkpt>
   <trkpt lat="50.57868400" lon="5.57203700">
    <ele>226</ele>
   </trkpt>
   <trkpt lat="50.57869300" lon="5.57206200">
    <ele>226</ele>
   </trkpt>
   <trkpt lat="50.57869300" lon="5.57206400">
    <ele>226</ele>
   </trkpt>
   <trkpt lat="50.57870000" lon="5.57209800">
    <ele>227</ele>
   </trkpt>
   <trkpt lat="50.57871700" lon="5.57211300">
    <ele>226</ele>
   </trkpt>
   <trkpt lat="50.57874200" lon="5.57222500">
    <ele>226</ele>
   </trkpt>
   <trkpt lat="50.57873600" lon="5.57227200">
    <ele>227</ele>
   </trkpt>
   <trkpt lat="50.57870800" lon="5.57229000">
    <ele>227</ele>
   </trkpt>
   <trkpt lat="50.57868500" lon="5.57229900">
    <ele>227</ele>
   </trkpt>
   <trkpt lat="50.57868600" lon="5.57229500">
    <ele>227</ele>
   </trkpt>
   <trkpt lat="50.57869800" lon="5.57226600">
    <ele>227</ele>
   </trkpt>
   <trkpt lat="50.57869800" lon="5.57226700">
    <ele>227</ele>
   </trkpt>
   <trkpt lat="50.57873300" lon="5.57228600">
    <ele>227</ele>
   </trkpt>
   <trkpt lat="50.57874900" lon="5.57223700">
    <ele>226</ele>
   </trkpt>
   <trkpt lat="50.57874400" lon="5.57215500">
    <ele>226</ele>
   </trkpt>
   <trkpt lat="50.57873700" lon="5.57213400">
    <ele>226</ele>
   </trkpt>
   <trkpt lat="50.57869300" lon="5.57205600">
    <ele>226</ele>
   </trkpt>
   <trkpt lat="50.57869300" lon="5.57204700">
    <ele>226</ele>
   </trkpt>
   <trkpt lat="50.57870300" lon="5.57204400">
    <ele>226</ele>
   </trkpt>
   <trkpt lat="50.57870900" lon="5.57203800">
    <ele>226</ele>
   </trkpt>
   <trkpt lat="50.57871100" lon="5.57203500">
    <ele>226</ele>
   </trkpt>
   <trkpt lat="50.57870700" lon="5.57203700">
    <ele>226</ele>
   </trkpt>
   <trkpt lat="50.57870300" lon="5.57204400">
    <ele>226</ele>
   </trkpt>
   <trkpt lat="50.57870300" lon="5.57206700">
    <ele>226</ele>
   </trkpt>
   <trkpt lat="50.57870000" lon="5.57209200">
    <ele>227</ele>
   </trkpt>
   <trkpt lat="50.57870400" lon="5.57213900">
    <ele>227</ele>
   </trkpt>
   <trkpt lat="50.57872400" lon="5.57217700">
    <ele>227</ele>
   </trkpt>
   <trkpt lat="50.57873400" lon="5.57218700">
    <ele>227</ele>
   </trkpt>
   <trkpt lat="50.57873400" lon="5.57219300">
    <ele>227</ele>
   </trkpt>
   <trkpt lat="50.57875400" lon="5.57227300">
    <ele>227</ele>
   </trkpt>
   <trkpt lat="50.57874000" lon="5.57231000">
    <ele>227</ele>
   </trkpt>
   <trkpt lat="50.57874600" lon="5.57231000">
    <ele>227</ele>
   </trkpt>
   <trkpt lat="50.57876000" lon="5.57233200">
    <ele>227</ele>
   </trkpt>
   <trkpt lat="50.57875700" lon="5.57232000">
    <ele>227</ele>
   </trkpt>
   <trkpt lat="50.57875800" lon="5.57229800">
    <ele>227</ele>
   </trkpt>
   <trkpt lat="50.57875700" lon="5.57232200">
    <ele>227</ele>
   </trkpt>
   <trkpt lat="50.57875900" lon="5.57232000">
    <ele>227</ele>
   </trkpt>
   <trkpt lat="50.57877800" lon="5.57238800">
    <ele>227</ele>
   </trkpt>
   <trkpt lat="50.57877900" lon="5.57243800">
    <ele>227</ele>
   </trkpt>
   <trkpt lat="50.57880900" lon="5.57250200">
    <ele>227</ele>
   </trkpt>
   <trkpt lat="50.57879200" lon="5.57253900">
    <ele>227</ele>
   </trkpt>
   <trkpt lat="50.57877300" lon="5.57257500">
    <ele>227</ele>
   </trkpt>
   <trkpt lat="50.57874300" lon="5.57257700">
    <ele>227</ele>
   </trkpt>
   <trkpt lat="50.57873900" lon="5.57256500">
    <ele>227</ele>
   </trkpt>
   <trkpt lat="50.57874000" lon="5.57256200">
    <ele>227</ele>
   </trkpt>
   <trkpt lat="50.57874100" lon="5.57256600">
    <ele>227</ele>
   </trkpt>
   <trkpt lat="50.57874200" lon="5.57256100">
    <ele>227</ele>
   </trkpt>
   <trkpt lat="50.57876800" lon="5.57251600">
    <ele>227</ele>
   </trkpt>
   <trkpt lat="50.57876100" lon="5.57254300">
    <ele>227</ele>
   </trkpt>
   <trkpt lat="50.57877400" lon="5.57254600">
    <ele>227</ele>
   </trkpt>
   <trkpt lat="50.57875500" lon="5.57251900">
    <ele>227</ele>
   </trkpt>
   <trkpt lat="50.57876200" lon="5.57247900">
    <ele>227</ele>
   </trkpt>
   <trkpt lat="50.57877800" lon="5.57246800">
    <ele>227</ele>
   </trkpt>
   <trkpt lat="50.57881400" lon="5.57249300">
    <ele>227</ele>
   </trkpt>
   <trkpt lat="50.57884100" lon="5.57246400">
    <ele>226</ele>
   </trkpt>
   <trkpt lat="50.57882900" lon="5.57244500">
    <ele>226</ele>
   </trkpt>
   <trkpt lat="50.57882700" lon="5.57243900">
    <ele>226</ele>
   </trkpt>
   <trkpt lat="50.57882400" lon="5.57242900">
    <ele>226</ele>
   </trkpt>
   <trkpt lat="50.57880200" lon="5.57234900">
    <ele>226</ele>
   </trkpt>
   <trkpt lat="50.57880100" lon="5.57229600">
    <ele>226</ele>
   </trkpt>
   <trkpt lat="50.57880600" lon="5.57228100">
    <ele>226</ele>
   </trkpt>
   <trkpt lat="50.57882300" lon="5.57226600">
    <ele>226</ele>
   </trkpt>
   <trkpt lat="50.57882700" lon="5.57226800">
    <ele>226</ele>
   </trkpt>
   <trkpt lat="50.57882800" lon="5.57227600">
    <ele>226</ele>
   </trkpt>
   <trkpt lat="50.57883000" lon="5.57227700">
    <ele>226</ele>
   </trkpt>
   <trkpt lat="50.57882700" lon="5.57227300">
    <ele>226</ele>
   </trkpt>
   <trkpt lat="50.57882600" lon="5.57225500">
    <ele>226</ele>
   </trkpt>
   <trkpt lat="50.57883100" lon="5.57225200">
    <ele>226</ele>
   </trkpt>
   <trkpt lat="50.57884700" lon="5.57218900">
    <ele>226</ele>
   </trkpt>
   <trkpt lat="50.57884000" lon="5.57215900">
    <ele>226</ele>
   </trkpt>
   <trkpt lat="50.57881600" lon="5.57212100">
    <ele>226</ele>
   </trkpt>
   <trkpt lat="50.57883500" lon="5.57200700">
    <ele>226</ele>
   </trkpt>
   <trkpt lat="50.57882900" lon="5.57198200">
    <ele>225</ele>
   </trkpt>
   <trkpt lat="50.57883700" lon="5.57198100">
    <ele>225</ele>
   </trkpt>
   <trkpt lat="50.57882700" lon="5.57199400">
    <ele>225</ele>
   </trkpt>
   <trkpt lat="50.57877300" lon="5.57196100">
    <ele>226</ele>
   </trkpt>
   <trkpt lat="50.57874400" lon="5.57199000">
    <ele>226</ele>
   </trkpt>
   <trkpt lat="50.57873600" lon="5.57200300">
    <ele>226</ele>
   </trkpt>
   <trkpt lat="50.57872200" lon="5.57200700">
    <ele>226</ele>
   </trkpt>
   <trkpt lat="50.57869900" lon="5.57198600">
    <ele>226</ele>
   </trkpt>
   <trkpt lat="50.57869500" lon="5.57198300">
    <ele>226</ele>
   </trkpt>
   <trkpt lat="50.57870500" lon="5.57198500">
    <ele>226</ele>
   </trkpt>
   <trkpt lat="50.57871600" lon="5.57198000">
    <ele>226</ele>
   </trkpt>
   <trkpt lat="50.57872900" lon="5.57195000">
    <ele>226</ele>
   </trkpt>
   <trkpt lat="50.57873900" lon="5.57194400">
    <ele>226</ele>
   </trkpt>
   <trkpt lat="50.57877000" lon="5.57192000">
    <ele>226</ele>
   </trkpt>
   <trkpt lat="50.57880000" lon="5.57190500">
    <ele>225</ele>
   </trkpt>
   <trkpt lat="50.57880300" lon="5.57189400">
    <ele>225</ele>
   </trkpt>
   <trkpt lat="50.57882600" lon="5.57183100">
    <ele>225</ele>
   </trkpt>
   <trkpt lat="50.57884100" lon="5.57182500">
    <ele>225</ele>
   </trkpt>
   <trkpt lat="50.57891100" lon="5.57181300">
    <ele>225</ele>
   </trkpt>
   <trkpt lat="50.57890800" lon="5.57176000">
    <ele>224</ele>
   </trkpt>
   <trkpt lat="50.57891000" lon="5.57173200">
    <ele>224</ele>
   </trkpt>
   <trkpt lat="50.57893300" lon="5.57164300">
    <ele>224</ele>
   </trkpt>
   <trkpt lat="50.57894300" lon="5.57159600">
    <ele>224</ele>
   </trkpt>
   <trkpt lat="50.57895300" lon="5.57160900">
    <ele>224</ele>
   </trkpt>
   <trkpt lat="50.57899900" lon="5.57160600">
    <ele>224</ele>
   </trkpt>
   <trkpt lat="50.57902500" lon="5.57157700">
    <ele>224</ele>
   </trkpt>
   <trkpt lat="50.57906000" lon="5.57156500">
    <ele>223</ele>
   </trkpt>
   <trkpt lat="50.57905500" lon="5.57156600">
    <ele>223</ele>
   </trkpt>
   <trkpt lat="50.57905500" lon="5.57156600">
    <ele>223</ele>
   </trkpt>
   <trkpt lat="50.57905600" lon="5.57157100">
    <ele>223</ele>
   </trkpt>
   <trkpt lat="50.57907800" lon="5.57156900">
    <ele>223</ele>
   </trkpt>
   <trkpt lat="50.57916400" lon="5.57161600">
    <ele>223</ele>
   </trkpt>
   <trkpt lat="50.57914200" lon="5.57161400">
    <ele>223</ele>
   </trkpt>
   <trkpt lat="50.57912800" lon="5.57160100">
    <ele>223</ele>
   </trkpt>
   <trkpt lat="50.57911800" lon="5.57158200">
    <ele>223</ele>
   </trkpt>
   <trkpt lat="50.57910700" lon="5.57154200">
    <ele>223</ele>
   </trkpt>
   <trkpt lat="50.57910400" lon="5.57152900">
    <ele>223</ele>
   </trkpt>
   <trkpt lat="50.57908100" lon="5.57147500">
    <ele>223</ele>
   </trkpt>
   <trkpt lat="50.57906700" lon="5.57147700">
    <ele>223</ele>
   </trkpt>
   <trkpt lat="50.57906200" lon="5.57150400">
    <ele>223</ele>
   </trkpt>
   <trkpt lat="50.57907300" lon="5.57151700">
    <ele>223</ele>
   </trkpt>
   <trkpt lat="50.57910200" lon="5.57153800">
    <ele>223</ele>
   </trkpt>
   <trkpt lat="50.57911100" lon="5.57158600">
    <ele>223</ele>
   </trkpt>
   <trkpt lat="50.57912100" lon="5.57160500">
    <ele>223</ele>
   </trkpt>
   <trkpt lat="50.57912200" lon="5.57159000">
    <ele>223</ele>
   </trkpt>
   <trkpt lat="50.57913600" lon="5.57154600">
    <ele>223</ele>
   </trkpt>
   <trkpt lat="50.57910500" lon="5.57142600">
    <ele>223</ele>
   </trkpt>
   <trkpt lat="50.57906400" lon="5.57129200">
    <ele>223</ele>
   </trkpt>
   <trkpt lat="50.57902500" lon="5.57115200">
    <ele>223</ele>
   </trkpt>
   <trkpt lat="50.57901100" lon="5.57108000">
    <ele>223</ele>
   </trkpt>
   <trkpt lat="50.57900800" lon="5.57098400">
    <ele>223</ele>
   </trkpt>
   <trkpt lat="50.57896000" lon="5.57085700">
    <ele>223</ele>
   </trkpt>
   <trkpt lat="50.57892400" lon="5.57066100">
    <ele>223</ele>
   </trkpt>
   <trkpt lat="50.57892400" lon="5.57063900">
    <ele>223</ele>
   </trkpt>
   <trkpt lat="50.57892000" lon="5.57054900">
    <ele>223</ele>
   </trkpt>
   <trkpt lat="50.57888400" lon="5.57047600">
    <ele>222</ele>
   </trkpt>
   <trkpt lat="50.57887400" lon="5.57041400">
    <ele>222</ele>
   </trkpt>
   <trkpt lat="50.57887200" lon="5.57031700">
    <ele>222</ele>
   </trkpt>
   <trkpt lat="50.57887100" lon="5.57026500">
    <ele>222</ele>
   </trkpt>
   <trkpt lat="50.57886500" lon="5.57024600">
    <ele>222</ele>
   </trkpt>
   <trkpt lat="50.57886100" lon="5.57022600">
    <ele>222</ele>
   </trkpt>
   <trkpt lat="50.57886000" lon="5.57019900">
    <ele>222</ele>
   </trkpt>
   <trkpt lat="50.57886000" lon="5.57017500">
    <ele>222</ele>
   </trkpt>
   <trkpt lat="50.57885400" lon="5.57012500">
    <ele>222</ele>
   </trkpt>
   <trkpt lat="50.57884500" lon="5.57010900">
    <ele>222</ele>
   </trkpt>
   <trkpt lat="50.57882900" lon="5.57008800">
    <ele>222</ele>
   </trkpt>
   <trkpt lat="50.57881900" lon="5.57007400">
    <ele>222</ele>
   </trkpt>
   <trkpt lat="50.57878200" lon="5.56997200">
    <ele>222</ele>
   </trkpt>
   <trkpt lat="50.57876700" lon="5.56988800">
    <ele>222</ele>
   </trkpt>
   <trkpt lat="50.57875500" lon="5.56982100">
    <ele>222</ele>
   </trkpt>
   <trkpt lat="50.57874600" lon="5.56974900">
    <ele>222</ele>
   </trkpt>
   <trkpt lat="50.57874500" lon="5.56971300">
    <ele>222</ele>
   </trkpt>
   <trkpt lat="50.57874600" lon="5.56963800">
    <ele>222</ele>
   </trkpt>
   <trkpt lat="50.57872800" lon="5.56953600">
    <ele>222</ele>
   </trkpt>
   <trkpt lat="50.57872600" lon="5.56949900">
    <ele>222</ele>
   </trkpt>
   <trkpt lat="50.57871700" lon="5.56937700">
    <ele>222</ele>
   </trkpt>
   <trkpt lat="50.57872300" lon="5.56922000">
    <ele>221</ele>
   </trkpt>
   <trkpt lat="50.57873700" lon="5.56908600">
    <ele>221</ele>
   </trkpt>
   <trkpt lat="50.57873900" lon="5.56906400">
    <ele>221</ele>
   </trkpt>
   <trkpt lat="50.57871100" lon="5.56879600">
    <ele>220</ele>
   </trkpt>
   <trkpt lat="50.57873300" lon="5.56856600">
    <ele>220</ele>
   </trkpt>
   <trkpt lat="50.57873300" lon="5.56850100">
    <ele>220</ele>
   </trkpt>
   <trkpt lat="50.57870000" lon="5.56848000">
    <ele>220</ele>
   </trkpt>
   <trkpt lat="50.57870000" lon="5.56841800">
    <ele>220</ele>
   </trkpt>
   <trkpt lat="50.57871500" lon="5.56839600">
    <ele>220</ele>
   </trkpt>
   <trkpt lat="50.57871700" lon="5.56834400">
    <ele>219</ele>
   </trkpt>
   <trkpt lat="50.57870900" lon="5.56827800">
    <ele>219</ele>
   </trkpt>
   <trkpt lat="50.57868700" lon="5.56821800">
    <ele>219</ele>
   </trkpt>
   <trkpt lat="50.57870700" lon="5.56811900">
    <ele>219</ele>
   </trkpt>
   <trkpt lat="50.57870800" lon="5.56809600">
    <ele>219</ele>
   </trkpt>
   <trkpt lat="50.57867600" lon="5.56797700">
    <ele>219</ele>
   </trkpt>
   <trkpt lat="50.57866700" lon="5.56793400">
    <ele>219</ele>
   </trkpt>
   <trkpt lat="50.57866600" lon="5.56786200">
    <ele>218</ele>
   </trkpt>
   <trkpt lat="50.57866600" lon="5.56777300">
    <ele>218</ele>
   </trkpt>
   <trkpt lat="50.57867000" lon="5.56760400">
    <ele>218</ele>
   </trkpt>
   <trkpt lat="50.57866600" lon="5.56758800">
    <ele>218</ele>
   </trkpt>
   <trkpt lat="50.57864100" lon="5.56760200">
    <ele>218</ele>
   </trkpt>
   <trkpt lat="50.57863300" lon="5.56761800">
    <ele>219</ele>
   </trkpt>
   <trkpt lat="50.57860200" lon="5.56769100">
    <ele>219</ele>
   </trkpt>
   <trkpt lat="50.57856600" lon="5.56773800">
    <ele>220</ele>
   </trkpt>
   <trkpt lat="50.57846900" lon="5.56775700">
    <ele>221</ele>
   </trkpt>
   <trkpt lat="50.57841300" lon="5.56778200">
    <ele>222</ele>
   </trkpt>
   <trkpt lat="50.57832200" lon="5.56777700">
    <ele>223</ele>
   </trkpt>
   <trkpt lat="50.57831400" lon="5.56777200">
    <ele>223</ele>
   </trkpt>
   <trkpt lat="50.57829300" lon="5.56774000">
    <ele>223</ele>
   </trkpt>
   <trkpt lat="50.57821600" lon="5.56771800">
    <ele>224</ele>
   </trkpt>
   <trkpt lat="50.57816400" lon="5.56774900">
    <ele>225</ele>
   </trkpt>
   <trkpt lat="50.57813300" lon="5.56774600">
    <ele>225</ele>
   </trkpt>
   <trkpt lat="50.57812100" lon="5.56772300">
    <ele>226</ele>
   </trkpt>
   <trkpt lat="50.57809000" lon="5.56771500">
    <ele>226</ele>
   </trkpt>
   <trkpt lat="50.57807600" lon="5.56771600">
    <ele>226</ele>
   </trkpt>
   <trkpt lat="50.57806000" lon="5.56771600">
    <ele>226</ele>
   </trkpt>
   <trkpt lat="50.57798100" lon="5.56776500">
    <ele>226</ele>
   </trkpt>
   <trkpt lat="50.57796400" lon="5.56778100">
    <ele>226</ele>
   </trkpt>
   <trkpt lat="50.57787600" lon="5.56786300">
    <ele>227</ele>
   </trkpt>
   <trkpt lat="50.57787000" lon="5.56786600">
    <ele>227</ele>
   </trkpt>
   <trkpt lat="50.57785500" lon="5.56786600">
    <ele>227</ele>
   </trkpt>
   <trkpt lat="50.57784800" lon="5.56785300">
    <ele>227</ele>
   </trkpt>
   <trkpt lat="50.57784700" lon="5.56785200">
    <ele>227</ele>
   </trkpt>
   <trkpt lat="50.57784500" lon="5.56784400">
    <ele>227</ele>
   </trkpt>
   <trkpt lat="50.57782500" lon="5.56783200">
    <ele>227</ele>
   </trkpt>
   <trkpt lat="50.57781300" lon="5.56782900">
    <ele>227</ele>
   </trkpt>
   <trkpt lat="50.57777700" lon="5.56783700">
    <ele>227</ele>
   </trkpt>
   <trkpt lat="50.57776500" lon="5.56781000">
    <ele>227</ele>
   </trkpt>
   <trkpt lat="50.57776500" lon="5.56781000">
    <ele>227</ele>
   </trkpt>
   <trkpt lat="50.57794100" lon="5.56775000">
    <ele>227</ele>
   </trkpt>
   <trkpt lat="50.57783600" lon="5.56807800">
    <ele>227</ele>
   </trkpt>
   <trkpt lat="50.57777900" lon="5.56812400">
    <ele>228</ele>
   </trkpt>
   <trkpt lat="50.57770600" lon="5.56809700">
    <ele>228</ele>
   </trkpt>
   <trkpt lat="50.57767700" lon="5.56808800">
    <ele>229</ele>
   </trkpt>
  </trkseg>
 </trk>
</gpx>
